{"type":"FeatureCollection","features":[{"type":"Feature","properties":{"source":"台灣河川.shp","name":"新店溪/南勢溪烏來段","kind":"river_polygon"},"geometry":{"type":"MultiPolygon","coordinates":[[[[121.54134526476511,24.88226355045128],[121.54124762111769,24.881531097288928],[121.54118107565806,24.880741105726738],[121.541178389661,24.880180765217837],[121.5413618677668,24.87921731956875],[121.54176522654781,24.87833939472825],[121.54240229637307,24.877144418268294],[121.54252576105638,24.876741629753333],[121.54258467546735,24.875951092157454],[121.54291048598168,24.87524581282212],[121.54340986185792,24.874769783941524],[121.54392697553197,24.874710385164303],[121.54488436859185,24.874922420678175],[121.54557434272675,24.87494852355623],[121.54582390872088,24.874674659567994],[121.54655837978397,24.87418331401953],[121.54677542156165,24.873679594508094],[121.54671273735191,24.87284634112493],[121.5463825697842,24.87225731256266],[121.54631894739299,24.87171119000796],[121.54642787560007,24.8712366694583],[121.54645864661049,24.870920445422446],[121.54658267155322,24.870129667728374],[121.5469888328918,24.86930986624789],[121.54730147745498,24.868849587084668],[121.54813143713453,24.868345604293655],[121.54874228848756,24.868114922776382],[121.5491495731776,24.867942051877797],[121.54951006758694,24.867912915960414],[121.5498442092483,24.86781281658997],[121.54991735969519,24.86779746851824],[121.55023031707297,24.86746647997811],[121.55049623930577,24.867150020566545],[121.55055829715194,24.866804967556323],[121.55052561959896,24.86604311577455],[121.55055567519896,24.865309926030367],[121.55074292285296,24.864849740763855],[121.55096188707698,24.864547719760914],[121.55143180733491,24.864403414761426],[121.55191738784576,24.86420162485229],[121.55249708879697,24.86405727197687],[121.55312403439363,24.86405657670317],[121.55343754797977,24.864056227928195],[121.55376651252035,24.863969682862702],[121.55417333993618,24.863552380329736],[121.55436107209167,24.86335087476165],[121.55442286698997,24.862876433008804],[121.55462561685243,24.86227253120745],[121.55493754422683,24.861424074536778],[121.55531288839597,24.860977992518425],[121.55570456281015,24.860862587630606],[121.55672349484718,24.86094773077288],[121.55722500757388,24.860918412006033],[121.5577418599929,24.860687864226872],[121.55821128299338,24.8602560510034],[121.55866453969578,24.859551254476965],[121.55900772689144,24.858673959773434],[121.55938313017278,24.858227957748742],[121.55986825692649,24.857824883655333],[121.56021224838231,24.857364550612576],[121.56043138196871,24.857234882299508],[121.5607449572374,24.857306390444894],[121.56118447853721,24.857650918616724],[121.56148273844391,24.857909296382235],[121.56189045437164,24.858023878542383],[121.56214112404564,24.857937338867302],[121.5624067684983,24.857534540668496],[121.56299974884313,24.856096397142714],[121.56328172182434,24.856038540695184],[121.56386203722839,24.85623914675771],[121.56466172647134,24.85645381963934],[121.56558670164588,24.856596502854515],[121.5660567052037,24.85648095508248],[121.566573571521,24.856279089806307],[121.56704288189881,24.855832983563765],[121.56726167495671,24.855487689977167],[121.56746468125088,24.85509929658766],[121.5676203618156,24.854552891610474],[121.56765074444863,24.854021048092807],[121.56765011707361,24.853704758480827],[121.56755538557658,24.853316773551818],[121.5673192281959,24.852770773288864],[121.56738095203809,24.852238900969933],[121.56774081814962,24.85192223506677],[121.56833646058254,24.851979021293918],[121.56926125590132,24.852035364014508],[121.5699666213983,24.852063283724544],[121.57048361391438,24.85194772357255],[121.57104738229187,24.851745754260033],[121.57175173971176,24.851270563866148],[121.57244038663922,24.850752270938955],[121.57283179344098,24.850536147394802],[121.57320766626522,24.850420667424014],[121.57342712582123,24.850420457380746],[121.57369917704261,24.850527951628614],[121.57369833589809,24.850345565532002],[121.57353647830088,24.850276564105528],[121.57320741197725,24.850276923959086],[121.57280006767273,24.850363721513975],[121.57248697512041,24.850536566061177],[121.57203314105062,24.850896491595115],[121.57126617284196,24.85138609850099],[121.57054596084146,24.851803831337715],[121.56999757933876,24.851890798675907],[121.569386466562,24.85194901943692],[121.5686653141231,24.85180612535885],[121.56814789121137,24.851720510813216],[121.56777195965768,24.851807175303005],[121.56738052369816,24.852037642236596],[121.56716181804097,24.85238284544203],[121.5671940649763,24.852885919049076],[121.56735144267623,24.85323077777993],[121.56746217329739,24.853762536846634],[121.56752587753458,24.854308650233676],[121.56726116372049,24.855214559420457],[121.56697990276906,24.855660494514954],[121.56654177020407,24.85603479069282],[121.56589985134198,24.856394869279377],[121.56539835949938,24.85642421683188],[121.56459879943574,24.856310132430583],[121.56376739635391,24.855923031320728],[121.5631558870985,24.855808680803033],[121.56296798631216,24.85589516619308],[121.56265541575411,24.856369924109398],[121.56240597759998,24.857088953808],[121.56214070396938,24.857736080121974],[121.56189016443395,24.857851332083037],[121.56170211504347,24.857851587839836],[121.56145101143728,24.8576793522158],[121.56112145856795,24.857449714409146],[121.56068192167797,24.857119632773774],[121.5603998008171,24.857091165966317],[121.56011779009182,24.857177729946272],[121.5598050620921,24.85756625394997],[121.5594140562377,24.858026671849558],[121.55900729856525,24.85841527542697],[121.55875708767027,24.85873178133208],[121.55846054463015,24.85943644381252],[121.55821074411442,24.859954207632907],[121.55802337198143,24.86034253030072],[121.55764746754261,24.860515488501576],[121.55709922623986,24.86071734994991],[121.55645667333981,24.860746742318877],[121.55564146870653,24.86066147166437],[121.55524987647976,24.8607768760764],[121.555245900093,24.860782037489813],[121.5549058747852,24.861222841507878],[121.5545001641077,24.862272635828432],[121.55420404293716,24.863207351845634],[121.55398529272757,24.86361005204624],[121.5536409365978,24.86386920221134],[121.55331186216355,24.863912678230776],[121.55293566252982,24.86391307823915],[121.55246543326164,24.86391355426903],[121.55179174942673,24.864086786468977],[121.55118096931093,24.864346192764692],[121.55074231029583,24.86449038170385],[121.55061648964967,24.86426051125166],[121.55038035686671,24.86367141497846],[121.55058295460672,24.863010003121804],[121.5508635231275,24.862132867143863],[121.55159890070561,24.861370166999375],[121.55194250068281,24.86066543414532],[121.55194172913484,24.86023420322886],[121.55168823011662,24.858710742553153],[121.55152964190307,24.857661595023174],[121.5515593235543,24.85669843234575],[121.55155770987601,24.85576409791225],[121.55149423999912,24.855347273989626],[121.5513525737984,24.8550024303878],[121.55138314559383,24.85457117373155],[121.55138234836058,24.854096782999225],[121.55158524741859,24.853636628791104],[121.5518668248908,24.853305662302283],[121.55227349715935,24.852859652487055],[121.55291497648936,24.85221205387374],[121.55300836117472,24.851866973712525],[121.55303863184197,24.85127761658015],[121.55284940222505,24.850587764186056],[121.55262914045457,24.850113643404104],[121.55201555822399,24.848806226675343],[121.55170034960565,24.847771561287608],[121.55127619309619,24.847197063827718],[121.55093077095306,24.84683807269056],[121.55061662569433,24.846464609038186],[121.5504284107473,24.84634981895692],[121.54892350768017,24.846150211119273],[121.5478421586977,24.846151290035518],[121.54574209377698,24.846124753665745],[121.54491149870464,24.846154330605724],[121.54392425357483,24.84621282491805],[121.54342275221713,24.846213385402542],[121.54315602754623,24.846041084609524],[121.54290425305926,24.845423227824682],[121.54287137403068,24.844546430380788],[121.54274482569917,24.84384225039297],[121.54277538140019,24.843382191365723],[121.5427122925262,24.84313790941455],[121.54239830669418,24.842793230452948],[121.54144119325241,24.842118516755377],[121.54073457437072,24.841299867847695],[121.53993378052292,24.84036634280283],[121.53977932190948,24.840278053203512],[121.53943187203839,24.840079310418705],[121.5389458918007,24.839964767267766],[121.53856976380226,24.839965129867192],[121.5383190276961,24.83999420432795],[121.53770787044348,24.83999477904038],[121.53684584905575,24.839938104345926],[121.53640653888162,24.839593501246508],[121.53560633561999,24.83903366970751],[121.53496303129666,24.838559952835773],[121.53422586678624,24.838158170367027],[121.53369293508246,24.838072400396182],[121.53341090613432,24.838130200975545],[121.53295677200708,24.838303105401145],[121.53239300010694,24.838562357270593],[121.53168839488431,24.83892242280498],[121.53120300060982,24.839152859042727],[121.5307330275608,24.839268296881926],[121.53009065894172,24.839355180361363],[121.52940120186172,24.839442047300597],[121.52791248457429,24.839472143308136],[121.52764599819362,24.8393861328132],[121.52733182057355,24.83892638960579],[121.527331438237,24.838682059924608],[121.52742480429663,24.838279478174304],[121.52736164808137,24.83793451343002],[121.52723432899808,24.83669840894187],[121.52716475365808,24.83650785903759],[121.52692911477232,24.836508689886564],[121.52701571699389,24.83720174709197],[121.52704785738136,24.837719189479426],[121.52714277295816,24.838279750760694],[121.52717505544963,24.83886906522633],[121.52726946831987,24.839156493830185],[121.52745821699675,24.8395588024704],[121.52777187152604,24.839702253239928],[121.52822626053901,24.839701821844788],[121.5290568588577,24.839701051080294],[121.53009086313595,24.839498924964268],[121.53035710572699,24.839412383376764],[121.53079590675053,24.839411999494104],[121.53153199814493,24.839123789100437],[121.53218974382297,24.838835673508243],[121.53308224385832,24.83838924824933],[121.53372443870191,24.838187410553473],[121.53410068678826,24.83827328890545],[121.53493200805576,24.838746878541894],[121.53557508289398,24.83909120756407],[121.53614009208894,24.839593825211132],[121.53672062755085,24.84002451226638],[121.5372535691197,24.84011018095242],[121.53808421202046,24.840138163033178],[121.5389146404077,24.84002230579341],[121.53936928357207,24.84013687184187],[121.53987151289324,24.84061071780275],[121.54042111261563,24.841242672891212],[121.54114344673414,24.842147585715594],[121.54200645772147,24.842764855680414],[121.54255567099666,24.84320989916916],[121.54271309336387,24.843583498130634],[121.54265085473206,24.8438710336597],[121.54265174301757,24.844374138093023],[121.54277859849107,24.845279668377348],[121.54281080711961,24.845797105678844],[121.54290536206443,24.846070166634963],[121.5431563789904,24.846271147563854],[121.5433602943419,24.846357176929352],[121.54462950123133,24.846240865233945],[121.54933121874369,24.846293451010983],[121.54997396261015,24.8463790312647],[121.55045997743517,24.846493537851295],[121.5508997793978,24.847082426806523],[121.55140236338175,24.84765690686371],[121.55173276191333,24.848418383631873],[121.55204766864053,24.84923743275317],[121.55244092869289,24.85005637197266],[121.55278727630099,24.850932818945555],[121.55288241121688,24.851550876358598],[121.55285161434465,24.851838389508703],[121.55278921114805,24.85201098768099],[121.55260167732114,24.852327432256537],[121.55214777800936,24.852687298425664],[121.55174119773574,24.853190823518442],[121.55138153359877,24.85363683900799],[121.55119448726803,24.85421196635671],[121.55128916908404,24.854600052785443],[121.55122725598635,24.85503133477782],[121.55135329722088,24.855404948990245],[121.55141699591115,24.855965516815278],[121.55138712966018,24.856813648402387],[121.55142039481186,24.8578917008318],[121.55146843440725,24.858509751851937],[121.55162674799269,24.859386442916843],[121.55178501813798,24.860234421039756],[121.55172306853066,24.86069441586596],[121.55153576678727,24.86114024628056],[121.55105055371007,24.861514490905783],[121.55067521996025,24.86200363157127],[121.55022145312786,24.862421007382633],[121.55009676586934,24.862852429507956],[121.55009795933793,24.863527988455218],[121.55003642090472,24.864174885005003],[121.54994448622377,24.865368158749234],[121.54997797056149,24.866589954112715],[121.54982190691582,24.866978241626096],[121.54950887637865,24.867237267058588],[121.54924281566984,24.86746758690601],[121.54874165461516,24.86771249468892],[121.5478801502112,24.868058405366483],[121.5470815090631,24.868519202859172],[121.54661213191754,24.86905156644707],[121.54628401729866,24.869670001684646],[121.54600253327705,24.87001531368206],[121.54578394195184,24.870518676767375],[121.54559711352752,24.87126634327057],[121.54559823913519,24.871913189299555],[121.54569300708194,24.87235870365497],[121.54588183033744,24.872789698287594],[121.54602217707554,24.873538787102124],[121.54593097408791,24.874128183814392],[121.54572882530455,24.874473837181977],[121.54544722032146,24.874589807551697],[121.54500763382893,24.87447647141139],[121.54464649383739,24.874362938122495],[121.54405043298945,24.874307595383062],[121.54331394695565,24.87439659605586],[121.5425793984105,24.874873479419865],[121.54211213563875,24.87550739952063],[121.54175837048857,24.876916873539702],[121.5415450928636,24.878196448995137],[121.5413282728186,24.878757676006792],[121.54107991613742,24.87927585755625],[121.54089572825941,24.880095561068185],[121.54080616154106,24.88102986286016],[121.54080955339981,24.881733945135377],[121.54093547344478,24.882502942708193],[121.54137885171443,24.88250133534705],[121.54134526476511,24.88226355045128]]],[[[121.53649992810969,24.88218081959158],[121.53631056338723,24.88192290456457],[121.53602790114944,24.881837691227666],[121.53529029139028,24.881696683884556],[121.53472402244846,24.881325176438345],[121.53445520411321,24.880852017133655],[121.53417147539884,24.880536921222397],[121.5338882620406,24.880322407923167],[121.53343356708433,24.88032412366246],[121.53305629446753,24.880124301216632],[121.53250591745774,24.87978144113731],[121.53215874397162,24.879308556914577],[121.53142021114964,24.87896636329745],[121.53126212689172,24.878708330202596],[121.5309160251625,24.878465322072277],[121.53033488711614,24.878237504620305],[121.53008194921918,24.877807349730464],[121.5297362403621,24.877636209679995],[121.52925020815739,24.87763793344603],[121.52900098728851,24.87798373155491],[121.52881258200668,24.87792688311852],[121.5285909352569,24.877482258365994],[121.52838490218397,24.877023221574394],[121.52818013321229,24.876822775872675],[121.5279916084254,24.8767373042656],[121.52772508439412,24.876738246578316],[121.52706770880921,24.876970542133073],[121.5268200522805,24.877185859420358],[121.52753786153703,24.8769400785113],[121.52785128296586,24.876910167622867],[121.52811894775533,24.877139104118005],[121.52835563390082,24.877454378467664],[121.52854548484673,24.87781288744047],[121.52865646135012,24.878071180641594],[121.52897025244077,24.87812749477127],[121.52925184070064,24.877982842483323],[121.5293764101373,24.877809943421127],[121.5296428136091,24.877780195462726],[121.52986289199654,24.87789435604794],[121.53014660377654,24.878209460541747],[121.5303985206386,24.878438448739566],[121.5309484560948,24.878680733296267],[121.53132641700422,24.879024213022667],[121.53184511278238,24.879309674567157],[121.53222264715667,24.879552568404495],[121.53260098390635,24.879982272094505],[121.532868582378,24.880211200015555],[121.53312001502934,24.880325243744313],[121.53352824514435,24.8804530831315],[121.53382620559839,24.880452017943227],[121.53410948087718,24.880680887522075],[121.53448883615513,24.88132601869892],[121.53488261258016,24.88169823550246],[121.53532221612873,24.88181160107208],[121.53605995051488,24.881981320566553],[121.53631194785035,24.88222465452045],[121.536540928244,24.882518802860467],[121.53677306211858,24.882517968313163],[121.53649992810969,24.88218081959158]]]]}},{"type":"Feature","properties":{"source":"derived","name":"南勢溪烏來段中心線","kind":"river_centerline"},"geometry":{"type":"LineString","coordinates":[[121.5526,24.8652],[121.5512,24.8639],[121.5498,24.8624],[121.5487,24.861],[121.5488,24.8595],[121.55,24.8581],[121.5508,24.8568],[121.55,24.8556],[121.5484,24.8547],[121.5465,24.8539],[121.5447,24.8529],[121.5432,24.8515],[121.5418,24.8502],[121.5404,24.849]]}}]}