{"type":"FeatureCollection","name":"baoer_zongdui_roads_500m","features":[{"type":"Feature","properties":{"osm_id":28875816,"name":"木新路三段","highway":"secondary","oneway":"yes","source":"OpenStreetMap Overpass API"},"geometry":{"type":"LineString","coordinates":[[121.5541083,24.9800085],[121.5541839,24.980012],[121.5542842,24.980038],[121.5548443,24.9801829],[121.5549022,24.9802142]]}},{"type":"Feature","properties":{"osm_id":28875817,"name":"樟新街","highway":"residential","oneway":"","source":"OpenStreetMap Overpass API"},"geometry":{"type":"LineString","coordinates":[[121.5549022,24.9802142],[121.5550325,24.9798156],[121.5550664,24.979712],[121.5550694,24.9797029],[121.5552146,24.9792421],[121.5553889,24.9787206],[121.5554277,24.9786193]]}},{"type":"Feature","properties":{"osm_id":28875819,"name":"寶橋路237巷","highway":"unclassified","oneway":"","source":"OpenStreetMap Overpass API"},"geometry":{"type":"LineString","coordinates":[[121.55261,24.9795699],[121.5525776,24.9796571],[121.5526187,24.9799261],[121.5526699,24.98037],[121.5527359,24.9809606],[121.552847,24.9816016],[121.5530964,24.9830265],[121.5531913,24.9835611],[121.5532574,24.9838487],[121.5532962,24.9841546],[121.5532668,24.9844575],[121.5532205,24.9846394],[121.5531682,24.9847905],[121.5530697,24.9849543],[121.5528621,24.9852367],[121.5527183,24.985432]]}},{"type":"Feature","properties":{"osm_id":29060240,"name":"寶中路97巷","highway":"residential","oneway":"","source":"OpenStreetMap Overpass API"},"geometry":{"type":"LineString","coordinates":[[121.5510508,24.9809784],[121.5507745,24.9808678],[121.5502547,24.9808382],[121.5490899,24.9806064],[121.5488633,24.9803044]]}},{"type":"Feature","properties":{"osm_id":29060242,"name":"寶橋路235巷","highway":"residential","oneway":"","source":"OpenStreetMap Overpass API"},"geometry":{"type":"LineString","coordinates":[[121.5514779,24.9855768],[121.5518659,24.9851004],[121.5523717,24.9845],[121.5524957,24.9843447],[121.5524985,24.9842281],[121.5523983,24.9841301],[121.5523792,24.9841114],[121.5508397,24.9831587],[121.5506565,24.9830397],[121.5504419,24.9829206],[121.5499841,24.982614],[121.5499201,24.9825213],[121.5499198,24.9824259],[121.5510508,24.9809784],[121.5513304,24.9806465],[121.5516737,24.980234],[121.5518529,24.9800128],[121.5522529,24.9794989],[121.5523205,24.9794121]]}},{"type":"Feature","properties":{"osm_id":30337313,"name":"辛亥路七段","highway":"unclassified","oneway":"yes","source":"OpenStreetMap Overpass API"},"geometry":{"type":"LineString","coordinates":[[121.5536148,24.9810599],[121.5536023,24.9809984],[121.5536489,24.9806296]]}},{"type":"Feature","properties":{"osm_id":30337314,"name":"木新路三段","highway":"unclassified","oneway":"yes","source":"OpenStreetMap Overpass API"},"geometry":{"type":"LineString","coordinates":[[121.5539761,24.9799025],[121.5546943,24.9800983],[121.5548449,24.9801386],[121.5549022,24.9802142]]}},{"type":"Feature","properties":{"osm_id":30337315,"name":"辛亥路七段","highway":"unclassified","oneway":"yes","source":"OpenStreetMap Overpass API"},"geometry":{"type":"LineString","coordinates":[[121.5537959,24.9800335],[121.5538411,24.9799576],[121.553871,24.9799293],[121.553896,24.9799122],[121.5539761,24.9799025]]}},{"type":"Feature","properties":{"osm_id":30337318,"name":"一壽街64巷","highway":"residential","oneway":"","source":"OpenStreetMap Overpass API"},"geometry":{"type":"LineString","coordinates":[[121.5554277,24.9786193],[121.5563282,24.9787545]]}},{"type":"Feature","properties":{"osm_id":30337320,"name":"樟新街48巷","highway":"residential","oneway":"","source":"OpenStreetMap Overpass API"},"geometry":{"type":"LineString","coordinates":[[121.5545265,24.9780006],[121.5555802,24.9782701]]}},{"type":"Feature","properties":{"osm_id":30620523,"name":"寶橋","highway":"tertiary","oneway":"","source":"OpenStreetMap Overpass API"},"geometry":{"type":"LineString","coordinates":[[121.55261,24.9795699],[121.552771,24.9796327]]}},{"type":"Feature","properties":{"osm_id":35200006,"name":"寶中路","highway":"tertiary","oneway":"no","source":"OpenStreetMap Overpass API"},"geometry":{"type":"LineString","coordinates":[[121.5486795,24.98053],[121.5485094,24.9806289],[121.5483302,24.9806728],[121.5481555,24.9806754],[121.5479272,24.9806619],[121.5477423,24.9806192],[121.5476445,24.9805966],[121.54733,24.9804412],[121.5460302,24.9796383],[121.5457155,24.9794603],[121.5451523,24.9791418],[121.5450797,24.9791007]]}},{"type":"Feature","properties":{"osm_id":55687893,"name":"寶高便道","highway":"unclassified","oneway":"","source":"OpenStreetMap Overpass API"},"geometry":{"type":"LineString","coordinates":[[121.5538778,24.9738084],[121.5541969,24.9736751],[121.5549901,24.9742796],[121.5557201,24.974763],[121.5556314,24.9750898],[121.5553595,24.975889],[121.5553438,24.9759352],[121.5553025,24.9760564]]}},{"type":"Feature","properties":{"osm_id":55687894,"name":"寶高便道","highway":"residential","oneway":"yes","source":"OpenStreetMap Overpass API"},"geometry":{"type":"LineString","coordinates":[[121.549193,24.9735871],[121.5492192,24.9735863],[121.5496984,24.9735708],[121.5498578,24.9735003],[121.5498911,24.9734892],[121.5499297,24.9734828],[121.5500712,24.973477],[121.5506311,24.9734547]]}},{"type":"Feature","properties":{"osm_id":55739791,"name":"木新路三段","highway":"secondary","oneway":"no","source":"OpenStreetMap Overpass API"},"geometry":{"type":"LineString","coordinates":[[121.5549022,24.9802142],[121.5550027,24.9802411],[121.5552421,24.9803052],[121.5553861,24.9803437],[121.5559896,24.9805052],[121.5562836,24.9805839],[121.5563799,24.9806097],[121.5571224,24.9808084],[121.5571928,24.9808272]]}},{"type":"Feature","properties":{"osm_id":106370415,"name":"中興路二段","highway":"tertiary","oneway":"yes","source":"OpenStreetMap Overpass API"},"geometry":{"type":"LineString","coordinates":[[121.5480481,24.9747386],[121.5480732,24.9746618],[121.5481133,24.974527],[121.5481408,24.9742789]]}},{"type":"Feature","properties":{"osm_id":106370433,"name":"中興路二段","highway":"tertiary","oneway":"yes","source":"OpenStreetMap Overpass API"},"geometry":{"type":"LineString","coordinates":[[121.5482806,24.9743076],[121.5482719,24.9745865],[121.5482002,24.9747845],[121.5481254,24.9749551],[121.5480331,24.9751116],[121.547856,24.9753756],[121.5476662,24.9756391],[121.5474348,24.9759732],[121.5472932,24.976166],[121.5472604,24.976208]]}},{"type":"Feature","properties":{"osm_id":106370441,"name":"中興陸橋","highway":"tertiary","oneway":"yes","source":"OpenStreetMap Overpass API"},"geometry":{"type":"LineString","coordinates":[[121.5456142,24.9781098],[121.5456821,24.9780247],[121.5464298,24.9770075],[121.5471453,24.9760424],[121.5474667,24.9756268],[121.547658,24.9753503],[121.5478085,24.9751524],[121.547949,24.9749384],[121.5480481,24.9747386]]}},{"type":"Feature","properties":{"osm_id":106370450,"name":"中興陸橋","highway":"tertiary","oneway":"yes","source":"OpenStreetMap Overpass API"},"geometry":{"type":"LineString","coordinates":[[121.5481275,24.9747565],[121.548029,24.974959],[121.5478926,24.9751533],[121.5475065,24.9757546],[121.5472419,24.9760981],[121.5468266,24.9766623],[121.5458018,24.978085],[121.5457419,24.9781848]]}},{"type":"Feature","properties":{"osm_id":106373375,"name":"寶橋路78巷","highway":"residential","oneway":"","source":"OpenStreetMap Overpass API"},"geometry":{"type":"LineString","coordinates":[[121.5474183,24.9738759],[121.547315,24.9740668],[121.5472895,24.9744522],[121.5469408,24.9750418],[121.5468349,24.9751378],[121.5463628,24.9753238],[121.5461617,24.9755014]]}},{"type":"Feature","properties":{"osm_id":106373379,"name":"寶橋路","highway":"tertiary","oneway":"no","source":"OpenStreetMap Overpass API"},"geometry":{"type":"LineString","coordinates":[[121.5477416,24.9764996],[121.5484293,24.9769301],[121.5488273,24.9771797],[121.5489641,24.9772648],[121.5495248,24.9776234],[121.5505261,24.9782637]]}},{"type":"Feature","properties":{"osm_id":106373383,"name":"寶高路","highway":"residential","oneway":"","source":"OpenStreetMap Overpass API"},"geometry":{"type":"LineString","coordinates":[[121.5510522,24.9777284],[121.5512446,24.9777143],[121.5515423,24.9776519],[121.5519871,24.9776443],[121.5522342,24.9777516],[121.552654,24.9777838],[121.5527196,24.9777418],[121.5527645,24.9776642],[121.5528731,24.9775866],[121.5530749,24.9773872],[121.5531684,24.977204],[121.5533031,24.9769347],[121.5534641,24.9767061],[121.5536089,24.9765603],[121.5538475,24.9764829],[121.5539809,24.9764476],[121.5543201,24.9762635],[121.5545452,24.9761807],[121.5547256,24.9761387],[121.5551624,24.9760764],[121.5551991,24.9760712],[121.5553025,24.9760564]]}},{"type":"Feature","properties":{"osm_id":106373384,"name":"永華街","highway":"residential","oneway":"yes","source":"OpenStreetMap Overpass API"},"geometry":{"type":"LineString","coordinates":[[121.545268,24.9749244],[121.545128,24.9750713],[121.5447132,24.9754472],[121.544232,24.9758835],[121.5437612,24.9762984],[121.5429872,24.9769561],[121.5429279,24.9770065]]}},{"type":"Feature","properties":{"osm_id":106373386,"name":"寶元路二段","highway":"residential","oneway":"","source":"OpenStreetMap Overpass API"},"geometry":{"type":"LineString","coordinates":[[121.5455045,24.9829062],[121.5456353,24.9827722],[121.5458311,24.9825717],[121.546023,24.9823751],[121.5461056,24.9822939],[121.5462346,24.9821585],[121.5464767,24.9819009],[121.5466528,24.9817069],[121.5469815,24.9813367],[121.5472028,24.9811318],[121.5476359,24.9807297],[121.5477423,24.9806192]]}},{"type":"Feature","properties":{"osm_id":106373392,"name":"文化路","highway":"residential","oneway":"yes","source":"OpenStreetMap Overpass API"},"geometry":{"type":"LineString","coordinates":[[121.5448877,24.9826428],[121.5448364,24.9824886],[121.5447788,24.9823229],[121.5447554,24.9822554],[121.5447601,24.9820869],[121.5447577,24.9819837],[121.544725,24.9818696],[121.5446927,24.9818144],[121.5446542,24.9817743],[121.5443488,24.9814511],[121.5443942,24.9813551],[121.54418,24.9812757],[121.5441132,24.9812485]]}},{"type":"Feature","properties":{"osm_id":106535636,"name":"一壽街20巷","highway":"residential","oneway":"","source":"OpenStreetMap Overpass API"},"geometry":{"type":"LineString","coordinates":[[121.5555388,24.9797904],[121.5559825,24.9797787],[121.5561781,24.9798273],[121.5565457,24.9799148]]}},{"type":"Feature","properties":{"osm_id":198170016,"name":"中興路二段","highway":"tertiary","oneway":"yes","source":"OpenStreetMap Overpass API"},"geometry":{"type":"LineString","coordinates":[[121.5476453,24.9718583],[121.5477757,24.9720943],[121.548004,24.9724963],[121.5482121,24.9728654],[121.5482907,24.9730951],[121.5483675,24.9735324],[121.5483731,24.9736263],[121.5483765,24.9737078]]}},{"type":"Feature","properties":{"osm_id":198414874,"name":"中興路三段","highway":"tertiary","oneway":"yes","source":"OpenStreetMap Overpass API"},"geometry":{"type":"LineString","coordinates":[[121.5449446,24.9790291],[121.5456142,24.9781098]]}},{"type":"Feature","properties":{"osm_id":198414875,"name":"中興路二段","highway":"tertiary","oneway":"yes","source":"OpenStreetMap Overpass API"},"geometry":{"type":"LineString","coordinates":[[121.5481408,24.9742789],[121.5481759,24.974107],[121.548223,24.9738235],[121.5482261,24.9737123],[121.5482222,24.9736294],[121.5482178,24.9735366],[121.548181,24.9734968],[121.5481342,24.9733357],[121.5480961,24.9731612],[121.5479719,24.9728734],[121.5477771,24.9724822]]}},{"type":"Feature","properties":{"osm_id":198582303,"name":"中興路二段","highway":"tertiary","oneway":"yes","source":"OpenStreetMap Overpass API"},"geometry":{"type":"LineString","coordinates":[[121.5482806,24.9743076],[121.5481275,24.9747565]]}},{"type":"Feature","properties":{"osm_id":199757503,"name":"寶高便道","highway":"residential","oneway":"yes","source":"OpenStreetMap Overpass API"},"geometry":{"type":"LineString","coordinates":[[121.5483765,24.9737078],[121.5482261,24.9737123],[121.548116,24.9737156],[121.5475274,24.9737334],[121.5473201,24.9736937],[121.5470829,24.9736272],[121.5469332,24.9735545],[121.5467641,24.9734255],[121.5466386,24.9732886],[121.5465507,24.973126],[121.5465091,24.9729762],[121.546495,24.9728071],[121.5465032,24.9726743],[121.5465457,24.9725295],[121.5466305,24.9723635],[121.5470526,24.9718014],[121.5470736,24.9717671],[121.5471177,24.9716607],[121.5471334,24.9715504],[121.5471197,24.9714184]]}},{"type":"Feature","properties":{"osm_id":204211714,"name":"樟新街8巷","highway":"residential","oneway":"","source":"OpenStreetMap Overpass API"},"geometry":{"type":"LineString","coordinates":[[121.5550694,24.9797029],[121.5545811,24.9795773],[121.554125,24.9794599],[121.5540607,24.9794434]]}},{"type":"Feature","properties":{"osm_id":225273274,"name":"中興地下道","highway":"tertiary","oneway":"yes","source":"OpenStreetMap Overpass API"},"geometry":{"type":"LineString","coordinates":[[121.5481133,24.9730278],[121.547959,24.9727034],[121.5478185,24.9724336],[121.5475927,24.9720466]]}},{"type":"Feature","properties":{"osm_id":229068625,"name":"辛亥路七段","highway":"secondary","oneway":"","source":"OpenStreetMap Overpass API"},"geometry":{"type":"LineString","coordinates":[[121.5540391,24.9832223],[121.5538435,24.9824924],[121.5538074,24.9823389],[121.5537222,24.9819766],[121.553656,24.9816647],[121.5536436,24.9814904],[121.5536363,24.981316]]}},{"type":"Feature","properties":{"osm_id":231570914,"name":"中興路二段","highway":"tertiary","oneway":"yes","source":"OpenStreetMap Overpass API"},"geometry":{"type":"LineString","coordinates":[[121.5470282,24.9760565],[121.5471935,24.9758321],[121.5474862,24.975463],[121.5477072,24.9751752],[121.5478119,24.9749945],[121.5479614,24.9747302],[121.5479985,24.9746102],[121.5481408,24.9742789]]}},{"type":"Feature","properties":{"osm_id":231570921,"name":"寶橋路","highway":"tertiary","oneway":"no","source":"OpenStreetMap Overpass API"},"geometry":{"type":"LineString","coordinates":[[121.5470282,24.9760565],[121.5472604,24.976208]]}},{"type":"Feature","properties":{"osm_id":237014522,"name":"寶橋","highway":"tertiary","oneway":"no","source":"OpenStreetMap Overpass API"},"geometry":{"type":"LineString","coordinates":[[121.552771,24.9796327],[121.5535528,24.9798835]]}},{"type":"Feature","properties":{"osm_id":237521973,"name":"品牌路","highway":"residential","oneway":"no","source":"OpenStreetMap Overpass API"},"geometry":{"type":"LineString","coordinates":[[121.5460302,24.9796383],[121.5464901,24.9791491],[121.546533,24.9791157],[121.5466895,24.978994],[121.5470904,24.9788522],[121.5474346,24.9787109],[121.5476884,24.9784787],[121.5477394,24.978366],[121.547765,24.9782107],[121.5477428,24.9780134],[121.5476057,24.9777507],[121.5466923,24.977101],[121.5466331,24.9770561]]}},{"type":"Feature","properties":{"osm_id":238699259,"name":"中興路三段","highway":"tertiary","oneway":"yes","source":"OpenStreetMap Overpass API"},"geometry":{"type":"LineString","coordinates":[[121.5450797,24.9791007],[121.544861,24.9794117],[121.5448013,24.9795117]]}},{"type":"Feature","properties":{"osm_id":238699260,"name":"中興路三段","highway":"tertiary","oneway":"yes","source":"OpenStreetMap Overpass API"},"geometry":{"type":"LineString","coordinates":[[121.5448013,24.9795117],[121.5447632,24.9795869],[121.5447025,24.979728],[121.5444266,24.9804393],[121.5444192,24.9804573],[121.5443889,24.9805314],[121.5443825,24.9805512],[121.5442694,24.9808216],[121.5441132,24.9812485],[121.5439282,24.9817581],[121.5438823,24.9819007],[121.5437292,24.982297],[121.5435835,24.9826743],[121.5435379,24.9827923]]}},{"type":"Feature","properties":{"osm_id":238699264,"name":"寶中路","highway":"tertiary","oneway":"no","source":"OpenStreetMap Overpass API"},"geometry":{"type":"LineString","coordinates":[[121.5450797,24.9791007],[121.5449446,24.9790291]]}},{"type":"Feature","properties":{"osm_id":238699265,"name":"寶橋路","highway":"tertiary","oneway":"no","source":"OpenStreetMap Overpass API"},"geometry":{"type":"LineString","coordinates":[[121.5505261,24.9782637],[121.5514967,24.9788748],[121.5517396,24.9790332],[121.5522536,24.9793684],[121.5523205,24.9794121]]}},{"type":"Feature","properties":{"osm_id":243199094,"name":"寶橋路","highway":"tertiary","oneway":"no","source":"OpenStreetMap Overpass API"},"geometry":{"type":"LineString","coordinates":[[121.5429744,24.9734417],[121.5430828,24.9735036],[121.5432546,24.9735997],[121.5433629,24.973684],[121.5437249,24.9739012],[121.5438455,24.9739868],[121.5440722,24.9741348],[121.5444295,24.9743681],[121.5445666,24.9744671],[121.5446158,24.9745021],[121.5446624,24.974534],[121.5448132,24.9746452],[121.544982,24.974758],[121.5450329,24.974792],[121.5451499,24.9748742],[121.545268,24.9749244],[121.5455501,24.9751178],[121.5461617,24.9755014],[121.5469758,24.9760375],[121.5470282,24.9760565]]}},{"type":"Feature","properties":{"osm_id":243315199,"name":"寶橋路","highway":"tertiary","oneway":"no","source":"OpenStreetMap Overpass API"},"geometry":{"type":"LineString","coordinates":[[121.5523205,24.9794121],[121.5525192,24.9795212],[121.55261,24.9795699]]}},{"type":"Feature","properties":{"osm_id":243315210,"name":"辛亥路七段","highway":"unclassified","oneway":"yes","source":"OpenStreetMap Overpass API"},"geometry":{"type":"LineString","coordinates":[[121.5536489,24.9806296],[121.5537255,24.9803112],[121.5537959,24.9800335]]}},{"type":"Feature","properties":{"osm_id":256262135,"name":"文化路","highway":"residential","oneway":"yes","source":"OpenStreetMap Overpass API"},"geometry":{"type":"LineString","coordinates":[[121.5443942,24.9813551],[121.544477,24.9812532],[121.544721,24.9809528]]}},{"type":"Feature","properties":{"osm_id":304215498,"name":"樟新街32巷","highway":"residential","oneway":"","source":"OpenStreetMap Overpass API"},"geometry":{"type":"LineString","coordinates":[[121.5548839,24.9786179],[121.5543732,24.9785023]]}},{"type":"Feature","properties":{"osm_id":304326472,"name":"中興路三段","highway":"tertiary","oneway":"yes","source":"OpenStreetMap Overpass API"},"geometry":{"type":"LineString","coordinates":[[121.5472604,24.976208],[121.5470033,24.9765642],[121.5467963,24.9768317],[121.5466331,24.9770561],[121.5458529,24.9781197],[121.5457419,24.9781848],[121.5450797,24.9791007]]}},{"type":"Feature","properties":{"osm_id":304326473,"name":"中興路三段","highway":"tertiary","oneway":"yes","source":"OpenStreetMap Overpass API"},"geometry":{"type":"LineString","coordinates":[[121.5456142,24.9781098],[121.5456081,24.9779945],[121.5461321,24.9772706],[121.546391,24.9769119],[121.5467613,24.9764244],[121.5469578,24.9761608],[121.5470282,24.9760565]]}},{"type":"Feature","properties":{"osm_id":316477848,"name":"寶橋路","highway":"tertiary","oneway":"no","source":"OpenStreetMap Overpass API"},"geometry":{"type":"LineString","coordinates":[[121.5472604,24.976208],[121.5473229,24.976238],[121.5475833,24.9763905],[121.5477416,24.9764996]]}},{"type":"Feature","properties":{"osm_id":335218465,"name":"寶橋路55巷","highway":"unclassified","oneway":"yes","source":"OpenStreetMap Overpass API"},"geometry":{"type":"LineString","coordinates":[[121.5444272,24.9753927],[121.5450329,24.974792]]}},{"type":"Feature","properties":{"osm_id":371458339,"name":"寶元路二段38巷","highway":"residential","oneway":"","source":"OpenStreetMap Overpass API"},"geometry":{"type":"LineString","coordinates":[[121.5462919,24.9813399],[121.5466528,24.9817069]]}},{"type":"Feature","properties":{"osm_id":371458340,"name":"寶中路65巷","highway":"residential","oneway":"","source":"OpenStreetMap Overpass API"},"geometry":{"type":"LineString","coordinates":[[121.5463039,24.9808892],[121.5465509,24.9811285]]}},{"type":"Feature","properties":{"osm_id":371458361,"name":"寶元路二段64巷","highway":"residential","oneway":"","source":"OpenStreetMap Overpass API"},"geometry":{"type":"LineString","coordinates":[[121.5468834,24.9808267],[121.5472028,24.9811318]]}},{"type":"Feature","properties":{"osm_id":371458376,"name":"寶中路93巷","highway":"residential","oneway":"","source":"OpenStreetMap Overpass API"},"geometry":{"type":"LineString","coordinates":[[121.5476571,24.9811821],[121.5481319,24.9811821],[121.5481026,24.9807868],[121.5481555,24.9806754]]}},{"type":"Feature","properties":{"osm_id":380194042,"name":"樟新街32巷","highway":"residential","oneway":"","source":"OpenStreetMap Overpass API"},"geometry":{"type":"LineString","coordinates":[[121.5548839,24.9786179],[121.5553889,24.9787206]]}},{"type":"Feature","properties":{"osm_id":380194043,"name":"樟新街","highway":"residential","oneway":"","source":"OpenStreetMap Overpass API"},"geometry":{"type":"LineString","coordinates":[[121.5555802,24.9782701],[121.5557989,24.9778899],[121.5558376,24.977829],[121.5558942,24.9777088]]}},{"type":"Feature","properties":{"osm_id":380194044,"name":"一壽街66巷","highway":"residential","oneway":"","source":"OpenStreetMap Overpass API"},"geometry":{"type":"LineString","coordinates":[[121.5555802,24.9782701],[121.5556587,24.9782895],[121.5563773,24.9783934]]}},{"type":"Feature","properties":{"osm_id":380195440,"name":"樟新街38巷","highway":"residential","oneway":"","source":"OpenStreetMap Overpass API"},"geometry":{"type":"LineString","coordinates":[[121.5554277,24.9786193],[121.5555802,24.9782701]]}},{"type":"Feature","properties":{"osm_id":494873605,"name":"寶中路65巷","highway":"residential","oneway":"","source":"OpenStreetMap Overpass API"},"geometry":{"type":"LineString","coordinates":[[121.546501,24.9806704],[121.5467638,24.9809376]]}},{"type":"Feature","properties":{"osm_id":514555268,"name":"寶興路42巷","highway":"residential","oneway":"no","source":"OpenStreetMap Overpass API"},"geometry":{"type":"LineString","coordinates":[[121.5475801,24.9714041],[121.5477277,24.9716448],[121.5478111,24.9717901],[121.5479662,24.9720066],[121.5482077,24.9723081],[121.548605,24.9727076],[121.549188,24.9732934]]}},{"type":"Feature","properties":{"osm_id":514555269,"name":"寶興路","highway":"residential","oneway":"yes","source":"OpenStreetMap Overpass API"},"geometry":{"type":"LineString","coordinates":[[121.5489255,24.9739408],[121.5487398,24.9741121],[121.548564,24.9742656],[121.5483572,24.9744453],[121.5482719,24.9745865]]}},{"type":"Feature","properties":{"osm_id":514555271,"name":"寶興路","highway":"residential","oneway":"no","source":"OpenStreetMap Overpass API"},"geometry":{"type":"LineString","coordinates":[[121.549188,24.9732934],[121.5495734,24.9728899],[121.5496422,24.9727932],[121.5496774,24.9726869],[121.5496914,24.9724699],[121.5498197,24.9722044],[121.5500382,24.9720096]]}},{"type":"Feature","properties":{"osm_id":514555287,"name":"寶橋路78巷","highway":"residential","oneway":"yes","source":"OpenStreetMap Overpass API"},"geometry":{"type":"LineString","coordinates":[[121.5474183,24.9738759],[121.5473968,24.9738018],[121.5473201,24.9736937]]}},{"type":"Feature","properties":{"osm_id":514555288,"name":"寶橋路78巷","highway":"residential","oneway":"yes","source":"OpenStreetMap Overpass API"},"geometry":{"type":"LineString","coordinates":[[121.5475274,24.9737334],[121.5474183,24.9738759]]}},{"type":"Feature","properties":{"osm_id":657396307,"name":"老泉街","highway":"unclassified","oneway":"","source":"OpenStreetMap Overpass API"},"geometry":{"type":"LineString","coordinates":[[121.5553025,24.9760564],[121.5554355,24.9760375],[121.5554614,24.9760338],[121.5556723,24.9760169],[121.5558136,24.9760104],[121.5564891,24.9760166]]}},{"type":"Feature","properties":{"osm_id":659860620,"name":"寶中路65巷","highway":"residential","oneway":"","source":"OpenStreetMap Overpass API"},"geometry":{"type":"LineString","coordinates":[[121.54733,24.9804412],[121.5468834,24.9808267],[121.5467638,24.9809376],[121.5466529,24.9810404],[121.5465509,24.9811285],[121.5463252,24.9813234],[121.5462919,24.9813399],[121.5460447,24.9814677],[121.5457817,24.9815945]]}},{"type":"Feature","properties":{"osm_id":663234414,"name":"木新路三段","highway":"secondary","oneway":"yes","source":"OpenStreetMap Overpass API"},"geometry":{"type":"LineString","coordinates":[[121.5549022,24.9802142],[121.5548241,24.9802268],[121.5546344,24.9801872]]}},{"type":"Feature","properties":{"osm_id":1065109175,"name":"寶橋","highway":"tertiary","oneway":"yes","source":"OpenStreetMap Overpass API"},"geometry":{"type":"LineString","coordinates":[[121.5539861,24.9800471],[121.5536524,24.9799507],[121.5535528,24.9798835]]}},{"type":"Feature","properties":{"osm_id":1065109176,"name":"木新路三段","highway":"secondary","oneway":"yes","source":"OpenStreetMap Overpass API"},"geometry":{"type":"LineString","coordinates":[[121.5540109,24.9799808],[121.5541083,24.9800085]]}},{"type":"Feature","properties":{"osm_id":1065109177,"name":"木新路三段","highway":"secondary","oneway":"yes","source":"OpenStreetMap Overpass API"},"geometry":{"type":"LineString","coordinates":[[121.5546344,24.9801872],[121.5541305,24.9800808],[121.5539861,24.9800471]]}},{"type":"Feature","properties":{"osm_id":1065109178,"name":"寶橋","highway":"tertiary","oneway":"yes","source":"OpenStreetMap Overpass API"},"geometry":{"type":"LineString","coordinates":[[121.5535528,24.9798835],[121.5536799,24.9798851],[121.5540109,24.9799808]]}},{"type":"Feature","properties":{"osm_id":1118689361,"name":"寶高便道","highway":"unclassified","oneway":"yes","source":"OpenStreetMap Overpass API"},"geometry":{"type":"LineString","coordinates":[[121.5506311,24.9734547],[121.5507319,24.9734543],[121.5508608,24.9734617],[121.551153,24.973512],[121.5512237,24.9735208],[121.5518012,24.9735029],[121.5518594,24.9735096],[121.5519073,24.9735368],[121.5519379,24.9735848],[121.5520155,24.9737665]]}},{"type":"Feature","properties":{"osm_id":1118689362,"name":"寶高便道","highway":"unclassified","oneway":"yes","source":"OpenStreetMap Overpass API"},"geometry":{"type":"LineString","coordinates":[[121.5525183,24.9739317],[121.5525818,24.9739456],[121.5530805,24.9740544],[121.5531841,24.974058],[121.553305,24.9740457]]}},{"type":"Feature","properties":{"osm_id":1118689363,"name":"寶高便道","highway":"unclassified","oneway":"yes","source":"OpenStreetMap Overpass API"},"geometry":{"type":"LineString","coordinates":[[121.5520155,24.9737665],[121.5520379,24.9737976],[121.5520716,24.9738261],[121.5521137,24.9738435],[121.5523389,24.9738926],[121.5524391,24.9739145]]}},{"type":"Feature","properties":{"osm_id":1118689364,"name":"寶高便道","highway":"unclassified","oneway":"yes","source":"OpenStreetMap Overpass API"},"geometry":{"type":"LineString","coordinates":[[121.5524391,24.9739145],[121.5525183,24.9739317]]}},{"type":"Feature","properties":{"osm_id":1118689365,"name":"寶高便道","highway":"unclassified","oneway":"yes","source":"OpenStreetMap Overpass API"},"geometry":{"type":"LineString","coordinates":[[121.553305,24.9740457],[121.5531631,24.9741131],[121.5530581,24.9741258],[121.5529716,24.9741194],[121.5525916,24.9740364],[121.5525542,24.9740282],[121.5524588,24.9740074]]}},{"type":"Feature","properties":{"osm_id":1118689366,"name":"寶高便道","highway":"unclassified","oneway":"no","source":"OpenStreetMap Overpass API"},"geometry":{"type":"LineString","coordinates":[[121.553305,24.9740457],[121.5534116,24.974009],[121.5535043,24.9739708]]}},{"type":"Feature","properties":{"osm_id":1118689367,"name":"寶高便道","highway":"unclassified","oneway":"","source":"OpenStreetMap Overpass API"},"geometry":{"type":"LineString","coordinates":[[121.5535043,24.9739708],[121.5538778,24.9738084]]}},{"type":"Feature","properties":{"osm_id":1118689370,"name":"寶高便道","highway":"unclassified","oneway":"yes","source":"OpenStreetMap Overpass API"},"geometry":{"type":"LineString","coordinates":[[121.5524588,24.9740074],[121.5523798,24.9739901],[121.552249,24.9739615],[121.5520342,24.9739146],[121.5519623,24.9738896],[121.5519015,24.9738505],[121.5518635,24.9737987],[121.5518354,24.9736997],[121.5518081,24.9736567],[121.5517777,24.9736299],[121.5517046,24.9736129],[121.5516163,24.9736099],[121.5500638,24.9736568],[121.5492481,24.9736814],[121.5492213,24.9736822],[121.5491945,24.973683]]}},{"type":"Feature","properties":{"osm_id":1118689371,"name":"寶高便道","highway":"unclassified","oneway":"yes","source":"OpenStreetMap Overpass API"},"geometry":{"type":"LineString","coordinates":[[121.5491945,24.973683],[121.5485201,24.9737034],[121.5484638,24.9737051],[121.5483765,24.9737078]]}},{"type":"Feature","properties":{"osm_id":1118689372,"name":"寶高便道","highway":"residential","oneway":"yes","source":"OpenStreetMap Overpass API"},"geometry":{"type":"LineString","coordinates":[[121.5483675,24.9735324],[121.5484615,24.9735297],[121.5491328,24.9735107],[121.5491601,24.9735099],[121.5491916,24.973509]]}},{"type":"Feature","properties":{"osm_id":1118689373,"name":"寶興路","highway":"residential","oneway":"no","source":"OpenStreetMap Overpass API"},"geometry":{"type":"LineString","coordinates":[[121.549188,24.9732934],[121.5491908,24.9734554],[121.5491912,24.9734811],[121.5491916,24.973509],[121.549192,24.9735316],[121.549193,24.9735871],[121.5491941,24.9736549],[121.5491945,24.973683]]}},{"type":"Feature","properties":{"osm_id":1118689374,"name":"寶興路","highway":"residential","oneway":"yes","source":"OpenStreetMap Overpass API"},"geometry":{"type":"LineString","coordinates":[[121.5491945,24.973683],[121.5491643,24.9737159],[121.5489255,24.9739408]]}},{"type":"Feature","properties":{"osm_id":1278601873,"name":"寶橋路78巷","highway":"residential","oneway":"yes","source":"OpenStreetMap Overpass API"},"geometry":{"type":"LineString","coordinates":[[121.5477771,24.9724822],[121.5475879,24.9723251],[121.5475219,24.9722777],[121.5474183,24.9722376],[121.5473386,24.9722234],[121.547226,24.9722283],[121.5471026,24.9722599],[121.5469991,24.9723069],[121.5469097,24.9723668],[121.5468373,24.9724616],[121.5467836,24.9725711],[121.5467488,24.9726999],[121.5467373,24.9728146],[121.5467496,24.9729514],[121.5467804,24.9730576],[121.546839,24.9731749],[121.5469283,24.9732795],[121.5470619,24.9733819],[121.547182,24.973447],[121.547368,24.9735121]]}},{"type":"Feature","properties":{"osm_id":1278601874,"name":"寶橋路78巷","highway":"residential","oneway":"yes","source":"OpenStreetMap Overpass API"},"geometry":{"type":"LineString","coordinates":[[121.5473201,24.9736937],[121.547368,24.9735121]]}},{"type":"Feature","properties":{"osm_id":1278601875,"name":"寶橋路78巷","highway":"residential","oneway":"yes","source":"OpenStreetMap Overpass API"},"geometry":{"type":"LineString","coordinates":[[121.5475755,24.9735506],[121.5475274,24.9737334]]}},{"type":"Feature","properties":{"osm_id":1278601878,"name":"寶橋路78巷","highway":"residential","oneway":"yes","source":"OpenStreetMap Overpass API"},"geometry":{"type":"LineString","coordinates":[[121.547368,24.9735121],[121.5475755,24.9735506],[121.5477018,24.9735513],[121.5481062,24.9735398],[121.5482178,24.9735366],[121.5483675,24.9735324]]}},{"type":"Feature","properties":{"osm_id":1278601879,"name":"中興地下道","highway":"tertiary","oneway":"yes","source":"OpenStreetMap Overpass API"},"geometry":{"type":"LineString","coordinates":[[121.5482178,24.9735366],[121.5481702,24.973242],[121.5481133,24.9730278]]}},{"type":"Feature","properties":{"osm_id":1283102093,"name":"樟新街5巷","highway":"residential","oneway":"","source":"OpenStreetMap Overpass API"},"geometry":{"type":"LineString","coordinates":[[121.5550325,24.9798156],[121.5553691,24.9798701],[121.5555388,24.9797904]]}},{"type":"Feature","properties":{"osm_id":1307957131,"name":"寶強路","highway":"tertiary","oneway":"no","source":"OpenStreetMap Overpass API"},"geometry":{"type":"LineString","coordinates":[[121.5448013,24.9795117],[121.5446704,24.9794634]]}},{"type":"Feature","properties":{"osm_id":1376018257,"name":"寶高路","highway":"residential","oneway":"","source":"OpenStreetMap Overpass API"},"geometry":{"type":"LineString","coordinates":[[121.5505261,24.9782637],[121.5510522,24.9777284]]}},{"type":"Feature","properties":{"osm_id":1421487919,"name":"中興路二段","highway":"tertiary","oneway":"yes","source":"OpenStreetMap Overpass API"},"geometry":{"type":"LineString","coordinates":[[121.5483765,24.9737078],[121.5482806,24.9743076]]}},{"type":"Feature","properties":{"osm_id":1425004359,"name":"寶中路","highway":"tertiary","oneway":"no","source":"OpenStreetMap Overpass API"},"geometry":{"type":"LineString","coordinates":[[121.5505261,24.9782637],[121.5500257,24.9788779],[121.5498475,24.9790966],[121.5488633,24.9803044],[121.5486795,24.98053]]}},{"type":"Feature","properties":{"osm_id":1465707235,"name":"中興路三段","highway":"tertiary","oneway":"yes","source":"OpenStreetMap Overpass API"},"geometry":{"type":"LineString","coordinates":[[121.5446704,24.9794634],[121.5447357,24.9793523],[121.5448124,24.9792271],[121.5449446,24.9790291]]}}]}