{"type":"FeatureCollection","name":"critical_infrastructure_68_demo","features":[{"type":"Feature","properties":{"id":"CI001","name":"示範關鍵設施01","category":"發電","agency":"待確認","city":"基隆市","address":"待確認","status":"正常","note":"Demo 測試資料，非正式座標"},"geometry":{"type":"Point","coordinates":[121.746,25.131]}},{"type":"Feature","properties":{"id":"CI002","name":"示範關鍵設施02","category":"石化","agency":"待確認","city":"臺北市","address":"待確認","status":"正常","note":"Demo 測試資料，非正式座標"},"geometry":{"type":"Point","coordinates":[121.575,25.043]}},{"type":"Feature","properties":{"id":"CI003","name":"示範關鍵設施03","category":"港口","agency":"待確認","city":"新北市","address":"待確認","status":"正常","note":"Demo 測試資料，非正式座標"},"geometry":{"type":"Point","coordinates":[121.483,25.033]}},{"type":"Feature","properties":{"id":"CI004","name":"示範關鍵設施04","category":"機場","agency":"待確認","city":"桃園市","address":"待確認","status":"正常","note":"Demo 測試資料，非正式座標"},"geometry":{"type":"Point","coordinates":[121.301,25.023]}},{"type":"Feature","properties":{"id":"CI005","name":"示範關鍵設施05","category":"水資源","agency":"待確認","city":"新竹市","address":"待確認","status":"正常","note":"Demo 測試資料，非正式座標"},"geometry":{"type":"Point","coordinates":[120.978,24.804]}},{"type":"Feature","properties":{"id":"CI006","name":"示範關鍵設施06","category":"科學園區","agency":"待確認","city":"新竹縣","address":"待確認","status":"正常","note":"Demo 測試資料，非正式座標"},"geometry":{"type":"Point","coordinates":[121.024,24.849]}},{"type":"Feature","properties":{"id":"CI007","name":"示範關鍵設施07","category":"交通","agency":"待確認","city":"苗栗縣","address":"待確認","status":"正常","note":"Demo 測試資料，非正式座標"},"geometry":{"type":"Point","coordinates":[120.823,24.585]}},{"type":"Feature","properties":{"id":"CI008","name":"示範關鍵設施08","category":"通訊","agency":"待確認","city":"臺中市","address":"待確認","status":"正常","note":"Demo 測試資料，非正式座標"},"geometry":{"type":"Point","coordinates":[120.693,24.177]}},{"type":"Feature","properties":{"id":"CI009","name":"示範關鍵設施09","category":"發電","agency":"待確認","city":"彰化縣","address":"待確認","status":"正常","note":"Demo 測試資料，非正式座標"},"geometry":{"type":"Point","coordinates":[120.562,24.08]}},{"type":"Feature","properties":{"id":"CI010","name":"示範關鍵設施10","category":"石化","agency":"待確認","city":"南投縣","address":"待確認","status":"正常","note":"Demo 測試資料，非正式座標"},"geometry":{"type":"Point","coordinates":[120.973,23.97]}},{"type":"Feature","properties":{"id":"CI011","name":"示範關鍵設施11","category":"港口","agency":"待確認","city":"雲林縣","address":"待確認","status":"正常","note":"Demo 測試資料，非正式座標"},"geometry":{"type":"Point","coordinates":[120.548,23.729]}},{"type":"Feature","properties":{"id":"CI012","name":"示範關鍵設施12","category":"機場","agency":"待確認","city":"嘉義市","address":"待確認","status":"正常","note":"Demo 測試資料，非正式座標"},"geometry":{"type":"Point","coordinates":[120.469,23.51]}},{"type":"Feature","properties":{"id":"CI013","name":"示範關鍵設施13","category":"水資源","agency":"待確認","city":"嘉義縣","address":"待確認","status":"正常","note":"Demo 測試資料，非正式座標"},"geometry":{"type":"Point","coordinates":[120.255,23.452]}},{"type":"Feature","properties":{"id":"CI014","name":"示範關鍵設施14","category":"科學園區","agency":"待確認","city":"臺南市","address":"待確認","status":"正常","note":"Demo 測試資料，非正式座標"},"geometry":{"type":"Point","coordinates":[120.237,23.009]}},{"type":"Feature","properties":{"id":"CI015","name":"示範關鍵設施15","category":"交通","agency":"待確認","city":"高雄市","address":"待確認","status":"正常","note":"Demo 測試資料，非正式座標"},"geometry":{"type":"Point","coordinates":[120.321,22.647]}},{"type":"Feature","properties":{"id":"CI016","name":"示範關鍵設施16","category":"通訊","agency":"待確認","city":"屏東縣","address":"待確認","status":"正常","note":"Demo 測試資料，非正式座標"},"geometry":{"type":"Point","coordinates":[120.488,22.712]}},{"type":"Feature","properties":{"id":"CI017","name":"示範關鍵設施17","category":"發電","agency":"待確認","city":"宜蘭縣","address":"待確認","status":"正常","note":"Demo 測試資料，非正式座標"},"geometry":{"type":"Point","coordinates":[121.764,24.757]}},{"type":"Feature","properties":{"id":"CI018","name":"示範關鍵設施18","category":"石化","agency":"待確認","city":"花蓮縣","address":"待確認","status":"正常","note":"Demo 測試資料，非正式座標"},"geometry":{"type":"Point","coordinates":[121.626,24.001]}},{"type":"Feature","properties":{"id":"CI019","name":"示範關鍵設施19","category":"港口","agency":"待確認","city":"臺東縣","address":"待確認","status":"正常","note":"Demo 測試資料，非正式座標"},"geometry":{"type":"Point","coordinates":[121.145,22.776]}},{"type":"Feature","properties":{"id":"CI020","name":"示範關鍵設施20","category":"機場","agency":"待確認","city":"澎湖縣","address":"待確認","status":"正常","note":"Demo 測試資料，非正式座標"},"geometry":{"type":"Point","coordinates":[119.576,23.596]}},{"type":"Feature","properties":{"id":"CI021","name":"示範關鍵設施21","category":"水資源","agency":"待確認","city":"金門縣","address":"待確認","status":"正常","note":"Demo 測試資料，非正式座標"},"geometry":{"type":"Point","coordinates":[118.338,24.432]}},{"type":"Feature","properties":{"id":"CI022","name":"示範關鍵設施22","category":"科學園區","agency":"待確認","city":"連江縣","address":"待確認","status":"正常","note":"Demo 測試資料，非正式座標"},"geometry":{"type":"Point","coordinates":[119.951,26.17]}},{"type":"Feature","properties":{"id":"CI023","name":"示範關鍵設施23","category":"交通","agency":"待確認","city":"基隆市","address":"待確認","status":"正常","note":"Demo 測試資料，非正式座標"},"geometry":{"type":"Point","coordinates":[121.756,25.151]}},{"type":"Feature","properties":{"id":"CI024","name":"示範關鍵設施24","category":"通訊","agency":"待確認","city":"臺北市","address":"待確認","status":"正常","note":"Demo 測試資料，非正式座標"},"geometry":{"type":"Point","coordinates":[121.585,25.063]}},{"type":"Feature","properties":{"id":"CI025","name":"示範關鍵設施25","category":"發電","agency":"待確認","city":"新北市","address":"待確認","status":"正常","note":"Demo 測試資料，非正式座標"},"geometry":{"type":"Point","coordinates":[121.463,25.013]}},{"type":"Feature","properties":{"id":"CI026","name":"示範關鍵設施26","category":"石化","agency":"待確認","city":"桃園市","address":"待確認","status":"正常","note":"Demo 測試資料，非正式座標"},"geometry":{"type":"Point","coordinates":[121.311,25.003]}},{"type":"Feature","properties":{"id":"CI027","name":"示範關鍵設施27","category":"港口","agency":"待確認","city":"新竹市","address":"待確認","status":"正常","note":"Demo 測試資料，非正式座標"},"geometry":{"type":"Point","coordinates":[120.988,24.824]}},{"type":"Feature","properties":{"id":"CI028","name":"示範關鍵設施28","category":"機場","agency":"待確認","city":"新竹縣","address":"待確認","status":"正常","note":"Demo 測試資料，非正式座標"},"geometry":{"type":"Point","coordinates":[121.004,24.869]}},{"type":"Feature","properties":{"id":"CI029","name":"示範關鍵設施29","category":"水資源","agency":"待確認","city":"苗栗縣","address":"待確認","status":"正常","note":"Demo 測試資料，非正式座標"},"geometry":{"type":"Point","coordinates":[120.833,24.565]}},{"type":"Feature","properties":{"id":"CI030","name":"示範關鍵設施30","category":"科學園區","agency":"待確認","city":"臺中市","address":"待確認","status":"正常","note":"Demo 測試資料，非正式座標"},"geometry":{"type":"Point","coordinates":[120.703,24.157]}},{"type":"Feature","properties":{"id":"CI031","name":"示範關鍵設施31","category":"交通","agency":"待確認","city":"彰化縣","address":"待確認","status":"正常","note":"Demo 測試資料，非正式座標"},"geometry":{"type":"Point","coordinates":[120.542,24.1]}},{"type":"Feature","properties":{"id":"CI032","name":"示範關鍵設施32","category":"通訊","agency":"待確認","city":"南投縣","address":"待確認","status":"正常","note":"Demo 測試資料，非正式座標"},"geometry":{"type":"Point","coordinates":[120.983,23.99]}},{"type":"Feature","properties":{"id":"CI033","name":"示範關鍵設施33","category":"發電","agency":"待確認","city":"雲林縣","address":"待確認","status":"正常","note":"Demo 測試資料，非正式座標"},"geometry":{"type":"Point","coordinates":[120.558,23.709]}},{"type":"Feature","properties":{"id":"CI034","name":"示範關鍵設施34","category":"石化","agency":"待確認","city":"嘉義市","address":"待確認","status":"正常","note":"Demo 測試資料，非正式座標"},"geometry":{"type":"Point","coordinates":[120.449,23.49]}},{"type":"Feature","properties":{"id":"CI035","name":"示範關鍵設施35","category":"港口","agency":"待確認","city":"嘉義縣","address":"待確認","status":"正常","note":"Demo 測試資料，非正式座標"},"geometry":{"type":"Point","coordinates":[120.265,23.472]}},{"type":"Feature","properties":{"id":"CI036","name":"示範關鍵設施36","category":"機場","agency":"待確認","city":"臺南市","address":"待確認","status":"正常","note":"Demo 測試資料，非正式座標"},"geometry":{"type":"Point","coordinates":[120.247,23.029]}},{"type":"Feature","properties":{"id":"CI037","name":"示範關鍵設施37","category":"水資源","agency":"待確認","city":"高雄市","address":"待確認","status":"正常","note":"Demo 測試資料，非正式座標"},"geometry":{"type":"Point","coordinates":[120.301,22.627]}},{"type":"Feature","properties":{"id":"CI038","name":"示範關鍵設施38","category":"科學園區","agency":"待確認","city":"屏東縣","address":"待確認","status":"正常","note":"Demo 測試資料，非正式座標"},"geometry":{"type":"Point","coordinates":[120.498,22.692]}},{"type":"Feature","properties":{"id":"CI039","name":"示範關鍵設施39","category":"交通","agency":"待確認","city":"宜蘭縣","address":"待確認","status":"正常","note":"Demo 測試資料，非正式座標"},"geometry":{"type":"Point","coordinates":[121.774,24.777]}},{"type":"Feature","properties":{"id":"CI040","name":"示範關鍵設施40","category":"通訊","agency":"待確認","city":"花蓮縣","address":"待確認","status":"正常","note":"Demo 測試資料，非正式座標"},"geometry":{"type":"Point","coordinates":[121.606,24.021]}},{"type":"Feature","properties":{"id":"CI041","name":"示範關鍵設施41","category":"發電","agency":"待確認","city":"臺東縣","address":"待確認","status":"正常","note":"Demo 測試資料，非正式座標"},"geometry":{"type":"Point","coordinates":[121.155,22.756]}},{"type":"Feature","properties":{"id":"CI042","name":"示範關鍵設施42","category":"石化","agency":"待確認","city":"澎湖縣","address":"待確認","status":"正常","note":"Demo 測試資料，非正式座標"},"geometry":{"type":"Point","coordinates":[119.586,23.576]}},{"type":"Feature","properties":{"id":"CI043","name":"示範關鍵設施43","category":"港口","agency":"待確認","city":"金門縣","address":"待確認","status":"正常","note":"Demo 測試資料，非正式座標"},"geometry":{"type":"Point","coordinates":[118.318,24.452]}},{"type":"Feature","properties":{"id":"CI044","name":"示範關鍵設施44","category":"機場","agency":"待確認","city":"連江縣","address":"待確認","status":"正常","note":"Demo 測試資料，非正式座標"},"geometry":{"type":"Point","coordinates":[119.961,26.19]}},{"type":"Feature","properties":{"id":"CI045","name":"示範關鍵設施45","category":"水資源","agency":"待確認","city":"基隆市","address":"待確認","status":"正常","note":"Demo 測試資料，非正式座標"},"geometry":{"type":"Point","coordinates":[121.766,25.131]}},{"type":"Feature","properties":{"id":"CI046","name":"示範關鍵設施46","category":"科學園區","agency":"待確認","city":"臺北市","address":"待確認","status":"正常","note":"Demo 測試資料，非正式座標"},"geometry":{"type":"Point","coordinates":[121.565,25.043]}},{"type":"Feature","properties":{"id":"CI047","name":"示範關鍵設施47","category":"交通","agency":"待確認","city":"新北市","address":"待確認","status":"正常","note":"Demo 測試資料，非正式座標"},"geometry":{"type":"Point","coordinates":[121.473,25.033]}},{"type":"Feature","properties":{"id":"CI048","name":"示範關鍵設施48","category":"通訊","agency":"待確認","city":"桃園市","address":"待確認","status":"正常","note":"Demo 測試資料，非正式座標"},"geometry":{"type":"Point","coordinates":[121.321,25.023]}},{"type":"Feature","properties":{"id":"CI049","name":"示範關鍵設施49","category":"發電","agency":"待確認","city":"新竹市","address":"待確認","status":"正常","note":"Demo 測試資料，非正式座標"},"geometry":{"type":"Point","coordinates":[120.968,24.804]}},{"type":"Feature","properties":{"id":"CI050","name":"示範關鍵設施50","category":"石化","agency":"待確認","city":"新竹縣","address":"待確認","status":"正常","note":"Demo 測試資料，非正式座標"},"geometry":{"type":"Point","coordinates":[121.014,24.849]}},{"type":"Feature","properties":{"id":"CI051","name":"示範關鍵設施51","category":"港口","agency":"待確認","city":"苗栗縣","address":"待確認","status":"正常","note":"Demo 測試資料，非正式座標"},"geometry":{"type":"Point","coordinates":[120.843,24.585]}},{"type":"Feature","properties":{"id":"CI052","name":"示範關鍵設施52","category":"機場","agency":"待確認","city":"臺中市","address":"待確認","status":"正常","note":"Demo 測試資料，非正式座標"},"geometry":{"type":"Point","coordinates":[120.683,24.177]}},{"type":"Feature","properties":{"id":"CI053","name":"示範關鍵設施53","category":"水資源","agency":"待確認","city":"彰化縣","address":"待確認","status":"正常","note":"Demo 測試資料，非正式座標"},"geometry":{"type":"Point","coordinates":[120.552,24.08]}},{"type":"Feature","properties":{"id":"CI054","name":"示範關鍵設施54","category":"科學園區","agency":"待確認","city":"南投縣","address":"待確認","status":"正常","note":"Demo 測試資料，非正式座標"},"geometry":{"type":"Point","coordinates":[120.993,23.97]}},{"type":"Feature","properties":{"id":"CI055","name":"示範關鍵設施55","category":"交通","agency":"待確認","city":"雲林縣","address":"待確認","status":"正常","note":"Demo 測試資料，非正式座標"},"geometry":{"type":"Point","coordinates":[120.538,23.729]}},{"type":"Feature","properties":{"id":"CI056","name":"示範關鍵設施56","category":"通訊","agency":"待確認","city":"嘉義市","address":"待確認","status":"正常","note":"Demo 測試資料，非正式座標"},"geometry":{"type":"Point","coordinates":[120.459,23.51]}},{"type":"Feature","properties":{"id":"CI057","name":"示範關鍵設施57","category":"發電","agency":"待確認","city":"嘉義縣","address":"待確認","status":"正常","note":"Demo 測試資料，非正式座標"},"geometry":{"type":"Point","coordinates":[120.275,23.452]}},{"type":"Feature","properties":{"id":"CI058","name":"示範關鍵設施58","category":"石化","agency":"待確認","city":"臺南市","address":"待確認","status":"正常","note":"Demo 測試資料，非正式座標"},"geometry":{"type":"Point","coordinates":[120.227,23.009]}},{"type":"Feature","properties":{"id":"CI059","name":"示範關鍵設施59","category":"港口","agency":"待確認","city":"高雄市","address":"待確認","status":"正常","note":"Demo 測試資料，非正式座標"},"geometry":{"type":"Point","coordinates":[120.311,22.647]}},{"type":"Feature","properties":{"id":"CI060","name":"示範關鍵設施60","category":"機場","agency":"待確認","city":"屏東縣","address":"待確認","status":"正常","note":"Demo 測試資料，非正式座標"},"geometry":{"type":"Point","coordinates":[120.508,22.712]}},{"type":"Feature","properties":{"id":"CI061","name":"示範關鍵設施61","category":"水資源","agency":"待確認","city":"宜蘭縣","address":"待確認","status":"正常","note":"Demo 測試資料，非正式座標"},"geometry":{"type":"Point","coordinates":[121.754,24.757]}},{"type":"Feature","properties":{"id":"CI062","name":"示範關鍵設施62","category":"科學園區","agency":"待確認","city":"花蓮縣","address":"待確認","status":"正常","note":"Demo 測試資料，非正式座標"},"geometry":{"type":"Point","coordinates":[121.616,24.001]}},{"type":"Feature","properties":{"id":"CI063","name":"示範關鍵設施63","category":"交通","agency":"待確認","city":"臺東縣","address":"待確認","status":"正常","note":"Demo 測試資料，非正式座標"},"geometry":{"type":"Point","coordinates":[121.165,22.776]}},{"type":"Feature","properties":{"id":"CI064","name":"示範關鍵設施64","category":"通訊","agency":"待確認","city":"澎湖縣","address":"待確認","status":"正常","note":"Demo 測試資料，非正式座標"},"geometry":{"type":"Point","coordinates":[119.566,23.596]}},{"type":"Feature","properties":{"id":"CI065","name":"示範關鍵設施65","category":"發電","agency":"待確認","city":"金門縣","address":"待確認","status":"正常","note":"Demo 測試資料，非正式座標"},"geometry":{"type":"Point","coordinates":[118.328,24.432]}},{"type":"Feature","properties":{"id":"CI066","name":"示範關鍵設施66","category":"石化","agency":"待確認","city":"連江縣","address":"待確認","status":"正常","note":"Demo 測試資料，非正式座標"},"geometry":{"type":"Point","coordinates":[119.971,26.17]}},{"type":"Feature","properties":{"id":"CI067","name":"示範關鍵設施67","category":"港口","agency":"待確認","city":"基隆市","address":"待確認","status":"正常","note":"Demo 測試資料，非正式座標"},"geometry":{"type":"Point","coordinates":[121.746,25.151]}},{"type":"Feature","properties":{"id":"CI068","name":"示範關鍵設施68","category":"機場","agency":"待確認","city":"臺北市","address":"待確認","status":"正常","note":"Demo 測試資料，非正式座標"},"geometry":{"type":"Point","coordinates":[121.575,25.063]}}]}