{"type":"FeatureCollection","name":"critical_infrastructure_ncdr","source":"關鍵基礎設施/提供NCDR.csv","count":66,"features":[{"type":"Feature","properties":{"id":"NCDR001","name":"協和發電廠","category":"發電","agency":"待確認","city":"","address":"","status":"待確認","note":"NCDR 提供清單轉入，座標來源：提供NCDR.csv"},"geometry":{"type":"Point","coordinates":[121.73547188084488,25.153455629703476]}},{"type":"Feature","properties":{"id":"NCDR002","name":"核一廠","category":"發電","agency":"待確認","city":"","address":"","status":"待確認","note":"NCDR 提供清單轉入，座標來源：提供NCDR.csv"},"geometry":{"type":"Point","coordinates":[121.5910518250266,25.290815084468022]}},{"type":"Feature","properties":{"id":"NCDR003","name":"淡水海纜站","category":"通訊","agency":"待確認","city":"","address":"","status":"待確認","note":"NCDR 提供清單轉入，座標來源：提供NCDR.csv"},"geometry":{"type":"Point","coordinates":[121.41956317983819,25.18344081673527]}},{"type":"Feature","properties":{"id":"NCDR004","name":"陽明山衛星站","category":"通訊","agency":"待確認","city":"","address":"","status":"待確認","note":"NCDR 提供清單轉入，座標來源：提供NCDR.csv"},"geometry":{"type":"Point","coordinates":[121.56702409985304,25.143007786281736]}},{"type":"Feature","properties":{"id":"NCDR005","name":"頭城海纜站","category":"通訊","agency":"待確認","city":"","address":"","status":"待確認","note":"NCDR 提供清單轉入，座標來源：提供NCDR.csv"},"geometry":{"type":"Point","coordinates":[121.82918887593785,24.85729871366582]}},{"type":"Feature","properties":{"id":"NCDR006","name":"坪林交控中心","category":"交通","agency":"待確認","city":"","address":"","status":"待確認","note":"NCDR 提供清單轉入，座標來源：提供NCDR.csv"},"geometry":{"type":"Point","coordinates":[121.7135810270702,24.94277084195833]}},{"type":"Feature","properties":{"id":"NCDR007","name":"新山水庫","category":"水資源","agency":"待確認","city":"","address":"","status":"待確認","note":"NCDR 提供清單轉入，座標來源：提供NCDR.csv"},"geometry":{"type":"Point","coordinates":[121.70906526735084,25.133722416405167]}},{"type":"Feature","properties":{"id":"NCDR008","name":"核二廠","category":"發電","agency":"待確認","city":"","address":"","status":"待確認","note":"NCDR 提供清單轉入，座標來源：提供NCDR.csv"},"geometry":{"type":"Point","coordinates":[121.66283600968184,25.202906490339068]}},{"type":"Feature","properties":{"id":"NCDR009","name":"宜蘭科學園區","category":"科學園區","agency":"待確認","city":"","address":"","status":"待確認","note":"NCDR 提供清單轉入，座標來源：提供NCDR.csv"},"geometry":{"type":"Point","coordinates":[121.75412529987159,24.732534169533725]}},{"type":"Feature","properties":{"id":"NCDR010","name":"桃園煉油廠","category":"石化","agency":"待確認","city":"","address":"","status":"待確認","note":"NCDR 提供清單轉入，座標來源：提供NCDR.csv"},"geometry":{"type":"Point","coordinates":[121.30598618453676,25.03330011683871]}},{"type":"Feature","properties":{"id":"NCDR011","name":"林口電廠","category":"其他","agency":"待確認","city":"","address":"","status":"待確認","note":"NCDR 提供清單轉入，座標來源：提供NCDR.csv"},"geometry":{"type":"Point","coordinates":[121.29843256985293,25.12010222316516]}},{"type":"Feature","properties":{"id":"NCDR012","name":"大潭電廠","category":"其他","agency":"待確認","city":"","address":"","status":"待確認","note":"NCDR 提供清單轉入，座標來源：提供NCDR.csv"},"geometry":{"type":"Point","coordinates":[121.051984013374,25.030958883615842]}},{"type":"Feature","properties":{"id":"NCDR013","name":"大潭配氣站","category":"能源","agency":"待確認","city":"","address":"","status":"待確認","note":"NCDR 提供清單轉入，座標來源：提供NCDR.csv"},"geometry":{"type":"Point","coordinates":[121.04222578084081,25.017890299886737]}},{"type":"Feature","properties":{"id":"NCDR014","name":"頂湖超高壓","category":"電力","agency":"待確認","city":"","address":"","status":"待確認","note":"NCDR 提供清單轉入，座標來源：提供NCDR.csv"},"geometry":{"type":"Point","coordinates":[121.36525482317016,25.036410847460473]}},{"type":"Feature","properties":{"id":"NCDR015","name":"板新給水廠","category":"水資源","agency":"待確認","city":"","address":"","status":"待確認","note":"NCDR 提供清單轉入，座標來源：提供NCDR.csv"},"geometry":{"type":"Point","coordinates":[121.35710249433168,24.93998803182433]}},{"type":"Feature","properties":{"id":"NCDR016","name":"鳶山堰","category":"水資源","agency":"待確認","city":"","address":"","status":"待確認","note":"NCDR 提供清單轉入，座標來源：提供NCDR.csv"},"geometry":{"type":"Point","coordinates":[121.34333331865606,24.92990405006369]}},{"type":"Feature","properties":{"id":"NCDR017","name":"新竹科學園區","category":"科學園區","agency":"待確認","city":"","address":"","status":"待確認","note":"NCDR 提供清單轉入，座標來源：提供NCDR.csv"},"geometry":{"type":"Point","coordinates":[121.00580191878684,24.782261750516042]}},{"type":"Feature","properties":{"id":"NCDR018","name":"竹南科學園區","category":"科學園區","agency":"待確認","city":"","address":"","status":"待確認","note":"NCDR 提供清單轉入，座標來源：提供NCDR.csv"},"geometry":{"type":"Point","coordinates":[120.92277100840768,24.71253096907391]}},{"type":"Feature","properties":{"id":"NCDR019","name":"龍潭超高壓","category":"電力","agency":"待確認","city":"","address":"","status":"待確認","note":"NCDR 提供清單轉入，座標來源：提供NCDR.csv"},"geometry":{"type":"Point","coordinates":[121.19084812694899,24.844937350497087]}},{"type":"Feature","properties":{"id":"NCDR020","name":"銅鑼科學園區","category":"科學園區","agency":"待確認","city":"","address":"","status":"待確認","note":"NCDR 提供清單轉入，座標來源：提供NCDR.csv"},"geometry":{"type":"Point","coordinates":[120.76989640782178,24.468580711752388]}},{"type":"Feature","properties":{"id":"NCDR021","name":"竹北生物醫學園區","category":"科學園區","agency":"待確認","city":"","address":"","status":"待確認","note":"NCDR 提供清單轉入，座標來源：提供NCDR.csv"},"geometry":{"type":"Point","coordinates":[121.04826973850552,24.805606313017787]}},{"type":"Feature","properties":{"id":"NCDR022","name":"竹園超高壓","category":"電力","agency":"待確認","city":"","address":"","status":"待確認","note":"NCDR 提供清單轉入，座標來源：提供NCDR.csv"},"geometry":{"type":"Point","coordinates":[121.02258070726757,24.763584507669695]}},{"type":"Feature","properties":{"id":"NCDR023","name":"石門水庫","category":"水資源","agency":"待確認","city":"","address":"","status":"待確認","note":"NCDR 提供清單轉入，座標來源：提供NCDR.csv"},"geometry":{"type":"Point","coordinates":[121.2831446063908,24.815939919601693]}},{"type":"Feature","properties":{"id":"NCDR024","name":"通霄發電廠","category":"發電","agency":"待確認","city":"","address":"","status":"待確認","note":"NCDR 提供清單轉入，座標來源：提供NCDR.csv"},"geometry":{"type":"Point","coordinates":[120.67382964034464,24.490024250033922]}},{"type":"Feature","properties":{"id":"NCDR025","name":"永和山水庫","category":"水資源","agency":"待確認","city":"","address":"","status":"待確認","note":"NCDR 提供清單轉入，座標來源：提供NCDR.csv"},"geometry":{"type":"Point","coordinates":[120.92264829588115,24.656148054720152]}},{"type":"Feature","properties":{"id":"NCDR026","name":"峨眉超高壓","category":"電力","agency":"待確認","city":"","address":"","status":"待確認","note":"NCDR 提供清單轉入，座標來源：提供NCDR.csv"},"geometry":{"type":"Point","coordinates":[120.98708296918628,24.692967572818347]}},{"type":"Feature","properties":{"id":"NCDR027","name":"通霄配氣站","category":"能源","agency":"待確認","city":"","address":"","status":"待確認","note":"NCDR 提供清單轉入，座標來源：提供NCDR.csv"},"geometry":{"type":"Point","coordinates":[120.66717455383781,24.483065389343476]}},{"type":"Feature","properties":{"id":"NCDR028","name":"龍潭科學園區","category":"科學園區","agency":"待確認","city":"","address":"","status":"待確認","note":"NCDR 提供清單轉入，座標來源：提供NCDR.csv"},"geometry":{"type":"Point","coordinates":[121.18849827788846,24.885302179574197]}},{"type":"Feature","properties":{"id":"NCDR029","name":"儲氣窖","category":"能源","agency":"待確認","city":"","address":"","status":"待確認","note":"NCDR 提供清單轉入，座標來源：提供NCDR.csv"},"geometry":{"type":"Point","coordinates":[120.70812638195896,24.449950752122596]}},{"type":"Feature","properties":{"id":"NCDR030","name":"鯉魚潭水庫","category":"水資源","agency":"待確認","city":"","address":"","status":"待確認","note":"NCDR 提供清單轉入，座標來源：提供NCDR.csv"},"geometry":{"type":"Point","coordinates":[120.78252943766388,24.34238155958749]}},{"type":"Feature","properties":{"id":"NCDR031","name":"寶山第二水庫","category":"水資源","agency":"待確認","city":"","address":"","status":"待確認","note":"NCDR 提供清單轉入，座標來源：提供NCDR.csv"},"geometry":{"type":"Point","coordinates":[121.05706146260034,24.733574966550798]}},{"type":"Feature","properties":{"id":"NCDR032","name":"台中發電廠","category":"發電","agency":"待確認","city":"","address":"","status":"待確認","note":"NCDR 提供清單轉入，座標來源：提供NCDR.csv"},"geometry":{"type":"Point","coordinates":[120.49257989190932,24.21467276638556]}},{"type":"Feature","properties":{"id":"NCDR033","name":"大觀發電廠","category":"發電","agency":"待確認","city":"","address":"","status":"待確認","note":"NCDR 提供清單轉入，座標來源：提供NCDR.csv"},"geometry":{"type":"Point","coordinates":[120.86986775936572,23.854583975773064]}},{"type":"Feature","properties":{"id":"NCDR034","name":"明潭發電廠","category":"發電","agency":"待確認","city":"","address":"","status":"待確認","note":"NCDR 提供清單轉入，座標來源：提供NCDR.csv"},"geometry":{"type":"Point","coordinates":[120.86669178815227,23.83825384491441]}},{"type":"Feature","properties":{"id":"NCDR035","name":"中寮超高壓","category":"電力","agency":"待確認","city":"","address":"","status":"待確認","note":"NCDR 提供清單轉入，座標來源：提供NCDR.csv"},"geometry":{"type":"Point","coordinates":[120.76976652237644,23.891554270416474]}},{"type":"Feature","properties":{"id":"NCDR036","name":"日月潭水庫","category":"水資源","agency":"待確認","city":"","address":"","status":"待確認","note":"NCDR 提供清單轉入，座標來源：提供NCDR.csv"},"geometry":{"type":"Point","coordinates":[120.91759865976137,23.859382267572016]}},{"type":"Feature","properties":{"id":"NCDR037","name":"霧社水庫","category":"水資源","agency":"待確認","city":"","address":"","status":"待確認","note":"NCDR 提供清單轉入，座標來源：提供NCDR.csv"},"geometry":{"type":"Point","coordinates":[121.13489720493669,24.000988468249208]}},{"type":"Feature","properties":{"id":"NCDR038","name":"台中液化天然氣","category":"能源","agency":"待確認","city":"","address":"","status":"待確認","note":"NCDR 提供清單轉入，座標來源：提供NCDR.csv"},"geometry":{"type":"Point","coordinates":[120.49111602684447,24.254444178123244]}},{"type":"Feature","properties":{"id":"NCDR039","name":"后里科學園區","category":"科學園區","agency":"待確認","city":"","address":"","status":"待確認","note":"NCDR 提供清單轉入，座標來源：提供NCDR.csv"},"geometry":{"type":"Point","coordinates":[120.72314974021816,24.316377631147606]}},{"type":"Feature","properties":{"id":"NCDR040","name":"台中科學園區","category":"科學園區","agency":"待確認","city":"","address":"","status":"待確認","note":"NCDR 提供清單轉入，座標來源：提供NCDR.csv"},"geometry":{"type":"Point","coordinates":[120.63903814989322,24.216232215386775]}},{"type":"Feature","properties":{"id":"NCDR041","name":"二林科學園區","category":"科學園區","agency":"待確認","city":"","address":"","status":"待確認","note":"NCDR 提供清單轉入，座標來源：提供NCDR.csv"},"geometry":{"type":"Point","coordinates":[120.42815063977622,23.932808804022873]}},{"type":"Feature","properties":{"id":"NCDR042","name":"虎尾科學園區","category":"科學園區","agency":"待確認","city":"","address":"","status":"待確認","note":"NCDR 提供清單轉入，座標來源：提供NCDR.csv"},"geometry":{"type":"Point","coordinates":[120.40847079871166,23.750553343275968]}},{"type":"Feature","properties":{"id":"NCDR043","name":"曾文水庫","category":"水資源","agency":"待確認","city":"","address":"","status":"待確認","note":"NCDR 提供清單轉入，座標來源：提供NCDR.csv"},"geometry":{"type":"Point","coordinates":[120.536421182638,23.248193986710117]}},{"type":"Feature","properties":{"id":"NCDR044","name":"德基水庫","category":"水資源","agency":"待確認","city":"","address":"","status":"待確認","note":"NCDR 提供清單轉入，座標來源：提供NCDR.csv"},"geometry":{"type":"Point","coordinates":[121.19053798167262,24.265300570988785]}},{"type":"Feature","properties":{"id":"NCDR045","name":"湖山水庫","category":"水資源","agency":"待確認","city":"","address":"","status":"待確認","note":"NCDR 提供清單轉入，座標來源：提供NCDR.csv"},"geometry":{"type":"Point","coordinates":[120.62068667649633,23.686451494019188]}},{"type":"Feature","properties":{"id":"NCDR046","name":"央廣褒忠分台","category":"通訊","agency":"待確認","city":"","address":"","status":"待確認","note":"NCDR 提供清單轉入，座標來源：提供NCDR.csv"},"geometry":{"type":"Point","coordinates":[120.30059723243366,23.725772144467726]}},{"type":"Feature","properties":{"id":"NCDR047","name":"仁義潭水庫","category":"水資源","agency":"待確認","city":"","address":"","status":"待確認","note":"NCDR 提供清單轉入，座標來源：提供NCDR.csv"},"geometry":{"type":"Point","coordinates":[120.50261477947227,23.46174798203351]}},{"type":"Feature","properties":{"id":"NCDR048","name":"蘭潭水庫","category":"水資源","agency":"待確認","city":"","address":"","status":"待確認","note":"NCDR 提供清單轉入，座標來源：提供NCDR.csv"},"geometry":{"type":"Point","coordinates":[120.48029296278602,23.47468452498158]}},{"type":"Feature","properties":{"id":"NCDR049","name":"台南科學園區","category":"科學園區","agency":"待確認","city":"","address":"","status":"待確認","note":"NCDR 提供清單轉入，座標來源：提供NCDR.csv"},"geometry":{"type":"Point","coordinates":[120.27759596040646,23.11054690979161]}},{"type":"Feature","properties":{"id":"NCDR050","name":"白河水庫","category":"水資源","agency":"待確認","city":"","address":"","status":"待確認","note":"NCDR 提供清單轉入，座標來源：提供NCDR.csv"},"geometry":{"type":"Point","coordinates":[120.48299252486107,23.358447935441923]}},{"type":"Feature","properties":{"id":"NCDR051","name":"南化水庫","category":"水資源","agency":"待確認","city":"","address":"","status":"待確認","note":"NCDR 提供清單轉入，座標來源：提供NCDR.csv"},"geometry":{"type":"Point","coordinates":[120.5452568622652,23.089938924370102]}},{"type":"Feature","properties":{"id":"NCDR052","name":"烏山頭水庫","category":"水資源","agency":"待確認","city":"","address":"","status":"待確認","note":"NCDR 提供清單轉入，座標來源：提供NCDR.csv"},"geometry":{"type":"Point","coordinates":[120.36823641514353,23.20235998035525]}},{"type":"Feature","properties":{"id":"NCDR053","name":"南科超高壓","category":"電力","agency":"待確認","city":"","address":"","status":"待確認","note":"NCDR 提供清單轉入，座標來源：提供NCDR.csv"},"geometry":{"type":"Point","coordinates":[120.27176930533294,23.12464862930556]}},{"type":"Feature","properties":{"id":"NCDR054","name":"龍崎超高壓","category":"電力","agency":"待確認","city":"","address":"","status":"待確認","note":"NCDR 提供清單轉入，座標來源：提供NCDR.csv"},"geometry":{"type":"Point","coordinates":[120.36488694159631,22.91859087142618]}},{"type":"Feature","properties":{"id":"NCDR055","name":"永安液化天然氣","category":"能源","agency":"待確認","city":"","address":"","status":"待確認","note":"NCDR 提供清單轉入，座標來源：提供NCDR.csv"},"geometry":{"type":"Point","coordinates":[120.21203111303437,22.80901118343703]}},{"type":"Feature","properties":{"id":"NCDR056","name":"興達發電廠","category":"發電","agency":"待確認","city":"","address":"","status":"待確認","note":"NCDR 提供清單轉入，座標來源：提供NCDR.csv"},"geometry":{"type":"Point","coordinates":[120.20055065564017,22.85662280252794]}},{"type":"Feature","properties":{"id":"NCDR057","name":"高雄調度中心","category":"交通","agency":"待確認","city":"","address":"","status":"待確認","note":"NCDR 提供清單轉入，座標來源：提供NCDR.csv"},"geometry":{"type":"Point","coordinates":[120.30189178986994,22.65194838146155]}},{"type":"Feature","properties":{"id":"NCDR058","name":"高屏堰","category":"水資源","agency":"待確認","city":"","address":"","status":"待確認","note":"NCDR 提供清單轉入，座標來源：提供NCDR.csv"},"geometry":{"type":"Point","coordinates":[120.43635890480716,22.688359940422465]}},{"type":"Feature","properties":{"id":"NCDR059","name":"大林煉油廠","category":"石化","agency":"待確認","city":"","address":"","status":"待確認","note":"NCDR 提供清單轉入，座標來源：提供NCDR.csv"},"geometry":{"type":"Point","coordinates":[120.34719149117063,22.52924378110491]}},{"type":"Feature","properties":{"id":"NCDR060","name":"大林發電廠","category":"發電","agency":"待確認","city":"","address":"","status":"待確認","note":"NCDR 提供清單轉入，座標來源：提供NCDR.csv"},"geometry":{"type":"Point","coordinates":[120.33690937467097,22.531039728407972]}},{"type":"Feature","properties":{"id":"NCDR061","name":"林園石化廠","category":"石化","agency":"待確認","city":"","address":"","status":"待確認","note":"NCDR 提供清單轉入，座標來源：提供NCDR.csv"},"geometry":{"type":"Point","coordinates":[120.40578753556696,22.494095210935072]}},{"type":"Feature","properties":{"id":"NCDR062","name":"高雄科學園區","category":"科學園區","agency":"待確認","city":"","address":"","status":"待確認","note":"NCDR 提供清單轉入，座標來源：提供NCDR.csv"},"geometry":{"type":"Point","coordinates":[120.31165532727951,22.84729690869157]}},{"type":"Feature","properties":{"id":"NCDR063","name":"鳳山水庫","category":"水資源","agency":"待確認","city":"","address":"","status":"待確認","note":"NCDR 提供清單轉入，座標來源：提供NCDR.csv"},"geometry":{"type":"Point","coordinates":[120.3843115770719,22.53541915635051]}},{"type":"Feature","properties":{"id":"NCDR064","name":"核三廠","category":"發電","agency":"待確認","city":"","address":"","status":"待確認","note":"NCDR 提供清單轉入，座標來源：提供NCDR.csv"},"geometry":{"type":"Point","coordinates":[120.75369287268815,21.958599412523327]}},{"type":"Feature","properties":{"id":"NCDR065","name":"枋山海纜","category":"通訊","agency":"待確認","city":"","address":"","status":"待確認","note":"NCDR 提供清單轉入，座標來源：提供NCDR.csv"},"geometry":{"type":"Point","coordinates":[120.65947831104641,22.27315557544727]}},{"type":"Feature","properties":{"id":"NCDR066","name":"牡丹水庫","category":"水資源","agency":"待確認","city":"","address":"","status":"待確認","note":"NCDR 提供清單轉入，座標來源：提供NCDR.csv"},"geometry":{"type":"Point","coordinates":[120.78285567487255,22.13855815900016]}}]}