{
  "type": "FeatureCollection",
  "name": "CWA_typhoon_wind_probability",
  "generated": "2026-07-27T07:49:52.563Z",
  "source": "CWA W-C0034-003 KMZ",
  "cwaTime": "2026-07-27T14:00+08:00",
  "features": [
    {
      "type": "Feature",
      "properties": {
        "name": "100%",
        "probability": 100,
        "styleUrl": "wsp100",
        "source": "CWA W-C0034-003 KMZ 暴風圈侵襲機率",
        "cwaTime": "2026-07-27T14:00+08:00"
      },
      "geometry": {
        "type": "Polygon",
        "coordinates": [
          [
            [
              171.679907,
              12.591095
            ],
            [
              171.92757,
              12.578851
            ],
            [
              172.175234,
              12.56959
            ],
            [
              172.422897,
              12.561941
            ],
            [
              172.670561,
              12.540521
            ],
            [
              172.918224,
              12.526404
            ],
            [
              173.165888,
              12.499212
            ],
            [
              173.413551,
              12.487482
            ],
            [
              173.661215,
              12.492814
            ],
            [
              173.908879,
              12.504011
            ],
            [
              174.156542,
              12.529811
            ],
            [
              174.404206,
              12.576357
            ],
            [
              174.510347,
              12.604779
            ],
            [
              174.651869,
              12.659518
            ],
            [
              174.899533,
              12.717678
            ],
            [
              175.147196,
              12.751034
            ],
            [
              175.39486,
              12.760352
            ],
            [
              175.642523,
              12.763521
            ],
            [
              175.890187,
              12.773557
            ],
            [
              176.13785,
              12.779101
            ],
            [
              176.385514,
              12.790322
            ],
            [
              176.633178,
              12.797919
            ],
            [
              176.880841,
              12.802854
            ],
            [
              177.128505,
              12.803829
            ],
            [
              177.176036,
              12.851103
            ],
            [
              177.176036,
              13.097426
            ],
            [
              177.176036,
              13.34375
            ],
            [
              177.176036,
              13.590074
            ],
            [
              177.176036,
              13.836397
            ],
            [
              177.128505,
              13.883671
            ],
            [
              176.880841,
              13.884646
            ],
            [
              176.633178,
              13.885662
            ],
            [
              176.385514,
              13.886186
            ],
            [
              176.13785,
              13.886721
            ],
            [
              175.890187,
              13.882925
            ],
            [
              175.642523,
              13.863766
            ],
            [
              175.43989,
              13.836397
            ],
            [
              175.39486,
              13.812938
            ],
            [
              175.147196,
              13.725154
            ],
            [
              174.899533,
              13.691501
            ],
            [
              174.651869,
              13.679646
            ],
            [
              174.404206,
              13.694287
            ],
            [
              174.156542,
              13.713235
            ],
            [
              173.908879,
              13.740605
            ],
            [
              173.661215,
              13.763949
            ],
            [
              173.413551,
              13.787132
            ],
            [
              173.165888,
              13.801208
            ],
            [
              172.918224,
              13.818803
            ],
            [
              172.794393,
              13.836397
            ],
            [
              172.670561,
              13.846661
            ],
            [
              172.422897,
              13.871586
            ],
            [
              172.175234,
              13.908845
            ],
            [
              171.92757,
              13.951348
            ],
            [
              171.679907,
              14.025877
            ],
            [
              171.432243,
              14.082721
            ],
            [
              171.184579,
              14.148407
            ],
            [
              170.936916,
              14.188288
            ],
            [
              170.689252,
              14.279779
            ],
            [
              170.441589,
              14.329044
            ],
            [
              170.193925,
              14.465891
            ],
            [
              170.028816,
              14.575368
            ],
            [
              169.946262,
              14.630106
            ],
            [
              169.698598,
              14.786502
            ],
            [
              169.649065,
              14.821691
            ],
            [
              169.450935,
              14.962447
            ],
            [
              169.302336,
              15.068015
            ],
            [
              169.203271,
              15.129596
            ],
            [
              168.990988,
              15.314338
            ],
            [
              168.955607,
              15.341708
            ],
            [
              168.707944,
              15.525473
            ],
            [
              168.658411,
              15.560662
            ],
            [
              168.46028,
              15.724877
            ],
            [
              168.361215,
              15.806985
            ],
            [
              168.212617,
              15.912553
            ],
            [
              168.014486,
              16.053309
            ],
            [
              167.964953,
              16.094363
            ],
            [
              167.71729,
              16.299632
            ],
            [
              167.469626,
              16.463848
            ],
            [
              167.370561,
              16.545956
            ],
            [
              167.221963,
              16.69375
            ],
            [
              167.098131,
              16.792279
            ],
            [
              166.974299,
              16.890809
            ],
            [
              166.726636,
              17.038603
            ],
            [
              166.478972,
              17.235662
            ],
            [
              166.396417,
              17.284926
            ],
            [
              166.231308,
              17.449142
            ],
            [
              166.107477,
              17.53125
            ],
            [
              165.983645,
              17.613358
            ],
            [
              165.818536,
              17.777574
            ],
            [
              165.735981,
              17.826838
            ],
            [
              165.488318,
              18.023897
            ],
            [
              165.240654,
              18.106005
            ],
            [
              165.075545,
              18.270221
            ],
            [
              164.992991,
              18.319485
            ],
            [
              164.745327,
              18.454963
            ],
            [
              164.662773,
              18.516544
            ],
            [
              164.497664,
              18.639706
            ],
            [
              164.25,
              18.762868
            ],
            [
              164.002336,
              18.927083
            ],
            [
              163.878505,
              19.009191
            ],
            [
              163.754673,
              19.070772
            ],
            [
              163.507009,
              19.193934
            ],
            [
              163.383178,
              19.255515
            ],
            [
              163.259346,
              19.337623
            ],
            [
              163.011682,
              19.501838
            ],
            [
              162.764019,
              19.583946
            ],
            [
              162.516355,
              19.666054
            ],
            [
              162.392523,
              19.748162
            ],
            [
              162.268692,
              19.809743
            ],
            [
              162.021028,
              19.871324
            ],
            [
              161.773364,
              19.912377
            ],
            [
              161.525701,
              19.994485
            ],
            [
              161.278037,
              19.994485
            ],
            [
              161.030374,
              19.994485
            ],
            [
              160.78271,
              19.748162
            ],
            [
              160.78271,
              19.501838
            ],
            [
              160.906542,
              19.255515
            ],
            [
              161.030374,
              19.009191
            ],
            [
              161.278037,
              18.886029
            ],
            [
              161.360592,
              18.762868
            ],
            [
              161.525701,
              18.516544
            ],
            [
              161.773364,
              18.393382
            ],
            [
              161.897196,
              18.270221
            ],
            [
              162.021028,
              18.188113
            ],
            [
              162.268692,
              18.023897
            ],
            [
              162.516355,
              17.777574
            ],
            [
              162.764019,
              17.654412
            ],
            [
              163.011682,
              17.53125
            ],
            [
              163.259346,
              17.346507
            ],
            [
              163.383178,
              17.284926
            ],
            [
              163.507009,
              17.202819
            ],
            [
              163.754673,
              17.038603
            ],
            [
              164.002336,
              16.85386
            ],
            [
              164.126168,
              16.792279
            ],
            [
              164.25,
              16.710172
            ],
            [
              164.497664,
              16.545956
            ],
            [
              164.745327,
              16.38174
            ],
            [
              164.869159,
              16.299632
            ],
            [
              164.992991,
              16.217525
            ],
            [
              165.240654,
              16.053309
            ],
            [
              165.488318,
              15.868566
            ],
            [
              165.570872,
              15.806985
            ],
            [
              165.735981,
              15.683824
            ],
            [
              165.90109,
              15.560662
            ],
            [
              165.983645,
              15.499081
            ],
            [
              166.169393,
              15.314338
            ],
            [
              166.231308,
              15.265074
            ],
            [
              166.429439,
              15.068015
            ],
            [
              166.478972,
              15.01875
            ],
            [
              166.726636,
              14.821691
            ],
            [
              166.974299,
              14.616422
            ],
            [
              167.023832,
              14.575368
            ],
            [
              167.221963,
              14.434611
            ],
            [
              167.370561,
              14.329044
            ],
            [
              167.469626,
              14.246936
            ],
            [
              167.71729,
              14.082721
            ],
            [
              167.964953,
              13.871586
            ],
            [
              168.014486,
              13.836397
            ],
            [
              168.212617,
              13.695641
            ],
            [
              168.361215,
              13.590074
            ],
            [
              168.46028,
              13.519695
            ],
            [
              168.707944,
              13.34375
            ],
            [
              168.955607,
              13.195956
            ],
            [
              169.09713,
              13.097426
            ],
            [
              169.203271,
              13.035846
            ],
            [
              169.450935,
              12.949632
            ],
            [
              169.698598,
              12.875735
            ],
            [
              169.781153,
              12.851103
            ],
            [
              169.946262,
              12.815914
            ],
            [
              170.193925,
              12.794259
            ],
            [
              170.441589,
              12.768995
            ],
            [
              170.689252,
              12.716745
            ],
            [
              170.936916,
              12.671959
            ],
            [
              171.184579,
              12.627172
            ],
            [
              171.432243,
              12.604779
            ],
            [
              171.679907,
              12.591095
            ]
          ]
        ]
      }
    },
    {
      "type": "Feature",
      "properties": {
        "name": "80%",
        "probability": 80,
        "styleUrl": "wsp80",
        "source": "CWA W-C0034-003 KMZ 暴風圈侵襲機率",
        "cwaTime": "2026-07-27T14:00+08:00"
      },
      "geometry": {
        "type": "Polygon",
        "coordinates": [
          [
            [
              171.184579,
              12.34614
            ],
            [
              171.432243,
              12.323267
            ],
            [
              171.679907,
              12.326327
            ],
            [
              171.92757,
              12.328897
            ],
            [
              172.175234,
              12.33875
            ],
            [
              172.422897,
              12.349333
            ],
            [
              172.670561,
              12.334618
            ],
            [
              172.918224,
              12.319968
            ],
            [
              173.165888,
              12.300497
            ],
            [
              173.413551,
              12.293253
            ],
            [
              173.661215,
              12.300497
            ],
            [
              173.908879,
              12.309191
            ],
            [
              174.156542,
              12.329477
            ],
            [
              174.298064,
              12.358456
            ],
            [
              174.404206,
              12.386878
            ],
            [
              174.651869,
              12.48535
            ],
            [
              174.899533,
              12.547936
            ],
            [
              175.147196,
              12.598772
            ],
            [
              175.196729,
              12.604779
            ],
            [
              175.39486,
              12.630708
            ],
            [
              175.642523,
              12.654044
            ],
            [
              175.890187,
              12.682326
            ],
            [
              176.13785,
              12.703309
            ],
            [
              176.385514,
              12.726342
            ],
            [
              176.633178,
              12.741937
            ],
            [
              176.880841,
              12.752066
            ],
            [
              177.128505,
              12.754066
            ],
            [
              177.226069,
              12.851103
            ],
            [
              177.226069,
              13.097426
            ],
            [
              177.226069,
              13.34375
            ],
            [
              177.226069,
              13.590074
            ],
            [
              177.226069,
              13.836397
            ],
            [
              177.128505,
              13.933434
            ],
            [
              176.880841,
              13.935434
            ],
            [
              176.633178,
              13.937519
            ],
            [
              176.385514,
              13.938595
            ],
            [
              176.13785,
              13.939694
            ],
            [
              175.890187,
              13.937663
            ],
            [
              175.642523,
              13.924587
            ],
            [
              175.39486,
              13.900655
            ],
            [
              175.147196,
              13.863269
            ],
            [
              174.899533,
              13.836397
            ],
            [
              174.651869,
              13.828933
            ],
            [
              174.610592,
              13.836397
            ],
            [
              174.404206,
              13.870609
            ],
            [
              174.156542,
              13.9016
            ],
            [
              173.908879,
              13.93058
            ],
            [
              173.661215,
              13.955586
            ],
            [
              173.413551,
              13.980794
            ],
            [
              173.165888,
              14.000613
            ],
            [
              172.918224,
              14.023603
            ],
            [
              172.670561,
              14.05193
            ],
            [
              172.521963,
              14.082721
            ],
            [
              172.422897,
              14.10414
            ],
            [
              172.175234,
              14.168398
            ],
            [
              171.92757,
              14.238293
            ],
            [
              171.679907,
              14.315359
            ],
            [
              171.617991,
              14.329044
            ],
            [
              171.432243,
              14.37523
            ],
            [
              171.184579,
              14.467601
            ],
            [
              170.936916,
              14.526103
            ],
            [
              170.830774,
              14.575368
            ],
            [
              170.689252,
              14.65116
            ],
            [
              170.441589,
              14.780637
            ],
            [
              170.370828,
              14.821691
            ],
            [
              170.193925,
              14.944853
            ],
            [
              170.017023,
              15.068015
            ],
            [
              169.946262,
              15.117279
            ],
            [
              169.698598,
              15.289706
            ],
            [
              169.66764,
              15.314338
            ],
            [
              169.450935,
              15.529871
            ],
            [
              169.415554,
              15.560662
            ],
            [
              169.203271,
              15.771796
            ],
            [
              169.161994,
              15.806985
            ],
            [
              168.955607,
              15.982931
            ],
            [
              168.884846,
              16.053309
            ],
            [
              168.707944,
              16.229254
            ],
            [
              168.625389,
              16.299632
            ],
            [
              168.46028,
              16.463848
            ],
            [
              168.361215,
              16.545956
            ],
            [
              168.212617,
              16.69375
            ],
            [
              168.088785,
              16.792279
            ],
            [
              167.964953,
              16.874387
            ],
            [
              167.766822,
              17.038603
            ],
            [
              167.71729,
              17.087868
            ],
            [
              167.469626,
              17.284926
            ],
            [
              167.221963,
              17.53125
            ],
            [
              166.974299,
              17.777574
            ],
            [
              166.726636,
              18.023897
            ],
            [
              166.478972,
              18.20864
            ],
            [
              166.417056,
              18.270221
            ],
            [
              166.231308,
              18.418015
            ],
            [
              166.132243,
              18.516544
            ],
            [
              165.983645,
              18.639706
            ],
            [
              165.797897,
              18.762868
            ],
            [
              165.735981,
              18.812132
            ],
            [
              165.488318,
              18.968137
            ],
            [
              165.426402,
              19.009191
            ],
            [
              165.240654,
              19.156985
            ],
            [
              165.116822,
              19.255515
            ],
            [
              164.992991,
              19.337623
            ],
            [
              164.745327,
              19.501838
            ],
            [
              164.497664,
              19.649632
            ],
            [
              164.332555,
              19.748162
            ],
            [
              164.25,
              19.797426
            ],
            [
              164.002336,
              19.945221
            ],
            [
              163.940421,
              19.994485
            ],
            [
              163.754673,
              20.142279
            ],
            [
              163.589564,
              20.240809
            ],
            [
              163.507009,
              20.290074
            ],
            [
              163.259346,
              20.487132
            ],
            [
              163.011682,
              20.585662
            ],
            [
              162.825935,
              20.733456
            ],
            [
              162.764019,
              20.77451
            ],
            [
              162.516355,
              20.930515
            ],
            [
              162.433801,
              20.979779
            ],
            [
              162.268692,
              21.061887
            ],
            [
              162.021028,
              21.176838
            ],
            [
              161.938474,
              21.226103
            ],
            [
              161.773364,
              21.349265
            ],
            [
              161.525701,
              21.472426
            ],
            [
              161.278037,
              21.595588
            ],
            [
              161.030374,
              21.71875
            ],
            [
              160.78271,
              21.882966
            ],
            [
              160.658879,
              21.965074
            ],
            [
              160.535047,
              22.026654
            ],
            [
              160.287383,
              22.088235
            ],
            [
              160.03972,
              22.211397
            ],
            [
              159.792056,
              22.293505
            ],
            [
              159.544393,
              22.39614
            ],
            [
              159.296729,
              22.457721
            ],
            [
              159.049065,
              22.539828
            ],
            [
              158.801402,
              22.621936
            ],
            [
              158.553738,
              22.704044
            ],
            [
              158.306075,
              22.704044
            ],
            [
              158.058411,
              22.457721
            ],
            [
              157.810748,
              22.211397
            ],
            [
              157.686916,
              21.965074
            ],
            [
              157.686916,
              21.71875
            ],
            [
              157.563084,
              21.472426
            ],
            [
              157.686916,
              21.226103
            ],
            [
              157.728193,
              20.979779
            ],
            [
              157.810748,
              20.733456
            ],
            [
              157.810748,
              20.487132
            ],
            [
              157.975857,
              20.240809
            ],
            [
              158.058411,
              20.117647
            ],
            [
              158.140966,
              19.994485
            ],
            [
              158.306075,
              19.871324
            ],
            [
              158.429907,
              19.748162
            ],
            [
              158.553738,
              19.625
            ],
            [
              158.718847,
              19.501838
            ],
            [
              158.801402,
              19.41973
            ],
            [
              158.966511,
              19.255515
            ],
            [
              159.049065,
              19.193934
            ],
            [
              159.234813,
              19.009191
            ],
            [
              159.296729,
              18.94761
            ],
            [
              159.544393,
              18.762868
            ],
            [
              159.792056,
              18.578125
            ],
            [
              159.874611,
              18.516544
            ],
            [
              160.03972,
              18.352328
            ],
            [
              160.122274,
              18.270221
            ],
            [
              160.287383,
              18.188113
            ],
            [
              160.535047,
              18.023897
            ],
            [
              160.78271,
              17.859681
            ],
            [
              160.947819,
              17.777574
            ],
            [
              161.030374,
              17.728309
            ],
            [
              161.278037,
              17.572304
            ],
            [
              161.360592,
              17.53125
            ],
            [
              161.525701,
              17.408088
            ],
            [
              161.69081,
              17.284926
            ],
            [
              161.773364,
              17.235662
            ],
            [
              162.021028,
              17.087868
            ],
            [
              162.082944,
              17.038603
            ],
            [
              162.268692,
              16.915441
            ],
            [
              162.516355,
              16.792279
            ],
            [
              162.764019,
              16.628064
            ],
            [
              162.88785,
              16.545956
            ],
            [
              163.011682,
              16.463848
            ],
            [
              163.259346,
              16.334821
            ],
            [
              163.321262,
              16.299632
            ],
            [
              163.507009,
              16.176471
            ],
            [
              163.692757,
              16.053309
            ],
            [
              163.754673,
              16.012255
            ],
            [
              164.002336,
              15.889093
            ],
            [
              164.126168,
              15.806985
            ],
            [
              164.25,
              15.724877
            ],
            [
              164.497664,
              15.595851
            ],
            [
              164.559579,
              15.560662
            ],
            [
              164.745327,
              15.4375
            ],
            [
              164.992991,
              15.314338
            ],
            [
              165.240654,
              15.129596
            ],
            [
              165.33972,
              15.068015
            ],
            [
              165.488318,
              14.944853
            ],
            [
              165.674065,
              14.821691
            ],
            [
              165.735981,
              14.786502
            ],
            [
              165.983645,
              14.606158
            ],
            [
              166.033178,
              14.575368
            ],
            [
              166.231308,
              14.434611
            ],
            [
              166.35514,
              14.329044
            ],
            [
              166.478972,
              14.236673
            ],
            [
              166.685358,
              14.082721
            ],
            [
              166.726636,
              14.05193
            ],
            [
              166.974299,
              13.871586
            ],
            [
              167.023832,
              13.836397
            ],
            [
              167.221963,
              13.72692
            ],
            [
              167.428349,
              13.590074
            ],
            [
              167.469626,
              13.562704
            ],
            [
              167.71729,
              13.405331
            ],
            [
              167.799844,
              13.34375
            ],
            [
              167.964953,
              13.245221
            ],
            [
              168.212617,
              13.122059
            ],
            [
              168.253894,
              13.097426
            ],
            [
              168.46028,
              12.96058
            ],
            [
              168.658411,
              12.851103
            ],
            [
              168.707944,
              12.82871
            ],
            [
              168.955607,
              12.716745
            ],
            [
              169.203271,
              12.625306
            ],
            [
              169.285826,
              12.604779
            ],
            [
              169.450935,
              12.563725
            ],
            [
              169.698598,
              12.502145
            ],
            [
              169.946262,
              12.453196
            ],
            [
              170.193925,
              12.428834
            ],
            [
              170.441589,
              12.407721
            ],
            [
              170.689252,
              12.373851
            ],
            [
              170.936916,
              12.372141
            ],
            [
              171.060748,
              12.358456
            ],
            [
              171.184579,
              12.34614
            ]
          ]
        ]
      }
    },
    {
      "type": "Feature",
      "properties": {
        "name": "60%",
        "probability": 60,
        "styleUrl": "wsp60",
        "source": "CWA W-C0034-003 KMZ 暴風圈侵襲機率",
        "cwaTime": "2026-07-27T14:00+08:00"
      },
      "geometry": {
        "type": "Polygon",
        "coordinates": [
          [
            [
              170.936916,
              12.099816
            ],
            [
              171.184579,
              12.099816
            ],
            [
              171.432243,
              12.088673
            ],
            [
              171.679907,
              12.112132
            ],
            [
              171.92757,
              12.131838
            ],
            [
              172.175234,
              12.141691
            ],
            [
              172.422897,
              12.166871
            ],
            [
              172.670561,
              12.1757
            ],
            [
              172.918224,
              12.166016
            ],
            [
              173.165888,
              12.155601
            ],
            [
              173.413551,
              12.148356
            ],
            [
              173.661215,
              12.155601
            ],
            [
              173.908879,
              12.168435
            ],
            [
              174.156542,
              12.18458
            ],
            [
              174.404206,
              12.227597
            ],
            [
              174.651869,
              12.330034
            ],
            [
              174.709022,
              12.358456
            ],
            [
              174.899533,
              12.421616
            ],
            [
              175.147196,
              12.478614
            ],
            [
              175.39486,
              12.508653
            ],
            [
              175.642523,
              12.538693
            ],
            [
              175.890187,
              12.584807
            ],
            [
              175.972741,
              12.604779
            ],
            [
              176.13785,
              12.627517
            ],
            [
              176.385514,
              12.662362
            ],
            [
              176.633178,
              12.685954
            ],
            [
              176.880841,
              12.701277
            ],
            [
              177.128505,
              12.704304
            ],
            [
              177.276102,
              12.851103
            ],
            [
              177.276102,
              13.097426
            ],
            [
              177.276102,
              13.34375
            ],
            [
              177.276102,
              13.590074
            ],
            [
              177.276102,
              13.836397
            ],
            [
              177.128505,
              13.983196
            ],
            [
              176.880841,
              13.986223
            ],
            [
              176.633178,
              13.989377
            ],
            [
              176.385514,
              13.991004
            ],
            [
              176.13785,
              13.992667
            ],
            [
              175.890187,
              13.992402
            ],
            [
              175.642523,
              13.985408
            ],
            [
              175.39486,
              13.972053
            ],
            [
              175.147196,
              13.952841
            ],
            [
              174.899533,
              13.945874
            ],
            [
              174.651869,
              13.959559
            ],
            [
              174.404206,
              14.007455
            ],
            [
              174.156542,
              14.046497
            ],
            [
              173.908879,
              14.075476
            ],
            [
              173.859346,
              14.082721
            ],
            [
              173.661215,
              14.120617
            ],
            [
              173.413551,
              14.155705
            ],
            [
              173.165888,
              14.186934
            ],
            [
              172.918224,
              14.220662
            ],
            [
              172.670561,
              14.264786
            ],
            [
              172.422897,
              14.318334
            ],
            [
              172.38162,
              14.329044
            ],
            [
              172.175234,
              14.401492
            ],
            [
              171.92757,
              14.489154
            ],
            [
              171.679907,
              14.563051
            ],
            [
              171.648949,
              14.575368
            ],
            [
              171.432243,
              14.67116
            ],
            [
              171.184579,
              14.753268
            ],
            [
              171.02979,
              14.821691
            ],
            [
              170.936916,
              14.883272
            ],
            [
              170.689252,
              15.047488
            ],
            [
              170.658294,
              15.068015
            ],
            [
              170.441589,
              15.240441
            ],
            [
              170.348715,
              15.314338
            ],
            [
              170.193925,
              15.451185
            ],
            [
              170.083853,
              15.560662
            ],
            [
              169.946262,
              15.714614
            ],
            [
              169.853388,
              15.806985
            ],
            [
              169.698598,
              15.982931
            ],
            [
              169.636682,
              16.053309
            ],
            [
              169.450935,
              16.264443
            ],
            [
              169.409657,
              16.299632
            ],
            [
              169.203271,
              16.504902
            ],
            [
              169.161994,
              16.545956
            ],
            [
              168.955607,
              16.751225
            ],
            [
              168.920227,
              16.792279
            ],
            [
              168.707944,
              17.038603
            ],
            [
              168.495661,
              17.284926
            ],
            [
              168.46028,
              17.320116
            ],
            [
              168.212617,
              17.53125
            ],
            [
              167.964953,
              17.777574
            ],
            [
              167.71729,
              18.023897
            ],
            [
              167.469626,
              18.235032
            ],
            [
              167.428349,
              18.270221
            ],
            [
              167.221963,
              18.47549
            ],
            [
              167.180685,
              18.516544
            ],
            [
              166.974299,
              18.721814
            ],
            [
              166.924766,
              18.762868
            ],
            [
              166.726636,
              18.959926
            ],
            [
              166.66472,
              19.009191
            ],
            [
              166.478972,
              19.132353
            ],
            [
              166.330374,
              19.255515
            ],
            [
              166.231308,
              19.354044
            ],
            [
              165.983645,
              19.501838
            ],
            [
              165.735981,
              19.707108
            ],
            [
              165.674065,
              19.748162
            ],
            [
              165.488318,
              19.932904
            ],
            [
              165.364486,
              19.994485
            ],
            [
              165.240654,
              20.076593
            ],
            [
              164.992991,
              20.240809
            ],
            [
              164.745327,
              20.437868
            ],
            [
              164.662773,
              20.487132
            ],
            [
              164.497664,
              20.610294
            ],
            [
              164.332555,
              20.733456
            ],
            [
              164.25,
              20.795037
            ],
            [
              164.002336,
              20.930515
            ],
            [
              163.919782,
              20.979779
            ],
            [
              163.754673,
              21.078309
            ],
            [
              163.507009,
              21.226103
            ],
            [
              163.259346,
              21.410846
            ],
            [
              163.176791,
              21.472426
            ],
            [
              163.011682,
              21.570956
            ],
            [
              162.764019,
              21.71875
            ],
            [
              162.516355,
              21.915809
            ],
            [
              162.433801,
              21.965074
            ],
            [
              162.268692,
              22.088235
            ],
            [
              162.103583,
              22.211397
            ],
            [
              162.021028,
              22.260662
            ],
            [
              161.773364,
              22.416667
            ],
            [
              161.711449,
              22.457721
            ],
            [
              161.525701,
              22.580882
            ],
            [
              161.339953,
              22.704044
            ],
            [
              161.278037,
              22.753309
            ],
            [
              161.030374,
              22.950368
            ],
            [
              160.78271,
              23.098162
            ],
            [
              160.535047,
              23.196691
            ],
            [
              160.287383,
              23.319853
            ],
            [
              160.03972,
              23.443015
            ],
            [
              159.792056,
              23.566176
            ],
            [
              159.606308,
              23.689338
            ],
            [
              159.544393,
              23.730392
            ],
            [
              159.296729,
              23.750919
            ],
            [
              159.049065,
              23.874081
            ],
            [
              158.801402,
              23.935662
            ],
            [
              158.553738,
              24.058824
            ],
            [
              158.306075,
              24.120404
            ],
            [
              158.182243,
              24.181985
            ],
            [
              158.058411,
              24.243566
            ],
            [
              157.810748,
              24.243566
            ],
            [
              157.563084,
              24.305147
            ],
            [
              157.315421,
              24.305147
            ],
            [
              157.067757,
              24.346201
            ],
            [
              156.820093,
              24.346201
            ],
            [
              156.57243,
              24.305147
            ],
            [
              156.324766,
              24.181985
            ],
            [
              156.077103,
              23.935662
            ],
            [
              155.829439,
              23.689338
            ],
            [
              155.705607,
              23.443015
            ],
            [
              155.581776,
              23.196691
            ],
            [
              155.457944,
              22.950368
            ],
            [
              155.457944,
              22.704044
            ],
            [
              155.457944,
              22.457721
            ],
            [
              155.51986,
              22.211397
            ],
            [
              155.581776,
              22.088235
            ],
            [
              155.643692,
              21.965074
            ],
            [
              155.66433,
              21.71875
            ],
            [
              155.829439,
              21.472426
            ],
            [
              155.911994,
              21.226103
            ],
            [
              156.077103,
              20.979779
            ],
            [
              156.159657,
              20.733456
            ],
            [
              156.324766,
              20.487132
            ],
            [
              156.510514,
              20.240809
            ],
            [
              156.57243,
              20.179228
            ],
            [
              156.758178,
              19.994485
            ],
            [
              156.820093,
              19.932904
            ],
            [
              157.005841,
              19.748162
            ],
            [
              157.067757,
              19.686581
            ],
            [
              157.253505,
              19.501838
            ],
            [
              157.315421,
              19.41973
            ],
            [
              157.48053,
              19.255515
            ],
            [
              157.563084,
              19.193934
            ],
            [
              157.748832,
              19.009191
            ],
            [
              157.810748,
              18.959926
            ],
            [
              158.058411,
              18.762868
            ],
            [
              158.306075,
              18.615074
            ],
            [
              158.429907,
              18.516544
            ],
            [
              158.553738,
              18.418015
            ],
            [
              158.739486,
              18.270221
            ],
            [
              158.801402,
              18.220956
            ],
            [
              159.049065,
              18.023897
            ],
            [
              159.296729,
              17.839154
            ],
            [
              159.379283,
              17.777574
            ],
            [
              159.544393,
              17.679044
            ],
            [
              159.73014,
              17.53125
            ],
            [
              159.792056,
              17.481985
            ],
            [
              160.03972,
              17.367034
            ],
            [
              160.163551,
              17.284926
            ],
            [
              160.287383,
              17.186397
            ],
            [
              160.535047,
              17.038603
            ],
            [
              160.78271,
              16.890809
            ],
            [
              161.030374,
              16.792279
            ],
            [
              161.278037,
              16.607537
            ],
            [
              161.401869,
              16.545956
            ],
            [
              161.525701,
              16.484375
            ],
            [
              161.773364,
              16.299632
            ],
            [
              162.021028,
              16.151838
            ],
            [
              162.268692,
              16.053309
            ],
            [
              162.516355,
              15.889093
            ],
            [
              162.681464,
              15.806985
            ],
            [
              162.764019,
              15.765931
            ],
            [
              163.011682,
              15.609926
            ],
            [
              163.135514,
              15.560662
            ],
            [
              163.259346,
              15.519608
            ],
            [
              163.507009,
              15.396446
            ],
            [
              163.672118,
              15.314338
            ],
            [
              163.754673,
              15.273284
            ],
            [
              164.002336,
              15.138393
            ],
            [
              164.167445,
              15.068015
            ],
            [
              164.25,
              15.026961
            ],
            [
              164.497664,
              14.85688
            ],
            [
              164.559579,
              14.821691
            ],
            [
              164.745327,
              14.698529
            ],
            [
              164.931075,
              14.575368
            ],
            [
              164.992991,
              14.540179
            ],
            [
              165.240654,
              14.411152
            ],
            [
              165.33972,
              14.329044
            ],
            [
              165.488318,
              14.205882
            ],
            [
              165.674065,
              14.082721
            ],
            [
              165.735981,
              14.05193
            ],
            [
              165.983645,
              13.871586
            ],
            [
              166.045561,
              13.836397
            ],
            [
              166.231308,
              13.73083
            ],
            [
              166.429439,
              13.590074
            ],
            [
              166.478972,
              13.559283
            ],
            [
              166.726636,
              13.425858
            ],
            [
              166.850467,
              13.34375
            ],
            [
              166.974299,
              13.261642
            ],
            [
              167.221963,
              13.124796
            ],
            [
              167.271495,
              13.097426
            ],
            [
              167.469626,
              12.998897
            ],
            [
              167.71729,
              12.875735
            ],
            [
              167.766822,
              12.851103
            ],
            [
              167.964953,
              12.752574
            ],
            [
              168.212617,
              12.632149
            ],
            [
              168.26215,
              12.604779
            ],
            [
              168.46028,
              12.515207
            ],
            [
              168.707944,
              12.39951
            ],
            [
              168.807009,
              12.358456
            ],
            [
              168.955607,
              12.301612
            ],
            [
              169.203271,
              12.22582
            ],
            [
              169.450935,
              12.182511
            ],
            [
              169.698598,
              12.144975
            ],
            [
              169.946262,
              12.127528
            ],
            [
              170.193925,
              12.126622
            ],
            [
              170.441589,
              12.112132
            ],
            [
              170.689252,
              12.112132
            ],
            [
              170.936916,
              12.099816
            ]
          ]
        ]
      }
    },
    {
      "type": "Feature",
      "properties": {
        "name": "40%",
        "probability": 40,
        "styleUrl": "wsp40",
        "source": "CWA W-C0034-003 KMZ 暴風圈侵襲機率",
        "cwaTime": "2026-07-27T14:00+08:00"
      },
      "geometry": {
        "type": "Polygon",
        "coordinates": [
          [
            [
              168.955607,
              11.83844
            ],
            [
              169.203271,
              11.791912
            ],
            [
              169.450935,
              11.742647
            ],
            [
              169.698598,
              11.742647
            ],
            [
              169.946262,
              11.753844
            ],
            [
              170.193925,
              11.767279
            ],
            [
              170.441589,
              11.79863
            ],
            [
              170.689252,
              11.821023
            ],
            [
              170.936916,
              11.843416
            ],
            [
              171.184579,
              11.845282
            ],
            [
              171.432243,
              11.845282
            ],
            [
              171.679907,
              11.865809
            ],
            [
              171.92757,
              11.878773
            ],
            [
              172.175234,
              11.912728
            ],
            [
              172.422897,
              11.930631
            ],
            [
              172.670561,
              11.95656
            ],
            [
              172.918224,
              11.952022
            ],
            [
              173.165888,
              11.955381
            ],
            [
              173.413551,
              11.951487
            ],
            [
              173.661215,
              11.962196
            ],
            [
              173.908879,
              11.977774
            ],
            [
              174.156542,
              11.994835
            ],
            [
              174.404206,
              12.039684
            ],
            [
              174.558995,
              12.112132
            ],
            [
              174.651869,
              12.140554
            ],
            [
              174.899533,
              12.228812
            ],
            [
              175.147196,
              12.358456
            ],
            [
              175.39486,
              12.388495
            ],
            [
              175.642523,
              12.418535
            ],
            [
              175.890187,
              12.451659
            ],
            [
              176.13785,
              12.493537
            ],
            [
              176.385514,
              12.58132
            ],
            [
              176.430544,
              12.604779
            ],
            [
              176.633178,
              12.629972
            ],
            [
              176.880841,
              12.650489
            ],
            [
              177.128505,
              12.654542
            ],
            [
              177.326135,
              12.851103
            ],
            [
              177.326135,
              13.097426
            ],
            [
              177.326135,
              13.34375
            ],
            [
              177.326135,
              13.590074
            ],
            [
              177.326135,
              13.836397
            ],
            [
              177.128505,
              14.032958
            ],
            [
              176.880841,
              14.037011
            ],
            [
              176.633178,
              14.041235
            ],
            [
              176.385514,
              14.043414
            ],
            [
              176.13785,
              14.04564
            ],
            [
              175.890187,
              14.047141
            ],
            [
              175.642523,
              14.046228
            ],
            [
              175.39486,
              14.043452
            ],
            [
              175.147196,
              14.042413
            ],
            [
              174.899533,
              14.055351
            ],
            [
              174.693146,
              14.082721
            ],
            [
              174.651869,
              14.100315
            ],
            [
              174.404206,
              14.193566
            ],
            [
              174.156542,
              14.243366
            ],
            [
              173.908879,
              14.277727
            ],
            [
              173.661215,
              14.310096
            ],
            [
              173.496106,
              14.329044
            ],
            [
              173.413551,
              14.346639
            ],
            [
              173.165888,
              14.40602
            ],
            [
              172.918224,
              14.467601
            ],
            [
              172.670561,
              14.531899
            ],
            [
              172.484813,
              14.575368
            ],
            [
              172.422897,
              14.595895
            ],
            [
              172.175234,
              14.716124
            ],
            [
              171.92757,
              14.788848
            ],
            [
              171.828505,
              14.821691
            ],
            [
              171.679907,
              14.88887
            ],
            [
              171.432243,
              15.023229
            ],
            [
              171.349688,
              15.068015
            ],
            [
              171.184579,
              15.166544
            ],
            [
              170.972296,
              15.314338
            ],
            [
              170.936916,
              15.349527
            ],
            [
              170.724633,
              15.560662
            ],
            [
              170.689252,
              15.609926
            ],
            [
              170.524143,
              15.806985
            ],
            [
              170.441589,
              15.905515
            ],
            [
              170.317757,
              16.053309
            ],
            [
              170.193925,
              16.238051
            ],
            [
              170.152648,
              16.299632
            ],
            [
              169.987539,
              16.545956
            ],
            [
              169.946262,
              16.595221
            ],
            [
              169.748131,
              16.792279
            ],
            [
              169.698598,
              16.85386
            ],
            [
              169.55,
              17.038603
            ],
            [
              169.450935,
              17.137132
            ],
            [
              169.302336,
              17.284926
            ],
            [
              169.203271,
              17.383456
            ],
            [
              169.054673,
              17.53125
            ],
            [
              168.955607,
              17.654412
            ],
            [
              168.856542,
              17.777574
            ],
            [
              168.707944,
              17.962316
            ],
            [
              168.646028,
              18.023897
            ],
            [
              168.46028,
              18.20864
            ],
            [
              168.398364,
              18.270221
            ],
            [
              168.212617,
              18.516544
            ],
            [
              167.964953,
              18.762868
            ],
            [
              167.779206,
              19.009191
            ],
            [
              167.71729,
              19.070772
            ],
            [
              167.531542,
              19.255515
            ],
            [
              167.469626,
              19.337623
            ],
            [
              167.304517,
              19.501838
            ],
            [
              167.221963,
              19.563419
            ],
            [
              167.036215,
              19.748162
            ],
            [
              166.974299,
              19.809743
            ],
            [
              166.788551,
              19.994485
            ],
            [
              166.726636,
              20.056066
            ],
            [
              166.478972,
              20.240809
            ],
            [
              166.231308,
              20.388603
            ],
            [
              166.107477,
              20.487132
            ],
            [
              165.983645,
              20.610294
            ],
            [
              165.818536,
              20.733456
            ],
            [
              165.735981,
              20.795037
            ],
            [
              165.488318,
              20.979779
            ],
            [
              165.240654,
              21.143995
            ],
            [
              165.1581,
              21.226103
            ],
            [
              164.992991,
              21.349265
            ],
            [
              164.827882,
              21.472426
            ],
            [
              164.745327,
              21.554534
            ],
            [
              164.497664,
              21.71875
            ],
            [
              164.25,
              21.965074
            ],
            [
              164.002336,
              22.088235
            ],
            [
              163.837227,
              22.211397
            ],
            [
              163.754673,
              22.272978
            ],
            [
              163.568925,
              22.457721
            ],
            [
              163.507009,
              22.519301
            ],
            [
              163.259346,
              22.704044
            ],
            [
              163.011682,
              22.86826
            ],
            [
              162.88785,
              22.950368
            ],
            [
              162.764019,
              23.032475
            ],
            [
              162.516355,
              23.196691
            ],
            [
              162.268692,
              23.360907
            ],
            [
              162.186137,
              23.443015
            ],
            [
              162.021028,
              23.566176
            ],
            [
              161.773364,
              23.689338
            ],
            [
              161.525701,
              23.853554
            ],
            [
              161.401869,
              23.935662
            ],
            [
              161.278037,
              24.01777
            ],
            [
              161.030374,
              24.181985
            ],
            [
              160.78271,
              24.264093
            ],
            [
              160.617601,
              24.428309
            ],
            [
              160.535047,
              24.48989
            ],
            [
              160.287383,
              24.592525
            ],
            [
              160.163551,
              24.674632
            ],
            [
              160.03972,
              24.736213
            ],
            [
              159.792056,
              24.859375
            ],
            [
              159.668224,
              24.920956
            ],
            [
              159.544393,
              25.003064
            ],
            [
              159.296729,
              25.085172
            ],
            [
              159.049065,
              25.167279
            ],
            [
              158.801402,
              25.331495
            ],
            [
              158.553738,
              25.413603
            ],
            [
              158.306075,
              25.577819
            ],
            [
              158.058411,
              25.659926
            ],
            [
              157.810748,
              25.783088
            ],
            [
              157.563084,
              25.783088
            ],
            [
              157.315421,
              25.90625
            ],
            [
              157.067757,
              26.029412
            ],
            [
              156.820093,
              26.029412
            ],
            [
              156.57243,
              26.152574
            ],
            [
              156.324766,
              26.070466
            ],
            [
              156.077103,
              26.152574
            ],
            [
              155.829439,
              26.152574
            ],
            [
              155.581776,
              26.152574
            ],
            [
              155.334112,
              26.234681
            ],
            [
              155.086449,
              26.234681
            ],
            [
              154.838785,
              26.152574
            ],
            [
              154.591121,
              26.029412
            ],
            [
              154.343458,
              25.90625
            ],
            [
              154.343458,
              25.659926
            ],
            [
              154.095794,
              25.659926
            ],
            [
              153.971963,
              25.413603
            ],
            [
              153.848131,
              25.290441
            ],
            [
              153.600467,
              25.167279
            ],
            [
              153.600467,
              24.920956
            ],
            [
              153.476636,
              24.674632
            ],
            [
              153.352804,
              24.428309
            ],
            [
              153.228972,
              24.181985
            ],
            [
              153.352804,
              23.935662
            ],
            [
              153.352804,
              23.689338
            ],
            [
              153.352804,
              23.443015
            ],
            [
              153.352804,
              23.196691
            ],
            [
              153.476636,
              22.950368
            ],
            [
              153.600467,
              22.704044
            ],
            [
              153.600467,
              22.457721
            ],
            [
              153.765576,
              22.211397
            ],
            [
              153.848131,
              21.965074
            ],
            [
              153.971963,
              21.71875
            ],
            [
              154.095794,
              21.472426
            ],
            [
              154.260903,
              21.226103
            ],
            [
              154.343458,
              21.102941
            ],
            [
              154.426012,
              20.979779
            ],
            [
              154.591121,
              20.733456
            ],
            [
              154.756231,
              20.487132
            ],
            [
              154.838785,
              20.363971
            ],
            [
              154.962617,
              20.240809
            ],
            [
              155.086449,
              20.117647
            ],
            [
              155.21028,
              19.994485
            ],
            [
              155.334112,
              19.748162
            ],
            [
              155.581776,
              19.583946
            ],
            [
              155.643692,
              19.501838
            ],
            [
              155.829439,
              19.255515
            ],
            [
              156.077103,
              19.009191
            ],
            [
              156.324766,
              18.886029
            ],
            [
              156.448598,
              18.762868
            ],
            [
              156.57243,
              18.639706
            ],
            [
              156.737539,
              18.516544
            ],
            [
              156.820093,
              18.434436
            ],
            [
              156.985202,
              18.270221
            ],
            [
              157.067757,
              18.188113
            ],
            [
              157.315421,
              18.023897
            ],
            [
              157.563084,
              17.777574
            ],
            [
              157.810748,
              17.654412
            ],
            [
              157.975857,
              17.53125
            ],
            [
              158.058411,
              17.469669
            ],
            [
              158.306075,
              17.346507
            ],
            [
              158.429907,
              17.284926
            ],
            [
              158.553738,
              17.202819
            ],
            [
              158.801402,
              17.038603
            ],
            [
              159.049065,
              16.890809
            ],
            [
              159.214174,
              16.792279
            ],
            [
              159.296729,
              16.730699
            ],
            [
              159.544393,
              16.545956
            ],
            [
              159.792056,
              16.422794
            ],
            [
              160.03972,
              16.299632
            ],
            [
              160.287383,
              16.11489
            ],
            [
              160.411215,
              16.053309
            ],
            [
              160.535047,
              15.991728
            ],
            [
              160.78271,
              15.868566
            ],
            [
              160.906542,
              15.806985
            ],
            [
              161.030374,
              15.757721
            ],
            [
              161.278037,
              15.609926
            ],
            [
              161.401869,
              15.560662
            ],
            [
              161.525701,
              15.511397
            ],
            [
              161.773364,
              15.375919
            ],
            [
              161.897196,
              15.314338
            ],
            [
              162.021028,
              15.252757
            ],
            [
              162.268692,
              15.129596
            ],
            [
              162.392523,
              15.068015
            ],
            [
              162.516355,
              15.006434
            ],
            [
              162.764019,
              14.883272
            ],
            [
              163.011682,
              14.821691
            ],
            [
              163.259346,
              14.673897
            ],
            [
              163.507009,
              14.575368
            ],
            [
              163.754673,
              14.411152
            ],
            [
              163.919782,
              14.329044
            ],
            [
              164.002336,
              14.279779
            ],
            [
              164.25,
              14.164828
            ],
            [
              164.497664,
              14.082721
            ],
            [
              164.745327,
              13.918505
            ],
            [
              164.869159,
              13.836397
            ],
            [
              164.992991,
              13.766019
            ],
            [
              165.240654,
              13.631127
            ],
            [
              165.30257,
              13.590074
            ],
            [
              165.488318,
              13.484506
            ],
            [
              165.735981,
              13.34375
            ],
            [
              165.983645,
              13.220588
            ],
            [
              166.231308,
              13.097426
            ],
            [
              166.478972,
              12.943474
            ],
            [
              166.726636,
              12.851103
            ],
            [
              166.974299,
              12.697151
            ],
            [
              167.221963,
              12.604779
            ],
            [
              167.469626,
              12.467933
            ],
            [
              167.71729,
              12.358456
            ],
            [
              167.964953,
              12.259926
            ],
            [
              168.212617,
              12.156918
            ],
            [
              168.336449,
              12.112132
            ],
            [
              168.46028,
              12.050551
            ],
            [
              168.707944,
              11.947917
            ],
            [
              168.893692,
              11.865809
            ],
            [
              168.955607,
              11.83844
            ]
          ]
        ]
      }
    },
    {
      "type": "Feature",
      "properties": {
        "name": "20%",
        "probability": 20,
        "styleUrl": "wsp20",
        "source": "CWA W-C0034-003 KMZ 暴風圈侵襲機率",
        "cwaTime": "2026-07-27T14:00+08:00"
      },
      "geometry": {
        "type": "Polygon",
        "coordinates": [
          [
            [
              168.955607,
              11.537377
            ],
            [
              169.203271,
              11.496324
            ],
            [
              169.450935,
              11.44354
            ],
            [
              169.698598,
              11.44354
            ],
            [
              169.946262,
              11.45527
            ],
            [
              170.193925,
              11.478729
            ],
            [
              170.441589,
              11.537377
            ],
            [
              170.689252,
              11.570221
            ],
            [
              170.936916,
              11.619485
            ],
            [
              171.184579,
              11.640012
            ],
            [
              171.432243,
              11.640012
            ],
            [
              171.679907,
              11.641878
            ],
            [
              171.92757,
              11.644118
            ],
            [
              172.175234,
              11.701593
            ],
            [
              172.422897,
              11.728962
            ],
            [
              172.670561,
              11.760242
            ],
            [
              172.918224,
              11.773438
            ],
            [
              173.165888,
              11.804228
            ],
            [
              173.413551,
              11.804228
            ],
            [
              173.661215,
              11.83062
            ],
            [
              173.908879,
              11.865809
            ],
            [
              174.156542,
              11.877539
            ],
            [
              174.404206,
              11.894788
            ],
            [
              174.651869,
              11.955381
            ],
            [
              174.899533,
              12.081342
            ],
            [
              174.949065,
              12.112132
            ],
            [
              175.147196,
              12.182511
            ],
            [
              175.39486,
              12.246491
            ],
            [
              175.642523,
              12.358456
            ],
            [
              175.890187,
              12.385085
            ],
            [
              176.13785,
              12.414077
            ],
            [
              176.385514,
              12.464023
            ],
            [
              176.633178,
              12.582386
            ],
            [
              176.660696,
              12.604779
            ],
            [
              176.880841,
              12.625095
            ],
            [
              177.128505,
              12.629661
            ],
            [
              177.351152,
              12.851103
            ],
            [
              177.351152,
              13.097426
            ],
            [
              177.351152,
              13.34375
            ],
            [
              177.351152,
              13.590074
            ],
            [
              177.351152,
              13.836397
            ],
            [
              177.128505,
              14.057839
            ],
            [
              176.880841,
              14.062405
            ],
            [
              176.633178,
              14.067163
            ],
            [
              176.385514,
              14.069618
            ],
            [
              176.13785,
              14.072126
            ],
            [
              175.890187,
              14.07451
            ],
            [
              175.642523,
              14.076639
            ],
            [
              175.39486,
              14.079151
            ],
            [
              175.271028,
              14.082721
            ],
            [
              175.147196,
              14.11009
            ],
            [
              174.899533,
              14.194686
            ],
            [
              174.651869,
              14.276261
            ],
            [
              174.404206,
              14.316728
            ],
            [
              174.321651,
              14.329044
            ],
            [
              174.156542,
              14.390625
            ],
            [
              173.908879,
              14.441009
            ],
            [
              173.661215,
              14.49326
            ],
            [
              173.413551,
              14.522584
            ],
            [
              173.165888,
              14.559972
            ],
            [
              173.103972,
              14.575368
            ],
            [
              172.918224,
              14.667739
            ],
            [
              172.670561,
              14.732119
            ],
            [
              172.422897,
              14.801164
            ],
            [
              172.373364,
              14.821691
            ],
            [
              172.175234,
              14.931168
            ],
            [
              171.92757,
              15.040645
            ],
            [
              171.845016,
              15.068015
            ],
            [
              171.679907,
              15.166544
            ],
            [
              171.432243,
              15.314338
            ],
            [
              171.184579,
              15.511397
            ],
            [
              171.135047,
              15.560662
            ],
            [
              170.936916,
              15.806985
            ],
            [
              170.751168,
              16.053309
            ],
            [
              170.689252,
              16.135417
            ],
            [
              170.590187,
              16.299632
            ],
            [
              170.441589,
              16.545956
            ],
            [
              170.255841,
              16.792279
            ],
            [
              170.193925,
              16.874387
            ],
            [
              170.070093,
              17.038603
            ],
            [
              169.946262,
              17.202819
            ],
            [
              169.884346,
              17.284926
            ],
            [
              169.698598,
              17.53125
            ],
            [
              169.450935,
              17.777574
            ],
            [
              169.285826,
              18.023897
            ],
            [
              169.203271,
              18.106005
            ],
            [
              169.079439,
              18.270221
            ],
            [
              168.955607,
              18.434436
            ],
            [
              168.873053,
              18.516544
            ],
            [
              168.707944,
              18.762868
            ],
            [
              168.542835,
              19.009191
            ],
            [
              168.46028,
              19.132353
            ],
            [
              168.336449,
              19.255515
            ],
            [
              168.212617,
              19.378676
            ],
            [
              168.088785,
              19.501838
            ],
            [
              167.964953,
              19.625
            ],
            [
              167.841121,
              19.748162
            ],
            [
              167.71729,
              19.83027
            ],
            [
              167.593458,
              19.994485
            ],
            [
              167.469626,
              20.158701
            ],
            [
              167.387072,
              20.240809
            ],
            [
              167.221963,
              20.405025
            ],
            [
              167.139408,
              20.487132
            ],
            [
              166.974299,
              20.651348
            ],
            [
              166.891745,
              20.733456
            ],
            [
              166.726636,
              20.897672
            ],
            [
              166.478972,
              20.979779
            ],
            [
              166.231308,
              21.226103
            ],
            [
              165.983645,
              21.390319
            ],
            [
              165.859813,
              21.472426
            ],
            [
              165.735981,
              21.595588
            ],
            [
              165.488318,
              21.71875
            ],
            [
              165.240654,
              21.965074
            ],
            [
              164.992991,
              22.211397
            ],
            [
              164.745327,
              22.457721
            ],
            [
              164.497664,
              22.704044
            ],
            [
              164.25,
              22.950368
            ],
            [
              164.002336,
              23.073529
            ],
            [
              163.878505,
              23.196691
            ],
            [
              163.754673,
              23.319853
            ],
            [
              163.507009,
              23.443015
            ],
            [
              163.259346,
              23.60723
            ],
            [
              163.135514,
              23.689338
            ],
            [
              163.011682,
              23.8125
            ],
            [
              162.88785,
              23.935662
            ],
            [
              162.764019,
              24.058824
            ],
            [
              162.640187,
              24.181985
            ],
            [
              162.516355,
              24.264093
            ],
            [
              162.268692,
              24.428309
            ],
            [
              162.021028,
              24.592525
            ],
            [
              161.897196,
              24.674632
            ],
            [
              161.773364,
              24.920956
            ],
            [
              161.525701,
              25.085172
            ],
            [
              161.401869,
              25.167279
            ],
            [
              161.278037,
              25.290441
            ],
            [
              161.030374,
              25.413603
            ],
            [
              160.78271,
              25.659926
            ],
            [
              160.535047,
              25.659926
            ],
            [
              160.287383,
              25.90625
            ],
            [
              160.03972,
              25.90625
            ],
            [
              159.792056,
              26.029412
            ],
            [
              159.544393,
              26.070466
            ],
            [
              159.296729,
              26.152574
            ],
            [
              159.049065,
              26.398897
            ],
            [
              158.801402,
              26.522059
            ],
            [
              158.553738,
              26.645221
            ],
            [
              158.306075,
              26.891544
            ],
            [
              158.058411,
              26.973652
            ],
            [
              157.810748,
              27.014706
            ],
            [
              157.563084,
              27.137868
            ],
            [
              157.315421,
              27.137868
            ],
            [
              157.067757,
              27.261029
            ],
            [
              156.820093,
              27.261029
            ],
            [
              156.57243,
              27.302083
            ],
            [
              156.324766,
              27.384191
            ],
            [
              156.077103,
              27.466299
            ],
            [
              155.829439,
              27.507353
            ],
            [
              155.581776,
              27.630515
            ],
            [
              155.334112,
              27.507353
            ],
            [
              155.086449,
              27.507353
            ],
            [
              154.838785,
              27.507353
            ],
            [
              154.591121,
              27.507353
            ],
            [
              154.343458,
              27.384191
            ],
            [
              154.095794,
              27.507353
            ],
            [
              153.848131,
              27.384191
            ],
            [
              153.600467,
              27.384191
            ],
            [
              153.352804,
              27.261029
            ],
            [
              153.10514,
              27.137868
            ],
            [
              152.857477,
              27.014706
            ],
            [
              152.609813,
              26.891544
            ],
            [
              152.36215,
              26.645221
            ],
            [
              152.114486,
              26.398897
            ],
            [
              152.114486,
              26.152574
            ],
            [
              151.866822,
              25.90625
            ],
            [
              151.619159,
              25.659926
            ],
            [
              151.619159,
              25.413603
            ],
            [
              151.619159,
              25.167279
            ],
            [
              151.619159,
              24.920956
            ],
            [
              151.619159,
              24.674632
            ],
            [
              151.619159,
              24.428309
            ],
            [
              151.619159,
              24.181985
            ],
            [
              151.619159,
              23.935662
            ],
            [
              151.742991,
              23.689338
            ],
            [
              151.866822,
              23.443015
            ],
            [
              151.990654,
              23.196691
            ],
            [
              152.114486,
              22.950368
            ],
            [
              152.114486,
              22.704044
            ],
            [
              152.36215,
              22.457721
            ],
            [
              152.485981,
              22.211397
            ],
            [
              152.609813,
              21.965074
            ],
            [
              152.609813,
              21.71875
            ],
            [
              152.857477,
              21.472426
            ],
            [
              153.10514,
              21.226103
            ],
            [
              153.352804,
              20.979779
            ],
            [
              153.476636,
              20.733456
            ],
            [
              153.600467,
              20.610294
            ],
            [
              153.683022,
              20.487132
            ],
            [
              153.848131,
              20.240809
            ],
            [
              154.095794,
              19.994485
            ],
            [
              154.343458,
              19.748162
            ],
            [
              154.591121,
              19.501838
            ],
            [
              154.838785,
              19.255515
            ],
            [
              155.086449,
              19.009191
            ],
            [
              155.334112,
              18.762868
            ],
            [
              155.581776,
              18.516544
            ],
            [
              155.829439,
              18.270221
            ],
            [
              156.077103,
              18.023897
            ],
            [
              156.324766,
              17.859681
            ],
            [
              156.448598,
              17.777574
            ],
            [
              156.57243,
              17.53125
            ],
            [
              156.820093,
              17.408088
            ],
            [
              156.943925,
              17.284926
            ],
            [
              157.067757,
              17.161765
            ],
            [
              157.315421,
              17.038603
            ],
            [
              157.563084,
              16.792279
            ],
            [
              157.810748,
              16.669118
            ],
            [
              158.058411,
              16.545956
            ],
            [
              158.306075,
              16.422794
            ],
            [
              158.553738,
              16.299632
            ],
            [
              158.801402,
              16.135417
            ],
            [
              159.049065,
              16.053309
            ],
            [
              159.296729,
              15.806985
            ],
            [
              159.544393,
              15.806985
            ],
            [
              159.792056,
              15.64277
            ],
            [
              159.915888,
              15.560662
            ],
            [
              160.03972,
              15.478554
            ],
            [
              160.287383,
              15.396446
            ],
            [
              160.411215,
              15.314338
            ],
            [
              160.535047,
              15.252757
            ],
            [
              160.78271,
              15.150123
            ],
            [
              161.030374,
              15.068015
            ],
            [
              161.278037,
              14.903799
            ],
            [
              161.525701,
              14.821691
            ],
            [
              161.773364,
              14.698529
            ],
            [
              162.021028,
              14.575368
            ],
            [
              162.268692,
              14.49326
            ],
            [
              162.516355,
              14.390625
            ],
            [
              162.640187,
              14.329044
            ],
            [
              162.764019,
              14.246936
            ],
            [
              163.011682,
              14.144301
            ],
            [
              163.259346,
              14.082721
            ],
            [
              163.507009,
              13.959559
            ],
            [
              163.754673,
              13.885662
            ],
            [
              163.878505,
              13.836397
            ],
            [
              164.002336,
              13.754289
            ],
            [
              164.25,
              13.651654
            ],
            [
              164.373832,
              13.590074
            ],
            [
              164.497664,
              13.528493
            ],
            [
              164.745327,
              13.405331
            ],
            [
              164.992991,
              13.34375
            ],
            [
              165.240654,
              13.220588
            ],
            [
              165.488318,
              13.097426
            ],
            [
              165.735981,
              12.949632
            ],
            [
              165.90109,
              12.851103
            ],
            [
              165.983645,
              12.801838
            ],
            [
              166.231308,
              12.703309
            ],
            [
              166.396417,
              12.604779
            ],
            [
              166.478972,
              12.555515
            ],
            [
              166.726636,
              12.440564
            ],
            [
              166.974299,
              12.358456
            ],
            [
              167.221963,
              12.235294
            ],
            [
              167.469626,
              12.147321
            ],
            [
              167.552181,
              12.112132
            ],
            [
              167.71729,
              12.013603
            ],
            [
              167.964953,
              11.915074
            ],
            [
              168.088785,
              11.865809
            ],
            [
              168.212617,
              11.816544
            ],
            [
              168.46028,
              11.701593
            ],
            [
              168.707944,
              11.619485
            ],
            [
              168.955607,
              11.537377
            ]
          ]
        ]
      }
    }
  ]
}
