{"type":"FeatureCollection","features":[{"type":"Feature","properties":{"NAME":"荖濃溪粒子流線","source":"derived from data/laonong-river-real.geojson ID 641","points":72,"display_note":"第 21-36 點改為貼主河道的流線，避免水流粒子繞出圓弧"},"geometry":{"type":"LineString","coordinates":[[120.4539988,22.7791749],[120.4688051,22.784149],[120.4811793,22.7883872],[120.49269,22.7921783],[120.5059488,22.7963232],[120.5195414,22.8010155],[120.5303631,22.8060902],[120.5396945,22.8123856],[120.5517578,22.8215707],[120.5670438,22.8339212],[120.5810416,22.847132],[120.5890286,22.8577499],[120.5912654,22.8639491],[120.5941177,22.8672655],[120.6039276,22.8709686],[120.6198782,22.8770315],[120.635868,22.8854987],[120.64765,22.8954818],[120.6556035,22.905215],[120.6615961,22.9120284],[120.6655266,22.9145637],[120.6647,22.918],[120.6629,22.9218],[120.6611,22.9258],[120.6593,22.9299],[120.6578,22.934],[120.6566,22.9382],[120.6557,22.9424],[120.655,22.9466],[120.6546,22.9508],[120.6546,22.9551],[120.655,22.9593],[120.6555,22.9632],[120.6559,22.9668],[120.6561,22.97],[120.6562,22.9726],[120.6563,22.9747],[120.6562881,22.9746551],[120.6581226,22.9927165],[120.6615748,23.0115404],[120.6662478,23.0302572],[120.6727425,23.0489251],[120.681759,23.0671964],[120.6932264,23.0850906],[120.7063012,23.1025988],[120.7205435,23.1190508],[120.7361951,23.1344326],[120.7526951,23.1502456],[120.7685115,23.167848],[120.7826564,23.187095],[120.7950704,23.2073795],[120.8064341,23.2285099],[120.8184292,23.249572],[120.8326717,23.2683621],[120.8491198,23.2827294],[120.8666582,23.2920083],[120.8849104,23.2977186],[120.904143,23.3023662],[120.9226591,23.3069319],[120.9357373,23.3112482],[120.9394571,23.3157341],[120.9348766,23.3203507],[120.9271289,23.3246888],[120.9217173,23.3304973],[120.921675,23.3403023],[120.9268355,23.3535625],[120.9358464,23.3675301],[120.9480112,23.3808065],[120.9622823,23.3940409],[120.9763768,23.4087488],[120.9883266,23.4262748],[120.9982527,23.4463017]]}}]}