{"type":"FeatureCollection","features":[{"type":"Feature","properties":{"Region":"荖濃溪","Area":"1.42307e+003","莫拉克":"0.00000e+000","辛樂克":"0.00000e+000","卡玫基":"0.00000e+000","聖帕":"0.00000e+000","碧利斯":"0.00000e+000","海棠":"0.00000e+000","A":"A","source":"台灣集水區界/荖濃溪/荖濃溪.shp","record":1},"geometry":{"type":"Polygon","coordinates":[[[120.833097,22.899239],[120.833066,22.898439],[120.833585,22.896683],[120.834277,22.894448],[120.835658,22.892853],[120.837555,22.891258],[120.838075,22.889183],[120.838251,22.886309],[120.83877,22.883755],[120.839634,22.882479],[120.841875,22.881044],[120.844633,22.880408],[120.848598,22.879294],[120.850666,22.878657],[120.853596,22.878181],[120.856353,22.878503],[120.858593,22.878345],[120.860747,22.87789],[120.861795,22.876419],[120.8655,22.871412],[120.86293,22.865104],[120.854671,22.864438],[120.853065,22.858054],[120.846246,22.852688],[120.841806,22.860222],[120.83419,22.865465],[120.825132,22.867036],[120.82114,22.861649],[120.816184,22.864416],[120.812739,22.855812],[120.802417,22.850668],[120.791421,22.847764],[120.789905,22.84019],[120.782194,22.835441],[120.77295,22.836665],[120.764731,22.847763],[120.76252,22.855061],[120.757764,22.862477],[120.74933,22.865307],[120.744198,22.87169],[120.735702,22.87492],[120.721446,22.882755],[120.714115,22.880931],[120.705363,22.881462],[120.702432,22.876702],[120.690921,22.867017],[120.683282,22.865765],[120.674943,22.857625],[120.662598,22.860514],[120.657995,22.856673],[120.65309,22.856048],[120.640102,22.849632],[120.628301,22.846088],[120.6067,22.845135],[120.592261,22.824538],[120.578629,22.802387],[120.564645,22.78879],[120.545347,22.786738],[120.519719,22.782389],[120.510907,22.780671],[120.483477,22.771895],[120.475035,22.766673],[120.464871,22.77523],[120.458583,22.776692],[120.462582,22.781832],[120.467364,22.787172],[120.474819,22.796013],[120.491022,22.804448],[120.516223,22.8115],[120.533491,22.823318],[120.556426,22.845007],[120.571961,22.855331],[120.575198,22.860381],[120.587497,22.864504],[120.591729,22.870527],[120.592557,22.880978],[120.596975,22.886082],[120.59507,22.896535],[120.59804,22.90686],[120.603433,22.917712],[120.610698,22.91736],[120.614061,22.922066],[120.616253,22.930906],[120.62087,22.940661],[120.625913,22.946454],[120.623999,22.951624],[120.628087,22.974357],[120.622936,22.977061],[120.621097,22.988604],[120.618008,22.997047],[120.6202,23.005082],[120.620042,23.018402],[120.615768,23.025067],[120.611304,23.030411],[120.605528,23.032426],[120.607216,23.037363],[120.614185,23.041088],[120.621909,23.048773],[120.622796,23.05658],[120.628417,23.068518],[120.636759,23.073616],[120.638758,23.077978],[120.635984,23.088662],[120.64706,23.09192],[120.649433,23.096625],[120.653125,23.106208],[120.654194,23.11126],[120.659306,23.116419],[120.666217,23.119569],[120.673764,23.128286],[120.684967,23.155022],[120.689861,23.171264],[120.697696,23.169701],[120.717396,23.181382],[120.725377,23.188659],[120.730547,23.190488],[120.740097,23.200001],[120.744607,23.209353],[120.748753,23.221345],[120.754629,23.229026],[120.752597,23.236093],[120.757837,23.239354],[120.764052,23.255361],[120.770642,23.272686],[120.774537,23.281522],[120.772188,23.286695],[120.776191,23.291624],[120.783301,23.294766],[120.789988,23.301814],[120.79602,23.316785],[120.804999,23.320785],[120.807214,23.32922],[120.812777,23.334489],[120.824316,23.338424],[120.830655,23.334275],[120.837325,23.335521],[120.853726,23.340132],[120.8594,23.341437],[120.872843,23.339105],[120.883806,23.352856],[120.893095,23.354264],[120.898625,23.366134],[120.896793,23.374005],[120.899687,23.381116],[120.894546,23.388481],[120.898374,23.39467],[120.898893,23.399492],[120.913063,23.403641],[120.91602,23.41081],[120.925702,23.415373],[120.928334,23.431442],[120.935585,23.436531],[120.936798,23.442613],[120.955899,23.447605],[120.953889,23.456971],[120.957444,23.469445],[120.959332,23.487038],[120.974371,23.488769],[120.993392,23.488818],[121.00667,23.489261],[121.03588,23.492399],[121.041852,23.489219],[121.051655,23.490367],[121.049474,23.480462],[121.044788,23.47893],[121.037011,23.470692],[121.044975,23.46739],[121.057094,23.459936],[121.053886,23.454896],[121.052238,23.449677],[121.043445,23.449138],[121.032575,23.445102],[121.031052,23.440512],[121.024808,23.438297],[121.016994,23.434708],[121.015094,23.428915],[121.022193,23.427456],[121.027023,23.421294],[121.028607,23.414397],[121.0277,23.407512],[121.020675,23.399557],[121.012676,23.395336],[121.004449,23.395195],[120.999511,23.391766],[120.997784,23.383561],[120.988291,23.378944],[120.9849,23.373616],[120.988056,23.35661],[120.998646,23.356459],[121.008645,23.350165],[121.010041,23.342927],[121.015276,23.343423],[121.019591,23.346565],[121.025655,23.33862],[121.030572,23.337915],[121.03266,23.332223],[121.038134,23.330709],[121.039972,23.325419],[121.048744,23.323033],[121.047451,23.31431],[121.045227,23.30651],[121.040165,23.303026],[121.034501,23.304023],[121.029295,23.296694],[121.024295,23.293268],[121.010783,23.293432],[120.992682,23.285228],[120.986369,23.280541],[120.974487,23.282704],[120.96693,23.278023],[120.965655,23.271997],[120.959427,23.271616],[120.95478,23.26319],[120.948154,23.257584],[120.946139,23.252768],[120.939342,23.250264],[120.934199,23.242586],[120.925856,23.242497],[120.91594,23.237473],[120.910285,23.225489],[120.910703,23.20723],[120.904924,23.195132],[120.911407,23.183458],[120.908527,23.179449],[120.89912,23.176718],[120.894989,23.17076],[120.89488,23.159564],[120.887533,23.158033],[120.885832,23.152986],[120.875806,23.15043],[120.879699,23.143875],[120.885109,23.143515],[120.887438,23.134954],[120.885977,23.12755],[120.886947,23.121406],[120.888332,23.110376],[120.88627,23.092756],[120.880751,23.081173],[120.877121,23.075097],[120.87441,23.065687],[120.868977,23.059558],[120.878593,23.046625],[120.877706,23.035133],[120.858918,23.030706],[120.860177,23.01876],[120.860266,23.00986],[120.857762,23.005216],[120.850245,23.005695],[120.850021,22.99582],[120.840245,22.990216],[120.840344,22.983615],[120.833069,22.98214],[120.83081,22.976057],[120.829359,22.970091],[120.819896,22.96443],[120.823636,22.950811],[120.820392,22.947031],[120.820981,22.937958],[120.825232,22.928589],[120.829738,22.92094],[120.832442,22.913355],[120.828738,22.902456],[120.833097,22.899239]]]}}]}