{"type":"FeatureCollection","features":[{"type":"Feature","properties":{"BASIN_NO":"1730","BASIN_NAME":"高屏溪","AREA":"3320411198.0762","BASIN_ID":"1015","EXTENT":"180912.28,2485893.00,255149.61,2599204.75","source":"Water Resources Agency BASIN SHP 20201007"},"geometry":{"type":"Polygon","coordinates":[[[120.522618,23.046675],[120.526371,23.052404],[120.532168,23.056821],[120.538454,23.06086],[120.545462,23.063765],[120.55263,23.061863],[120.559627,23.062961],[120.56451,23.068499],[120.565462,23.076036],[120.5677,23.082774],[120.57267,23.088641],[120.574143,23.095481],[120.57879,23.101476],[120.58328,23.107417],[120.58779,23.113341],[120.588905,23.120665],[120.591283,23.127588],[120.595445,23.134825],[120.600044,23.142016],[120.605567,23.147857],[120.612344,23.152899],[120.614991,23.159809],[120.621987,23.163296],[120.628377,23.168855],[120.631207,23.174698],[120.637622,23.178801],[120.638799,23.185007],[120.63812,23.192067],[120.64147,23.199202],[120.645476,23.206471],[120.651784,23.209732],[120.655256,23.216433],[120.654244,23.22444],[120.658754,23.22963],[120.666845,23.23353],[120.673503,23.238461],[120.677824,23.244775],[120.674705,23.250216],[120.676946,23.257908],[120.683556,23.261082],[120.688207,23.267176],[120.692401,23.273758],[120.699888,23.277768],[120.700811,23.285611],[120.702585,23.29324],[120.704486,23.301147],[120.709959,23.306738],[120.712945,23.313119],[120.716996,23.319777],[120.723167,23.324804],[120.729464,23.330829],[120.735593,23.336704],[120.739254,23.343573],[120.741651,23.350368],[120.745894,23.35693],[120.753563,23.360033],[120.761715,23.364772],[120.766755,23.369855],[120.766215,23.377686],[120.768444,23.385218],[120.770739,23.393455],[120.773639,23.400817],[120.782078,23.401086],[120.789058,23.40483],[120.796743,23.405917],[120.802514,23.41066],[120.810412,23.413377],[120.817145,23.418092],[120.821237,23.423066],[120.822341,23.430142],[120.81919,23.436577],[120.82324,23.443609],[120.817212,23.448978],[120.820109,23.455065],[120.823474,23.461654],[120.825617,23.468278],[120.830936,23.473654],[120.838007,23.471817],[120.845952,23.472979],[120.854287,23.473418],[120.862415,23.473694],[120.870387,23.469902],[120.879884,23.467991],[120.884176,23.473816],[120.891805,23.475729],[120.900817,23.475979],[120.910157,23.476411],[120.918516,23.475107],[120.926622,23.473038],[120.934226,23.472019],[120.94166,23.469981],[120.949122,23.4672],[120.956559,23.470614],[120.958883,23.478159],[120.95955,23.486113],[120.96807,23.488514],[120.976991,23.490017],[120.985425,23.490673],[120.993548,23.49015],[121.002611,23.489362],[121.01259,23.491127],[121.023709,23.492037],[121.033624,23.49278],[121.042656,23.49132],[121.052326,23.49403],[121.050812,23.485149],[121.043089,23.478711],[121.042279,23.471943],[121.049435,23.467189],[121.057133,23.462429],[121.053753,23.456064],[121.048024,23.451138],[121.038996,23.447029],[121.031504,23.441787],[121.0225,23.438361],[121.013694,23.433251],[121.021613,23.428791],[121.028336,23.423239],[121.026916,23.416552],[121.027554,23.408497],[121.025309,23.402007],[121.016672,23.398592],[121.006823,23.396394],[121.002588,23.390371],[121.004957,23.384461],[120.998133,23.380334],[120.992769,23.373798],[120.987693,23.368842],[120.986713,23.36106],[120.992719,23.3572],[121.001414,23.356376],[121.007816,23.350571],[121.013773,23.346153],[121.021529,23.345172],[121.027094,23.337854],[121.032644,23.333909],[121.039442,23.32925],[121.046887,23.326613],[121.047421,23.31928],[121.04696,23.311191],[121.042324,23.307212],[121.033847,23.303914],[121.028928,23.297268],[121.02065,23.294775],[121.013362,23.293229],[121.005372,23.290252],[120.998815,23.286529],[120.99071,23.28394],[120.983963,23.281257],[120.975644,23.28169],[120.969269,23.277817],[120.964013,23.272456],[120.958889,23.268105],[120.954579,23.261816],[120.948619,23.255737],[120.942311,23.251847],[120.938565,23.244951],[120.929277,23.243037],[120.919557,23.2405],[120.914653,23.232801],[120.912462,23.224397],[120.912378,23.215669],[120.90926,23.207894],[120.907052,23.200975],[120.910392,23.192619],[120.911099,23.182858],[120.901763,23.178721],[120.895941,23.172538],[120.89509,23.163642],[120.890183,23.158645],[120.884116,23.153886],[120.87652,23.150943],[120.883083,23.145647],[120.887689,23.137417],[120.88605,23.127841],[120.88508,23.119677],[120.888394,23.111949],[120.888558,23.103063],[120.887063,23.094243],[120.884029,23.086098],[120.878951,23.078899],[120.876582,23.071428],[120.872989,23.064465],[120.869832,23.058252],[120.87405,23.052532],[120.879547,23.046364],[120.880475,23.038941],[120.875625,23.033742],[120.867042,23.032367],[120.860793,23.028666],[120.86173,23.020959],[120.861169,23.012767],[120.858105,23.005971],[120.850914,23.004921],[120.850888,22.997735],[120.845318,22.992402],[120.84195,22.986876],[120.837083,22.982012],[120.831461,22.976904],[120.830473,22.969952],[120.833096,22.962935],[120.834299,22.955629],[120.834594,22.947668],[120.830131,22.943283],[120.82359,22.941691],[120.822679,22.935605],[120.826633,22.928947],[120.828968,22.921748],[120.833287,22.915201],[120.829759,22.908479],[120.830829,22.901608],[120.839298,22.89981],[120.847535,22.9006],[120.85553,22.897586],[120.856787,22.891505],[120.864406,22.888737],[120.868756,22.883305],[120.859581,22.882087],[120.857585,22.878691],[120.864391,22.874026],[120.864568,22.867116],[120.856669,22.863925],[120.852998,22.858022],[120.857106,22.853023],[120.862322,22.846948],[120.864589,22.839306],[120.864749,22.832345],[120.863748,22.826061],[120.867179,22.819657],[120.873481,22.815106],[120.882708,22.81412],[120.891815,22.810429],[120.900059,22.805149],[120.902917,22.797692],[120.901782,22.789997],[120.903994,22.78212],[120.903016,22.773554],[120.896487,22.767822],[120.894019,22.763188],[120.895458,22.754838],[120.895172,22.746164],[120.897197,22.741267],[120.904005,22.73699],[120.899408,22.731263],[120.890452,22.727755],[120.886821,22.719163],[120.878061,22.716271],[120.86876,22.716426],[120.86022,22.71496],[120.854803,22.716732],[120.847293,22.714995],[120.843401,22.70864],[120.838391,22.702481],[120.834699,22.696653],[120.826327,22.695983],[120.81934,22.693332],[120.812762,22.691877],[120.805301,22.688972],[120.796229,22.689981],[120.788736,22.693039],[120.789756,22.686708],[120.791801,22.678928],[120.786791,22.671959],[120.786767,22.663638],[120.782281,22.656167],[120.777249,22.649867],[120.772828,22.642705],[120.768048,22.636138],[120.761771,22.629885],[120.758107,22.622708],[120.754774,22.615446],[120.747692,22.612083],[120.738983,22.614635],[120.731045,22.617736],[120.723512,22.621149],[120.716016,22.62436],[120.709005,22.627357],[120.701974,22.630183],[120.697304,22.636306],[120.698207,22.643854],[120.695344,22.65068],[120.690259,22.657317],[120.683005,22.660981],[120.676874,22.666857],[120.670345,22.67205],[120.670471,22.679281],[120.668517,22.687778],[120.663998,22.69435],[120.65689,22.699018],[120.650092,22.703409],[120.642663,22.705843],[120.634588,22.701826],[120.628215,22.695822],[120.620431,22.696234],[120.612505,22.698535],[120.603698,22.69845],[120.595082,22.697441],[120.585154,22.694813],[120.576628,22.690882],[120.566482,22.689119],[120.556179,22.687068],[120.545314,22.682881],[120.537205,22.678725],[120.529846,22.674469],[120.52382,22.669517],[120.517209,22.664061],[120.510732,22.657935],[120.505031,22.652267],[120.500103,22.645339],[120.49603,22.638238],[120.492522,22.630957],[120.488996,22.62415],[120.485483,22.615461],[120.48446,22.607856],[120.481925,22.598334],[120.478335,22.588677],[120.475932,22.580013],[120.475407,22.570798],[120.473911,22.563101],[120.471113,22.555325],[120.466579,22.546536],[120.46239,22.540009],[120.458399,22.53285],[120.454857,22.525053],[120.452301,22.516242],[120.450777,22.506756],[120.449421,22.497377],[120.446969,22.489288],[120.444656,22.480687],[120.440513,22.474683],[120.434201,22.471694],[120.427776,22.475787],[120.41945,22.476353],[120.410014,22.476728],[120.401864,22.479502],[120.394614,22.483647],[120.387765,22.488689],[120.380218,22.49302],[120.373821,22.497646],[120.366355,22.503017],[120.361038,22.508381],[120.365046,22.513901],[120.369184,22.520397],[120.373749,22.52641],[120.381382,22.529842],[120.389539,22.531801],[120.394024,22.536153],[120.395446,22.542467],[120.398187,22.550016],[120.394209,22.555758],[120.395409,22.560389],[120.393518,22.566748],[120.386614,22.568889],[120.386038,22.576053],[120.380772,22.581447],[120.373853,22.5827],[120.369796,22.588606],[120.369905,22.595097],[120.372873,22.601615],[120.371775,22.608687],[120.36901,22.615444],[120.360946,22.618941],[120.360153,22.626708],[120.361867,22.635532],[120.359841,22.642581],[120.353966,22.64772],[120.34701,22.650534],[120.344464,22.657244],[120.337875,22.662913],[120.339169,22.669305],[120.347625,22.669631],[120.352493,22.664418],[120.360789,22.665145],[120.368991,22.665476],[120.374829,22.671245],[120.381707,22.674945],[120.388964,22.677791],[120.389324,22.684012],[120.393898,22.69067],[120.39558,22.697515],[120.396659,22.70491],[120.399835,22.711876],[120.401903,22.719887],[120.400972,22.727379],[120.401771,22.735859],[120.407281,22.741379],[120.410961,22.747863],[120.411723,22.755047],[120.414871,22.761673],[120.416324,22.768149],[120.420136,22.774012],[120.427173,22.776792],[120.431357,22.782781],[120.433813,22.789494],[120.426811,22.79131],[120.422656,22.796518],[120.419559,22.802824],[120.416994,22.807356],[120.422454,22.811917],[120.426012,22.817036],[120.428742,22.824659],[120.433354,22.831307],[120.438951,22.836433],[120.444901,22.841958],[120.447857,22.848898],[120.446145,22.856428],[120.440683,22.860736],[120.442567,22.864975],[120.445148,22.8709],[120.449939,22.876449],[120.455271,22.882776],[120.461829,22.886908],[120.467759,22.891641],[120.469525,22.899217],[120.472824,22.905779],[120.47971,22.915142],[120.480014,22.923793],[120.481792,22.934883],[120.48558,22.946963],[120.486438,22.965252],[120.48589,22.977321],[120.478475,22.980918],[120.479586,22.988365],[120.479369,22.995721],[120.479675,23.004802],[120.481715,23.012935],[120.486873,23.018993],[120.494642,23.022956],[120.502407,23.027754],[120.508124,23.034422],[120.5149,23.039717],[120.520658,23.045258],[120.522618,23.046675]]]}}]}