{"type":"FeatureCollection","source":"Natural Earth 1:10m coastline, extracted Taiwan mainland coastline","features":[{"type":"Feature","properties":{"name":"Taiwan mainland coastline","source":"Natural Earth 1:10m coastline"},"geometry":{"type":"LineString","coordinates":[[121.905772,24.9501],[121.926768,24.96662],[122.005382,25.001899],[121.997732,25.010688],[121.983572,25.017157],[121.96754,25.021064],[121.953868,25.022366],[121.927257,25.018704],[121.9192,25.02204],[121.90919,25.036038],[121.899913,25.065985],[121.897227,25.083889],[121.898936,25.09398],[121.905121,25.106594],[121.892833,25.113674],[121.718516,25.152004],[121.703868,25.156887],[121.69752,25.162584],[121.694591,25.166083],[121.680512,25.175035],[121.676443,25.179389],[121.676117,25.186916],[121.679942,25.19302],[121.68393,25.197455],[121.684418,25.200507],[121.676117,25.202582],[121.664399,25.201361],[121.654145,25.198798],[121.649669,25.197089],[121.635997,25.222805],[121.597911,25.27143],[121.580821,25.283026],[121.539724,25.287421],[121.497813,25.278754],[121.461274,25.261908],[121.43629,25.241441],[121.424164,25.22134],[121.41627,25.203599],[121.413259,25.200426],[121.406016,25.197333],[121.399099,25.192125],[121.395763,25.182807],[121.4074,25.176215],[121.429454,25.155992],[121.443207,25.13642],[121.430024,25.131578],[121.424083,25.136908],[121.419444,25.146389],[121.412283,25.155463],[121.398936,25.159491],[121.38738,25.159329],[121.378754,25.157945],[121.371755,25.154771],[121.348318,25.137112],[121.330251,25.130683],[121.287446,25.123684],[121.210948,25.111151],[121.176931,25.100043],[121.159841,25.09162],[121.145763,25.08039],[121.129405,25.071112],[121.059337,25.050238],[121.031993,25.029242],[121.005544,25.000678],[120.97169,24.951768],[120.963878,24.940416],[120.955333,24.919379],[120.95281,24.909247],[120.953624,24.905015],[120.944021,24.902045],[120.93393,24.894599],[120.926036,24.884711],[120.922862,24.874661],[120.920584,24.861396],[120.914887,24.853705],[120.914643,24.85342],[120.908051,24.847073],[120.902354,24.836819],[120.906505,24.829088],[120.909028,24.82274],[120.90919,24.816881],[120.906423,24.811469],[120.898123,24.801174],[120.876964,24.761908],[120.871349,24.743232],[120.857677,24.737006],[120.854503,24.730658],[120.847504,24.710842],[120.833344,24.697821],[120.823009,24.685045],[120.826671,24.666083],[120.799327,24.670803],[120.778087,24.665717],[120.76059,24.653957],[120.74464,24.638821],[120.739431,24.630357],[120.735118,24.621243],[120.727875,24.613918],[120.702159,24.607001],[120.6963,24.597724],[120.690196,24.576117],[120.667735,24.540025],[120.659353,24.520697],[120.656016,24.49787],[120.648936,24.483873],[120.621349,24.456],[120.570811,24.404934],[120.558116,24.385891],[120.547374,24.351549],[120.511974,24.295559],[120.501638,24.252875],[120.493175,24.230658],[120.480642,24.221096],[120.477794,24.209662],[120.475434,24.207099],[120.432302,24.161078],[120.422048,24.152167],[120.41863,24.142524],[120.416352,24.107489],[120.411876,24.09691],[120.392345,24.082913],[120.387869,24.07331],[120.385509,24.063056],[120.379568,24.05801],[120.371267,24.054348],[120.361827,24.048529],[120.350352,24.038072],[120.340099,24.021796],[120.318126,23.965806],[120.302501,23.93887],[120.292247,23.911933],[120.284434,23.902004],[120.257498,23.878404],[120.25294,23.868069],[120.246755,23.843411],[120.240733,23.832831],[120.219493,23.817939],[120.216563,23.812649],[120.212657,23.803168],[120.18922,23.774807],[120.184418,23.76439],[120.175548,23.733832],[120.170805,23.698902],[120.15423,23.672212],[120.143609,23.638036],[120.140868,23.595263],[120.141689,23.537947],[120.124262,23.520021],[120.125029,23.489611],[120.157544,23.491476],[120.1421,23.47309],[120.138682,23.46426],[120.132091,23.456977],[120.130544,23.450995],[120.1421,23.445787],[120.1421,23.438951],[120.134776,23.426256],[120.150645,23.398139],[120.164577,23.361711],[120.144164,23.361854],[120.130149,23.36096],[120.120779,23.341254],[120.120942,23.329739],[120.130284,23.329335],[120.137341,23.327734],[120.145763,23.333319],[120.148936,23.322252],[120.143565,23.323879],[120.13118,23.31881],[120.116527,23.317897],[120.110494,23.303699],[120.124685,23.294989],[120.114919,23.292711],[120.108897,23.286689],[120.096039,23.255357],[120.094249,23.247504],[120.096098,23.239491],[120.087444,23.230288],[120.082159,23.217292],[120.078624,23.206977],[120.083832,23.195746],[120.086925,23.182034],[120.081879,23.173163],[120.071544,23.169989],[120.062022,23.165025],[120.059418,23.151028],[120.070079,23.139797],[120.086274,23.126939],[120.089203,23.117743],[120.059418,23.117499],[120.059418,23.110663],[120.094981,23.102484],[120.100434,23.096991],[120.096446,23.086412],[120.084727,23.082953],[120.070567,23.081204],[120.059418,23.075873],[120.054942,23.067776],[120.052419,23.055813],[120.055186,23.043687],[120.066254,23.034898],[120.076671,23.037421],[120.083751,23.047553],[120.092459,23.054755],[120.107921,23.04857],[120.111013,23.039984],[120.109141,23.015448],[120.114106,23.007636],[120.12672,23.007148],[120.133474,23.016547],[120.137462,23.028388],[120.1421,23.034898],[120.166189,23.031724],[120.170258,23.013373],[120.160167,22.992133],[120.1421,22.980292],[120.156912,22.966539],[120.163829,22.953843],[120.167491,22.931871],[120.175548,22.884101],[120.178477,22.877346],[120.18922,22.860175],[120.191417,22.852037],[120.196462,22.84748],[120.201345,22.844143],[120.203461,22.839667],[120.202159,22.831244],[120.196462,22.81859],[120.196056,22.808336],[120.199962,22.792467],[120.21754,22.756741],[120.236176,22.729885],[120.246349,22.709906],[120.252126,22.689643],[120.247813,22.675238],[120.239594,22.659084],[120.245779,22.642524],[120.258962,22.62759],[120.293305,22.598293],[120.313487,22.577053],[120.319916,22.565823],[120.327973,22.551703],[120.333669,22.525946],[120.285167,22.580064],[120.331228,22.519721],[120.38087,22.483873],[120.389008,22.484076],[120.396007,22.486477],[120.40211,22.486802],[120.413259,22.482327],[120.421723,22.477362],[120.439952,22.462592],[120.457205,22.451606],[120.495291,22.43476],[120.511974,22.42475],[120.514415,22.420071],[120.518077,22.406968],[120.522227,22.404283],[120.526378,22.403022],[120.538748,22.39643],[120.569672,22.373847],[120.577322,22.363837],[120.593923,22.329169],[120.615001,22.304999],[120.621267,22.295071],[120.696951,22.113227],[120.694835,22.102607],[120.685557,22.090155],[120.68336,22.079047],[120.68336,22.041205],[120.681895,22.029608],[120.681651,22.022528],[120.68336,22.013861],[120.704356,21.981391],[120.699555,21.956692],[120.700369,21.948432],[120.714366,21.937486],[120.727306,21.934475],[120.736095,21.942816],[120.737315,21.966132],[120.767426,21.959296],[120.797374,21.946763],[120.82309,21.928616],[120.840343,21.904608],[120.841563,21.925482],[120.836192,21.957709],[120.835704,21.98725],[120.850841,22.00023],[120.863617,22.008938],[120.873302,22.029975],[120.879242,22.055813],[120.875987,22.237698],[120.875011,22.289252],[120.881358,22.345933],[120.886567,22.365953],[120.922862,22.42475],[120.941091,22.483629],[120.948253,22.526801],[120.960623,22.547797],[120.991222,22.583075],[121.00115,22.600775],[121.021007,22.647895],[121.029063,22.657538],[121.039073,22.662421],[121.080251,22.704088],[121.141449,22.741767],[121.159353,22.757473],[121.177419,22.778632],[121.185557,22.790961],[121.190278,22.802151],[121.190929,22.811957],[121.188487,22.83393],[121.190278,22.843166],[121.20281,22.856513],[121.255626,22.897773],[121.260509,22.907294],[121.299571,22.959174],[121.307628,22.979804],[121.318858,23.025539],[121.337087,23.05508],[121.343435,23.075385],[121.347423,23.083319],[121.355479,23.09101],[121.373709,23.103217],[121.381602,23.110663],[121.400076,23.145494],[121.403819,23.179267],[121.403331,23.214748],[121.408865,23.254584],[121.416759,23.276068],[121.426768,23.293118],[121.453624,23.325995],[121.462169,23.343004],[121.479503,23.435207],[121.521495,23.658677],[121.539806,23.692816],[121.570323,23.832099],[121.594493,23.891506],[121.6067,23.948065],[121.608165,23.970364],[121.611095,23.982489],[121.625011,24.002387],[121.629161,24.01496],[121.628917,24.02619],[121.625743,24.030951],[121.620779,24.034613],[121.615001,24.042304],[121.608165,24.060492],[121.607432,24.07685],[121.613048,24.092108],[121.641287,24.129869],[121.652192,24.172187],[121.662852,24.193101],[121.672374,24.201483],[121.697765,24.21898],[121.700938,24.224189],[121.698253,24.231513],[121.703868,24.238349],[121.721446,24.251166],[121.745291,24.281236],[121.767426,24.30093],[121.772716,24.309231],[121.771983,24.312934],[121.769298,24.318061],[121.76588,24.323188],[121.763357,24.325792],[121.762543,24.326606],[121.758556,24.332343],[121.760509,24.337104],[121.764334,24.341702],[121.766449,24.347357],[121.768403,24.369371],[121.771495,24.380561],[121.776378,24.388332],[121.780772,24.39761],[121.779145,24.42178],[121.78004,24.432685],[121.806814,24.460639],[121.830414,24.473131],[121.840017,24.48135],[121.837738,24.491034],[121.831309,24.500393],[121.82838,24.510728],[121.830089,24.519232],[121.852794,24.530992],[121.855968,24.550523],[121.850841,24.572984],[121.840831,24.590318],[121.847911,24.594916],[121.857758,24.597846],[121.869477,24.598944],[121.881847,24.597805],[121.881847,24.60399],[121.852712,24.608873],[121.827973,24.622789],[121.814952,24.644355],[121.81422,24.672309],[121.819591,24.685981],[121.820323,24.699652],[121.807791,24.753119],[121.806814,24.778754],[121.808849,24.805162],[121.814626,24.831732],[121.823497,24.854926],[121.834727,24.871527],[121.905772,24.9501]]}}]}