{"type":"FeatureCollection","source":"debris1745_20250114_twd97_UTF8 filtered Laonong DF IDs","featureCount":10,"features":[{"type":"Feature","properties":{"ID":"1322","Debrisno":"高市DF097","County":"高雄市","Town":"六龜區","Vill":"荖濃里","Overflowno":"CD01","Overflow_X":"217049","Overflow_Y":"2553961","Address":"六龜區荖濃里頂濃路11、15、19、23、27、29、30、31、35(清龍宮)、37、37-3、38、39、41、43、44、45、46、50、51、54、56、57、58、60、61、66、68、71、72、73、76、76之1、78、79、82、84、98、100、102、104、10","Total_Res":"86","Res_Class":"5戶以上","Risk":"高","Dbno_old":"高市S100-19","overflowLonLat":[120.6783599,23.0870703]},"geometry":{"type":"Polygon","coordinates":[[[120.6817143,23.0883471],[120.681734,23.0883019],[120.681792,23.0881553],[120.6818425,23.0880063],[120.6818856,23.0878554],[120.6819211,23.0877025],[120.681949,23.0875485],[120.6819689,23.0873934],[120.681981,23.0872375],[120.6819855,23.0870816],[120.6819818,23.0869253],[120.6819704,23.0867694],[120.6819512,23.0866143],[120.681924,23.0864601],[120.6818892,23.0863072],[120.6818468,23.0861561],[120.6817971,23.0860068],[120.6817398,23.0858599],[120.6816748,23.0857156],[120.6816031,23.0855743],[120.6815255,23.0854388],[120.6814843,23.085411],[120.6811798,23.0852833],[120.6805825,23.0853539],[120.679991,23.0854576],[120.6794353,23.0855782],[120.6790768,23.0857155],[120.6788853,23.0858256],[120.6783573,23.0870742],[120.6786689,23.0871923],[120.6788346,23.0888026],[120.6789761,23.0887978],[120.6793868,23.0884621],[120.6811638,23.0883409],[120.6817143,23.0883471]]]}},{"type":"Feature","properties":{"ID":"1323","Debrisno":"高市DF055","County":"高雄市","Town":"六龜區","Vill":"新發里","Overflowno":"CD01","Overflow_X":"218695","Overflow_Y":"2552703","Address":"六龜區新發里新開路118號(澗鳴溫泉山莊)","Total_Res":"1","Res_Class":"1~4戶","Risk":"高","Dbno_old":"高縣DF052","overflowLonLat":[120.6944522,23.0757419]},"geometry":{"type":"Polygon","coordinates":[[[120.6882685,23.0759066],[120.6882783,23.0761243],[120.6883006,23.0763413],[120.6883349,23.0765567],[120.6883813,23.0767705],[120.68844,23.0769816],[120.6885103,23.0771897],[120.6885924,23.0773938],[120.6886857,23.077594],[120.6887906,23.0777892],[120.6889228,23.078019],[120.6890895,23.0782312],[120.689239,23.0784027],[120.6893883,23.078566],[120.6896284,23.0786821],[120.6897937,23.0785996],[120.6899284,23.0784949],[120.6901282,23.0783011],[120.6902782,23.0781536],[120.6905939,23.0778594],[120.6908421,23.0776531],[120.6911281,23.0774434],[120.6913763,23.0772433],[120.6917969,23.0769226],[120.6922,23.0765955],[120.6924589,23.0763127],[120.6927035,23.0761253],[120.6929275,23.076008],[120.6931753,23.0759448],[120.6935022,23.0759074],[120.6937054,23.0759077],[120.6939496,23.0759113],[120.6941663,23.075899],[120.6942594,23.0758801],[120.6943146,23.0758453],[120.6944498,23.0757377],[120.6943835,23.0756447],[120.6942721,23.0755967],[120.6940403,23.0755514],[120.6937865,23.0755351],[120.6935326,23.0755147],[120.6931456,23.0754941],[120.6928185,23.0754854],[120.6924575,23.0755126],[120.6920312,23.0756073],[120.6917989,23.0756386],[120.6913954,23.0756548],[120.6910103,23.0755713],[120.6905184,23.0754335],[120.6901317,23.0752436],[120.6895973,23.0749923],[120.6891162,23.0747431],[120.6888033,23.0745896],[120.6886178,23.0745287],[120.6885214,23.0745509],[120.6884125,23.0746723],[120.6883611,23.074885],[120.6883219,23.0750998],[120.6882859,23.0754711],[120.6882711,23.0756886],[120.6882685,23.0759066]]]}},{"type":"Feature","properties":{"ID":"1324","Debrisno":"高市DF077","County":"高雄市","Town":"六龜區","Vill":"新發里","Overflowno":"CD01","Overflow_X":"217754","Overflow_Y":"2551350","Address":"六龜區新發里新開路69、69之1、70、71、72、72之6、73、74、76、76之6、77號，共計11戶","Total_Res":"11","Res_Class":"5戶以上","Risk":"高","Dbno_old":"高縣DF074","overflowLonLat":[120.6852963,23.0635055]},"geometry":{"type":"Polygon","coordinates":[[[120.6851916,23.0634853],[120.6850797,23.0635186],[120.6849147,23.063596],[120.6847301,23.0637816],[120.6846209,23.0639028],[120.6845062,23.06398],[120.6843327,23.0640752],[120.6841958,23.0641319],[120.6840142,23.064173],[120.6838493,23.0641802],[120.6836541,23.0641682],[120.6833745,23.0641538],[120.6831458,23.0641452],[120.6829577,23.064111],[120.6828664,23.0640602],[120.6826484,23.0639024],[120.682533,23.0638065],[120.6822782,23.0637105],[120.6819382,23.0635919],[120.6816832,23.0635013],[120.681495,23.0634673],[120.6813552,23.0635063],[120.6811969,23.0635904],[120.6809719,23.0637698],[120.6808806,23.0638988],[120.6808375,23.0640449],[120.6808311,23.0641517],[120.6808613,23.0642586],[120.6812488,23.0648271],[120.6815033,23.0651592],[120.6816972,23.0653565],[120.6818609,23.0654635],[120.6819823,23.0655201],[120.6820915,23.0655483],[120.6821949,23.0655205],[120.6823592,23.0653578],[120.6824265,23.0652792],[120.682548,23.0651445],[120.6827305,23.0650831],[120.6829311,23.0650835],[120.6831497,23.0651289],[120.6833197,23.0651853],[120.6834665,23.0652343],[120.6836108,23.0652648],[120.6838113,23.0652708],[120.6839452,23.0652654],[120.6841517,23.0652265],[120.6844069,23.0651201],[120.6845896,23.0650249],[120.6847843,23.0648735],[120.6849912,23.0646717],[120.6851679,23.0645033],[120.6852836,23.064318],[120.6853754,23.0641272],[120.6854122,23.0639472],[120.6854248,23.0637787],[120.6854007,23.0637168],[120.6853643,23.0636156],[120.6852993,23.0635073],[120.6851916,23.0634853]]]}},{"type":"Feature","properties":{"ID":"1337","Debrisno":"高市DF112","County":"高雄市","Town":"六龜區","Vill":"新發里","Overflowno":"CD01","Overflow_X":"218139","Overflow_Y":"2552053","Address":"六龜區新發里新開89、100、100-1、100-2、100-3、100-5、100-6、100-7、100-10、100-11、100-12、101、101-1、101-2、101-3、101-5、101-6、101-7、102、102-1、103-1、103-2、103-3、103-5、104、105、105-1、105-2、105-3、105-5、","Total_Res":"33","Res_Class":"5戶以上","Risk":"高","Dbno_old":"高市E110-3","overflowLonLat":[120.689039,23.0698614]},"geometry":{"type":"Polygon","coordinates":[[[120.6890398,23.0698591],[120.6888175,23.0697012],[120.6886324,23.0695221],[120.6883634,23.0692127],[120.6881777,23.0689814],[120.6880136,23.0687997],[120.6878873,23.068788],[120.6874804,23.068759],[120.6871189,23.0687598],[120.6868946,23.0688525],[120.6854778,23.0681866],[120.6855237,23.0682685],[120.6855553,23.0683629],[120.6855937,23.0684078],[120.6856571,23.0684558],[120.6857155,23.06849],[120.6857487,23.0685504],[120.6857536,23.0686323],[120.6857768,23.0687406],[120.68581,23.0688056],[120.6858466,23.068886],[120.6858914,23.0689991],[120.6859698,23.0690843],[120.6860029,23.0691864],[120.686068,23.0692454],[120.6861397,23.069315],[120.6862466,23.0693323],[120.686295,23.0693555],[120.6863546,23.0694137],[120.6863569,23.0694138],[120.6863788,23.0694396],[120.6864634,23.0695237],[120.6865266,23.0696444],[120.6865966,23.0697528],[120.6866664,23.0699262],[120.6867729,23.0701119],[120.6868327,23.0702619],[120.6869359,23.070423],[120.6870659,23.0705871],[120.6872323,23.0709153],[120.6873368,23.0712],[120.6874366,23.0714414],[120.6875279,23.0716704],[120.6875877,23.071884],[120.6876307,23.0720457],[120.6876672,23.0721995],[120.6877136,23.0723791],[120.6877901,23.0724974],[120.6878934,23.0726213],[120.6890398,23.0698591]]]}},{"type":"Feature","properties":{"ID":"1338","Debrisno":"高市DF113","County":"高雄市","Town":"六龜區","Vill":"新發里","Overflowno":"CD01","Overflow_X":"218080","Overflow_Y":"2551778","Address":"六龜區新發里新開83-6、83-8、83-10、83-12、83-13(青松溫泉山莊)、84、84-1(新來發溫泉會館)、85、85-1(慈佑宮)、86(美崙山溫泉渡假山莊)、86-2(檳園溫泉山莊)、86-3、86-13、86-16、87、90(清逸軒餐廳)、90-","Total_Res":"37","Res_Class":"5戶以上","Risk":"高","Dbno_old":"高市E110-4","overflowLonLat":[120.6884689,23.0673769]},"geometry":{"type":"Polygon","coordinates":[[[120.6884713,23.0673749],[120.6857458,23.0656879],[120.6853033,23.066009],[120.6853331,23.0660446],[120.6851121,23.0661835],[120.6850867,23.0662431],[120.6850411,23.0663906],[120.6850021,23.0665132],[120.6849631,23.0666746],[120.684931,23.0668306],[120.6849071,23.066992],[120.6848866,23.0671814],[120.6848928,23.0673648],[120.6849043,23.0674884],[120.6849203,23.0675216],[120.6849659,23.0675977],[120.6850331,23.0676826],[120.6850772,23.067712],[120.6850804,23.0677175],[120.6851437,23.0677531],[120.685161,23.0677621],[120.6851783,23.0677728],[120.6851898,23.067787],[120.6851993,23.0678083],[120.6852185,23.0678333],[120.6852357,23.0678493],[120.685251,23.0678617],[120.6852682,23.0678725],[120.6852836,23.0678832],[120.6853066,23.0678974],[120.6853258,23.0679028],[120.6853489,23.0679135],[120.685368,23.067917],[120.6853853,23.067926],[120.6854055,23.06793],[120.6854372,23.0680344],[120.6854463,23.0680769],[120.6854579,23.0680986],[120.6854778,23.0681866],[120.6855237,23.0682685],[120.6855553,23.0683629],[120.6855937,23.0684078],[120.6856571,23.0684558],[120.6857155,23.06849],[120.6857487,23.0685504],[120.6857536,23.0686323],[120.6857768,23.0687406],[120.68581,23.0688056],[120.6858466,23.068886],[120.6858914,23.0689991],[120.6859698,23.0690843],[120.6860029,23.0691864],[120.686068,23.0692454],[120.6861397,23.069315],[120.6862466,23.0693323],[120.686295,23.0693555],[120.6863546,23.0694137],[120.6868946,23.0688525],[120.6884713,23.0673749]]]}},{"type":"Feature","properties":{"ID":"1343","Debrisno":"高市DF046","County":"高雄市","Town":"六龜區","Vill":"寶來里","Overflowno":"CD01","Overflow_X":"217223","Overflow_Y":"2555466","Address":"六龜區寶來里寶建路4-12、5-8、7、11、13、15、39-3號，共計7戶","Total_Res":"7","Res_Class":"5戶以上","Risk":"高","Dbno_old":"高縣DF043","overflowLonLat":[120.6800261,23.1006647]},"geometry":{"type":"Polygon","coordinates":[[[120.680023,23.1006679],[120.6804464,23.1009439],[120.6817581,23.1017084],[120.6818173,23.101675],[120.6818666,23.1016348],[120.6819277,23.1015732],[120.6819659,23.1015241],[120.6820003,23.1014625],[120.6820136,23.1014029],[120.6820328,23.101329],[120.6820558,23.1012605],[120.6821055,23.1011726],[120.6821548,23.1011111],[120.682201,23.1010532],[120.6822769,23.1009953],[120.6823837,23.1009322],[120.6824634,23.1009025],[120.6825891,23.1008816],[120.6826823,23.1008518],[120.6827852,23.1007994],[120.6828938,23.1006975],[120.6830036,23.1005872],[120.6830648,23.1004669],[120.6830933,23.100328],[120.6830793,23.1001753],[120.6830653,23.1000125],[120.6830834,23.0999163],[120.6831627,23.0997935],[120.6832382,23.0996941],[120.6832492,23.0996609],[120.6832241,23.0995978],[120.6831885,23.0995379],[120.6831239,23.0994846],[120.6830845,23.0994247],[120.683049,23.0993615],[120.6830097,23.0992553],[120.6829935,23.0991473],[120.6830224,23.099071],[120.6830729,23.0990147],[120.6831052,23.0989682],[120.6831018,23.0989226],[120.683075,23.0988832],[120.6830481,23.0988518],[120.6829799,23.0988219],[120.6829082,23.0988383],[120.6827812,23.0988906],[120.6826203,23.0989463],[120.6824216,23.0989931],[120.6821775,23.0990765],[120.681898,23.0992372],[120.6815344,23.0995462],[120.6812482,23.0997005],[120.6804234,23.1003635],[120.680023,23.1006679]]]}},{"type":"Feature","properties":{"ID":"1344","Debrisno":"高市DF047","County":"高雄市","Town":"六龜區","Vill":"寶來里","Overflowno":"CD01","Overflow_X":"218689","Overflow_Y":"2556326","Address":"無","Total_Res":"0","Res_Class":"無","Risk":"持續觀察","Dbno_old":"高縣DF044","overflowLonLat":[120.6943197,23.1084593]},"geometry":{"type":"Polygon","coordinates":[[[120.6943155,23.108462],[120.6944514,23.1085917],[120.694686,23.1085741],[120.6949424,23.1083779],[120.6951598,23.1082218],[120.69531,23.1081297],[120.6954491,23.1079855],[120.6954993,23.1078088],[120.6955539,23.1076002],[120.695563,23.1074878],[120.6957623,23.1074278],[120.6958153,23.1072996],[120.6955945,23.1070381],[120.6954599,23.1069616],[120.6952688,23.1070375],[120.6951903,23.1071418],[120.6951034,23.107258],[120.6950381,23.1073865],[120.6948793,23.1075407],[120.694729,23.1076749],[120.6945812,23.1078894],[120.6943718,23.1082703],[120.6943155,23.108462]]]}},{"type":"Feature","properties":{"ID":"1345","Debrisno":"高市DF073","County":"高雄市","Town":"六龜區","Vill":"寶來里","Overflowno":"CD01","Overflow_X":"216844","Overflow_Y":"2554850","Address":"六龜區寶來里14鄰寶建路1之3、1之5、1之6號，共計3戶","Total_Res":"3","Res_Class":"1~4戶","Risk":"高","Dbno_old":"高縣DF070","overflowLonLat":[120.6763396,23.0950944]},"geometry":{"type":"Polygon","coordinates":[[[120.6763392,23.0950988],[120.6764797,23.0951553],[120.6767641,23.0952277],[120.6770393,23.095276],[120.6774598,23.095289],[120.6776962,23.0952565],[120.6779129,23.0952539],[120.6780877,23.0952663],[120.6782732,23.0953279],[120.6785061,23.0954362],[120.6786784,23.0955172],[120.6791396,23.0956445],[120.6795815,23.0957819],[120.679962,23.0958737],[120.6800653,23.0959157],[120.6801517,23.0959153],[120.6802066,23.0958536],[120.6802929,23.0957571],[120.6803609,23.0956152],[120.6804163,23.0954677],[120.6804412,23.0953144],[120.6804786,23.0951213],[120.6804975,23.0949508],[120.680504,23.094786],[120.6805037,23.0946758],[120.6804857,23.0944542],[120.6804493,23.0942722],[120.6804005,23.0940846],[120.6803213,23.0939084],[120.6802182,23.0937694],[120.6801732,23.0937274],[120.6801067,23.0937432],[120.6799099,23.0938989],[120.6797419,23.0940769],[120.6795281,23.0942261],[120.6791626,23.0942373],[120.6789389,23.0943236],[120.678337,23.0945171],[120.6778689,23.0946581],[120.6775921,23.0947219],[120.6774546,23.0947471],[120.6773041,23.0947513],[120.6771343,23.0947135],[120.6769177,23.0946891],[120.6767235,23.0947157],[120.6765434,23.0948096],[120.6764186,23.0949575],[120.6763392,23.0950988]]]}},{"type":"Feature","properties":{"ID":"1414","Debrisno":"高市DF045","County":"高雄市","Town":"桃源區","Vill":"建山里","Overflowno":"CD01","Overflow_X":"217339","Overflow_Y":"2556105","Address":"桃源區建山里建山巷94、94-1、94-2、94-3、95、95-1 、95-2、96(建山國小)、97、97-1、97-2、98、99、100、100-1號；寶建路25、26、27、33、35號，共計20戶","Total_Res":"20","Res_Class":"5戶以上","Risk":"高","Dbno_old":"高縣DF042","overflowLonLat":[120.6811449,23.1064374]},"geometry":{"type":"Polygon","coordinates":[[[120.6847777,23.104526],[120.6847224,23.1043576],[120.6846606,23.1042494],[120.6845753,23.1041248],[120.6845368,23.1040567],[120.6845242,23.1039627],[120.6845191,23.103881],[120.6845299,23.1037794],[120.6845326,23.1036269],[120.6845162,23.1034789],[120.6844719,23.1032813],[120.6844231,23.1030953],[120.6843825,23.1029191],[120.684321,23.1027973],[120.684226,23.1026067],[120.6841623,23.1025473],[120.6841079,23.1025163],[120.6839483,23.1024893],[120.6837741,23.1024665],[120.6836298,23.1024494],[120.6835239,23.1023804],[120.6834011,23.1022903],[120.6832534,23.1022258],[120.6831289,23.1022301],[120.6829438,23.1022514],[120.6827589,23.1022755],[120.6825533,23.1022778],[120.6824271,23.1022721],[120.6822405,23.1022801],[120.6820745,23.1022649],[120.6819082,23.1022579],[120.6817272,23.1022674],[120.6816065,23.1022907],[120.6815194,23.1023333],[120.6814891,23.1023943],[120.6815037,23.1025059],[120.6816164,23.1027854],[120.6816004,23.1031203],[120.6815539,23.1037066],[120.6817123,23.1041064],[120.6815942,23.1043994],[120.6815373,23.1047981],[120.6814731,23.1049249],[120.6813725,23.1050176],[120.6812671,23.1051105],[120.6812118,23.1052244],[120.6811656,23.1054188],[120.6811335,23.105736],[120.6811203,23.1060249],[120.6811445,23.1064334],[120.6813843,23.1063457],[120.6815428,23.1062031],[120.6816218,23.1061014],[120.6816786,23.1059893],[120.6817257,23.1058814],[120.6817609,23.1058318],[120.6818146,23.1058038],[120.6819992,23.1057891],[120.6821114,23.1057742],[120.682301,23.1056947],[120.6824828,23.1056163],[120.6825769,23.1055772],[120.6826514,23.1055451],[120.6827364,23.1055144],[120.6845906,23.1046164],[120.6847777,23.104526]]]}},{"type":"Feature","properties":{"ID":"1415","Debrisno":"高市DF064","County":"高雄市","Town":"桃源區","Vill":"建山里","Overflowno":"CD01","Overflow_X":"218156","Overflow_Y":"2555849","Address":"無","Total_Res":"0","Res_Class":"無","Risk":"持續觀察","Dbno_old":"高縣DF061","overflowLonLat":[120.6891261,23.1041416]},"geometry":{"type":"Polygon","coordinates":[[[120.6894603,23.1041884],[120.6897603,23.1041516],[120.690018,23.1040033],[120.6901737,23.1037906],[120.6902867,23.1035728],[120.6903731,23.1033351],[120.6904213,23.103231],[120.69055,23.1031868],[120.6908232,23.1031873],[120.6921627,23.1032344],[120.6923772,23.1030565],[120.6926699,23.1027474],[120.6927741,23.1025173],[120.6927989,23.1022917],[120.6928078,23.1018412],[120.6927972,23.101505],[120.6927006,23.1010812],[120.6926339,23.1009261],[120.6925461,23.100757],[120.6924461,23.1005926],[120.6923334,23.1004335],[120.692209,23.1002807],[120.6920734,23.1001345],[120.691927,23.0999953],[120.6917703,23.0998641],[120.691604,23.099741],[120.6914285,23.0996267],[120.6912451,23.0995214],[120.6910538,23.0994259],[120.6908944,23.0993569],[120.690873,23.0993494],[120.6905722,23.0993585],[120.69039,23.0993928],[120.6902455,23.0994619],[120.6901861,23.0995411],[120.6901697,23.0996699],[120.6898163,23.101944],[120.6896808,23.1026423],[120.6895402,23.1033007],[120.6893933,23.1036502],[120.6892549,23.1038507],[120.6891274,23.1041427],[120.6894603,23.1041884]]]}}]}