{"type":"FeatureCollection","name":"laonong-all-potential-streams","source":"debrisstream1745_20250105_twd97_UTF8.shp filtered Sub_basin=荖濃","featureCount":10,"features":[{"type":"Feature","properties":{"ID":"1228","Debrisno":"高市DF097","County01":"高雄市","Town01":"六龜區","Vill01":"荖濃里","Name":"-","Mark":"頂荖濃","Roadname":"台20線","Potential":"","Length":"1.097","R_area":"","Basin":"高屏溪","Sub_basin":"荖濃","Full":"高雄市六龜區荖濃里","Date":"20200603","Type":"溪流型"},"geometry":{"type":"MultiLineString","coordinates":[[[120.6783574,23.0870741],[120.6783319,23.0870764],[120.6782357,23.087073],[120.6779936,23.0870679],[120.67795,23.0870695],[120.6778329,23.0870773],[120.6777979,23.0870779],[120.6777665,23.0870765],[120.6776983,23.0870714],[120.6776767,23.0870678],[120.6776579,23.0870627],[120.6776308,23.0870504],[120.677574,23.0870168],[120.677484,23.0869747],[120.6774507,23.0869571],[120.6774209,23.0869371],[120.6773557,23.086886],[120.6773225,23.0868655],[120.6772772,23.0868457],[120.677214,23.0868242],[120.6771537,23.0868071],[120.6770856,23.0867919],[120.6769622,23.0867734],[120.6768899,23.0867575],[120.6768339,23.0867411],[120.67679,23.0867243],[120.6767352,23.0866998],[120.6766712,23.0866677],[120.6766462,23.0866581],[120.67659,23.0866399],[120.6765675,23.0866309],[120.6765212,23.086608],[120.6764837,23.086585],[120.6764649,23.08657],[120.6764466,23.0865511],[120.6764283,23.0865279],[120.6763771,23.0864568],[120.676359,23.0864365],[120.6763409,23.0864203],[120.6763024,23.0863933],[120.6762588,23.0863681],[120.6762105,23.0863449],[120.6761583,23.086324],[120.6761036,23.0863073],[120.6760153,23.0862871],[120.6759221,23.0862666],[120.6758553,23.086254],[120.6757945,23.0862454],[120.6757387,23.0862409],[120.6756729,23.0862383],[120.6756301,23.0862406],[120.6755995,23.0862473],[120.6755352,23.0862695],[120.6755065,23.086277],[120.6754424,23.0862889],[120.675403,23.0862934],[120.6753681,23.0862925],[120.6753386,23.0862857],[120.675322,23.0862777],[120.6752863,23.0862534],[120.6752695,23.0862445],[120.6752435,23.0862355],[120.6752133,23.0862289],[120.6751785,23.0862245],[120.6751314,23.0862214],[120.6750948,23.0862207],[120.6750553,23.0862227],[120.6750123,23.0862273],[120.6749634,23.0862347],[120.6748881,23.0862505],[120.6748202,23.0862709],[120.6747914,23.0862832],[120.6747258,23.0863175],[120.6746916,23.0863301],[120.67467,23.086334],[120.6746197,23.0863387],[120.6745977,23.0863436],[120.6745799,23.0863508],[120.6745614,23.0863614],[120.6745047,23.086403],[120.674484,23.0864164],[120.6744187,23.0864569],[120.6743988,23.0864659],[120.6743801,23.086471],[120.674357,23.0864729],[120.6743061,23.0864709],[120.6741716,23.0864739],[120.6741253,23.0864779],[120.6740838,23.0864842]],[[120.6740838,23.0864842],[120.6740055,23.0865012],[120.6739761,23.0865102],[120.6739503,23.0865205],[120.6739307,23.0865312],[120.6738876,23.08656],[120.6738663,23.0865705],[120.6738305,23.0865802],[120.6737724,23.0865886],[120.6737284,23.0865931],[120.6736807,23.0865954],[120.6736279,23.0865952],[120.673565,23.0865927],[120.6735,23.0865876],[120.6734267,23.0865787],[120.6733507,23.0865637],[120.6733181,23.0865602],[120.6732761,23.0865625],[120.6732045,23.0865737],[120.6730612,23.0866008],[120.6730206,23.0866101],[120.672929,23.0866366],[120.6728896,23.086645],[120.6728658,23.0866477],[120.672844,23.086648],[120.6728235,23.086646],[120.6728044,23.0866415],[120.6727501,23.0866185],[120.6727323,23.0866147],[120.6727118,23.0866129],[120.6726464,23.0866137],[120.6725624,23.0866181],[120.6724926,23.0866164],[120.6724152,23.0866088],[120.6723375,23.0865969],[120.6721724,23.086567],[120.6721041,23.0865567],[120.6720687,23.0865485],[120.6720504,23.0865417],[120.6720094,23.0865229],[120.6719898,23.0865164],[120.6719708,23.0865131],[120.6719504,23.086512],[120.6719287,23.0865129],[120.6719053,23.086516]],[[120.6740838,23.0864842],[120.6740043,23.0865861],[120.6739268,23.0866895],[120.6738518,23.0867941],[120.6737789,23.0868999],[120.6737449,23.0869551],[120.6736797,23.0870746],[120.6736501,23.0871249],[120.6736151,23.087175],[120.673579,23.0872163],[120.6735554,23.087238],[120.673527,23.0872602],[120.6733997,23.0873445],[120.6733715,23.0873652],[120.6733478,23.0873852],[120.6733138,23.0874175],[120.6732803,23.0874526],[120.6732471,23.0874906],[120.6732137,23.087532],[120.6731463,23.0876252],[120.6730682,23.0877456],[120.6730172,23.0878215],[120.6729983,23.087852],[120.6729821,23.0878848],[120.6729722,23.0879148],[120.6729668,23.0879445],[120.6729643,23.0879747],[120.6729647,23.0880053],[120.6729681,23.0880364],[120.6729745,23.0880679],[120.6729839,23.0881],[120.6729962,23.0881324],[120.6730114,23.0881654]],[[120.6719053,23.086516],[120.6718549,23.0865278],[120.6717774,23.0865524],[120.6717364,23.0865683],[120.671634,23.0866162],[120.6715678,23.0866414],[120.6714956,23.0866662],[120.6714219,23.0866893],[120.671353,23.0867089],[120.671287,23.0867254],[120.6712238,23.0867388],[120.6711447,23.0867522],[120.6711221,23.0867591],[120.6710978,23.0867689]],[[120.6719053,23.086516],[120.6718796,23.0865873],[120.6718608,23.0866585],[120.6718491,23.0867295],[120.6718442,23.0868002],[120.671845,23.08683],[120.6718484,23.0868611],[120.6718547,23.0868936],[120.6718636,23.0869283],[120.6718852,23.0869927],[120.6719464,23.0871511],[120.6719606,23.0871951],[120.6719706,23.087235],[120.6719937,23.0873589],[120.6720177,23.0875224],[120.6720395,23.0876763],[120.6720493,23.0877575],[120.6720553,23.0878354],[120.6720566,23.0879056],[120.6720575,23.0880183],[120.672055,23.0880712],[120.6720468,23.0881213],[120.6720402,23.0881433],[120.672032,23.0881634],[120.672011,23.0881993],[120.6719808,23.0882368],[120.6719436,23.0882746],[120.6718724,23.0883398],[120.6718309,23.0883769],[120.6717879,23.0884126],[120.6717431,23.0884467],[120.6716968,23.0884794]],[[120.6710978,23.0867689],[120.6710096,23.0868136],[120.6709717,23.0868295],[120.6709344,23.0868402],[120.6708427,23.0868599],[120.6708192,23.0868669],[120.6707987,23.0868749],[120.6707701,23.0868906],[120.6707028,23.0869383],[120.6706702,23.0869569],[120.6706491,23.0869653],[120.670625,23.0869728],[120.6705316,23.0869941],[120.6704939,23.0870052],[120.6704459,23.0870246],[120.6703291,23.087078],[120.6702464,23.0871119],[120.6701907,23.0871325],[120.6700921,23.0871632],[120.6700511,23.0871734],[120.6700128,23.0871808],[120.6699658,23.0871874],[120.6699183,23.0871916],[120.6698702,23.0871933],[120.6698218,23.0871926]],[[120.6710978,23.0867689],[120.6708241,23.0871516],[120.6705447,23.0874751],[120.6703288,23.0878283],[120.670153,23.0881005],[120.6699691,23.0883874],[120.6698333,23.0885787]],[[120.6783574,23.0870741],[120.6782856,23.0871177],[120.6782125,23.0871586],[120.6781379,23.087197],[120.678062,23.0872328],[120.6779386,23.0872883],[120.6778602,23.0873196],[120.6777868,23.087343],[120.6777525,23.0873512],[120.6777192,23.0873574],[120.6776863,23.0873609],[120.6776495,23.087362],[120.6774929,23.0873546],[120.6774567,23.0873546],[120.6774246,23.0873568],[120.6773805,23.0873633],[120.6773329,23.0873743],[120.6772781,23.0873904],[120.6771629,23.0874293],[120.6771126,23.0874449],[120.677059,23.0874583],[120.6770103,23.0874664],[120.6769157,23.0874763],[120.6768412,23.0874804],[120.676775,23.0874794],[120.6767157,23.0874732],[120.6766503,23.0874591],[120.6765812,23.0874374],[120.6765081,23.0874076],[120.6764293,23.0873695],[120.6764115,23.087359],[120.6763925,23.0873452],[120.676326,23.0872877],[120.6762983,23.0872669],[120.6762828,23.0872576],[120.6762678,23.0872508],[120.6762531,23.0872462],[120.6762385,23.0872438],[120.67621,23.0872435],[120.676178,23.0872472],[120.6761442,23.0872547],[120.676111,23.0872657],[120.6760833,23.0872795],[120.6760548,23.0873],[120.6760323,23.08732],[120.6759594,23.0873906],[120.6758378,23.0874952],[120.6757519,23.0875743],[120.6756942,23.0876342],[120.6755705,23.0877733],[120.6755125,23.0878318],[120.6754515,23.0878835],[120.6753082,23.087993],[120.6752492,23.0880448],[120.6752071,23.088087],[120.6751665,23.0881304],[120.6751274,23.0881752],[120.6750896,23.0882213]],[[120.6698218,23.0871926],[120.6697026,23.0871611],[120.6695859,23.0871248],[120.6694715,23.0870838],[120.6693593,23.087038],[120.6693156,23.0870178],[120.6692678,23.0869931],[120.6690738,23.0868844],[120.6689936,23.0868458],[120.66895,23.0868287],[120.6689003,23.0868121],[120.6687344,23.0867655],[120.6686753,23.0867473],[120.66862,23.086727],[120.6685718,23.086705],[120.668514,23.0866738],[120.6684577,23.08664],[120.6684027,23.0866035],[120.6683492,23.0865644]],[[120.6698218,23.0871926],[120.6697482,23.087196],[120.669677,23.0872045],[120.6696083,23.0872183],[120.669542,23.0872374]],[[120.669542,23.0872374],[120.6690163,23.0873247],[120.6686022,23.0873385],[120.6683871,23.0873601]],[[120.669542,23.0872374],[120.6694957,23.0872549],[120.6694489,23.0872768],[120.6694018,23.0873032],[120.6693542,23.0873339],[120.6693063,23.0873691],[120.6692579,23.0874087],[120.669209,23.0874528],[120.6691592,23.0875017],[120.6691203,23.0875469],[120.6690427,23.0876529],[120.6690074,23.087693],[120.6689703,23.0877284],[120.6689313,23.0877623],[120.6688905,23.0877945],[120.6688479,23.0878252]]]}},{"type":"Feature","properties":{"ID":"1229","Debrisno":"高市DF055","County01":"高雄市","Town01":"六龜區","Vill01":"新發里","Name":"-","Mark":"紅水仙橋","Roadname":"高133線","Potential":"","Length":"0.552","R_area":"","Basin":"高屏溪","Sub_basin":"荖濃","Full":"高雄市六龜區新發里","Date":"20210713","Type":"溪流型"},"geometry":{"type":"LineString","coordinates":[[120.6944497,23.0757377],[120.6946187,23.0757549],[120.6947395,23.0757964],[120.6948987,23.0758527],[120.6950833,23.0759326],[120.69529,23.0760096],[120.6955573,23.0761221],[120.6958534,23.0761787],[120.6961687,23.0762146],[120.6964479,23.076218],[120.696869,23.0763603],[120.6970489,23.0764353],[120.6973531,23.0763967],[120.6976715,23.0764179],[120.6980185,23.0764952],[120.6987363,23.0765358],[120.6990376,23.0765738],[120.6992668,23.0766067],[120.6994952,23.0766885],[120.699655,23.0767635]]}},{"type":"Feature","properties":{"ID":"1230","Debrisno":"高市DF077","County01":"高雄市","Town01":"六龜區","Vill01":"新發里","Name":"不老溪","Mark":"新開橋","Roadname":"高133線","Potential":"","Length":"4.114","R_area":"","Basin":"高屏溪","Sub_basin":"荖濃","Full":"高雄市六龜區新發里","Date":"20240911","Type":"溪流型"},"geometry":{"type":"MultiLineString","coordinates":[[[120.7016745,23.0623423],[120.7016084,23.0625217],[120.7014768,23.0625881],[120.7013548,23.0625704],[120.7012203,23.0625384],[120.7010578,23.062457],[120.7009517,23.062338],[120.7009458,23.0621614],[120.7008584,23.0620338],[120.7007397,23.0619815],[120.7004986,23.0620563],[120.7002424,23.0620155],[120.7000169,23.0619627],[120.6997799,23.0618986],[120.6994332,23.0617776],[120.6992164,23.0616925],[120.6987733,23.0615221],[120.6984601,23.0614395],[120.6982503,23.0613435],[120.6980639,23.0612723],[120.6978508,23.0612102],[120.6976409,23.0612006],[120.6974143,23.0612063],[120.6972544,23.0612213],[120.6970944,23.0612395],[120.6968677,23.0612946],[120.6967711,23.0613222],[120.6966244,23.061362],[120.6963744,23.0614016],[120.6961044,23.0614813],[120.6958641,23.0616596],[120.6956034,23.0619766],[120.6954399,23.0621274],[120.6953063,23.062232],[120.6952327,23.0623891],[120.69508,23.062519],[120.6948823,23.0626166],[120.6946724,23.0626223],[120.6945325,23.0625974],[120.6944126,23.0625817],[120.6942259,23.0626029],[120.6941014,23.0625809],[120.6940518,23.0625696],[120.6940022,23.0625584],[120.6938246,23.0625406],[120.6936446,23.0625772],[120.693571,23.0626572],[120.6935441,23.0627989],[120.6935884,23.0629706],[120.6934434,23.0631132],[120.6932968,23.0631314],[120.693177,23.0630634],[120.6930241,23.0629089],[120.6928273,23.0627685],[120.6927359,23.0626612],[120.6926494,23.0625362],[120.692512,23.0624702],[120.6922256,23.0624265],[120.6920189,23.0624445],[120.6919188,23.0625306],[120.6917853,23.0626106],[120.6915453,23.0626594],[120.6912183,23.0628437],[120.6908748,23.0629386],[120.6906432,23.0629961],[120.6901899,23.0630755],[120.689851,23.0631541],[120.6894277,23.0633239],[120.6891722,23.0633501],[120.6890286,23.0634109],[120.6889165,23.0634879],[120.6887474,23.0636302],[120.6885736,23.063728],[120.6884242,23.0637545],[120.6882844,23.0637542],[120.6881831,23.0637496],[120.688029,23.0637002],[120.6878125,23.0635704],[120.6876228,23.0633652],[120.687442,23.0631366],[120.6873922,23.0630795],[120.6872665,23.0629253],[120.6870805,23.0626537],[120.6869608,23.0625579],[120.6868642,23.0625207],[120.6867477,23.0624712],[120.6866113,23.0624493],[120.6864913,23.0624645],[120.6864277,23.0625168],[120.6864006,23.062711],[120.6864268,23.062933],[120.6863796,23.0631857],[120.686276,23.063315],[120.686136,23.0633425],[120.6859394,23.0633544],[120.6857661,23.0633788],[120.6856326,23.0634586],[120.6854793,23.0634676],[120.6853993,23.0634705],[120.6852993,23.0635073]],[[120.7066007,23.0662335],[120.7064713,23.0659032],[120.7063611,23.0656041],[120.7062564,23.0654223],[120.7060909,23.0652984],[120.7058944,23.065202],[120.7056191,23.0650633],[120.70541,23.0650066],[120.7050427,23.0647843],[120.7047835,23.0645341],[120.7042139,23.0642333],[120.7040084,23.064133],[120.7039081,23.0640027],[120.7038521,23.0638463],[120.7036379,23.0637702],[120.7030716,23.0635318],[120.7026602,23.063428],[120.702295,23.0633164],[120.7020825,23.0631885],[120.701939,23.0629914],[120.7017912,23.0627332],[120.7016084,23.0625217]],[[120.708562,23.0596347],[120.708499,23.0595657],[120.70844,23.0595594],[120.708369,23.0595999],[120.7083149,23.0596591],[120.7082507,23.059695],[120.7081916,23.0597167],[120.7081258,23.0597228],[120.7080347,23.0597586],[120.7079501,23.0598411],[120.7078809,23.0598785],[120.707761,23.0599141],[120.7076327,23.0599608],[120.7075163,23.0599698],[120.7074117,23.05994],[120.7073021,23.0599414],[120.707125,23.0599192],[120.706985,23.0598971],[120.7069007,23.0599016],[120.7068314,23.0599249],[120.7067993,23.0599904],[120.7067331,23.0601042],[120.7066655,23.0602149],[120.7066113,23.0602866],[120.7065572,23.0603755],[120.7065215,23.0604863],[120.7064891,23.0606127],[120.7064468,23.0607094],[120.7063588,23.0608013],[120.7062693,23.0608558],[120.706141,23.0608789],[120.7060331,23.0608647],[120.7059538,23.0608677],[120.7058847,23.0608769],[120.7058154,23.0608846],[120.7057666,23.0608782],[120.7057057,23.0608875],[120.7055811,23.0609192],[120.7054744,23.0609901],[120.7053649,23.0610665],[120.7052647,23.061078],[120.7051617,23.0610314],[120.7050773,23.060956],[120.704971,23.0608747],[120.7049085,23.0608341],[120.7048241,23.060805],[120.7046644,23.0608654],[120.7045171,23.0609491],[120.7043763,23.0610039],[120.7042886,23.0609689],[120.7041794,23.0608877],[120.7040655,23.0606964],[120.7040397,23.0605738],[120.7038909,23.060447],[120.7037845,23.0604526],[120.7036687,23.0604987],[120.7035697,23.0605107],[120.7034711,23.0605525],[120.7033462,23.0606162],[120.7031012,23.0607765],[120.702966,23.0608668],[120.7027665,23.0609082],[120.7025912,23.060934],[120.7023659,23.0609828],[120.7022061,23.0610635],[120.7019783,23.0612271],[120.7017975,23.061347],[120.7017328,23.0614332],[120.7016763,23.0615489],[120.701626,23.0616299],[120.7016069,23.0617487],[120.7017069,23.0619275],[120.701719,23.0619921],[120.7017408,23.0620905],[120.7017185,23.0622207],[120.7016745,23.0623423]],[[120.7113419,23.0582753],[120.7109434,23.0583901],[120.7106564,23.0585019],[120.710491,23.058601],[120.710278,23.0587854],[120.710173,23.058932],[120.710024,23.0591409],[120.7098617,23.0593716],[120.7097703,23.0595212],[120.7095506,23.0596582],[120.7092806,23.0597483],[120.7091082,23.059823],[120.7089766,23.0598601],[120.7088686,23.0598506],[120.7087339,23.059791],[120.708562,23.0596347]],[[120.7123711,23.0557793],[120.7122898,23.0559854],[120.7121476,23.0562286],[120.7119986,23.0564531],[120.7117687,23.0566525],[120.7116603,23.0568584],[120.7115585,23.0571455],[120.7115174,23.0574139],[120.7115216,23.0576421],[120.7115219,23.0576535],[120.7114965,23.0577823],[120.7114515,23.0579009],[120.7113792,23.0581692],[120.7113419,23.0582753]],[[120.7168751,23.0560654],[120.7168336,23.0561805],[120.7167557,23.0563362],[120.7166491,23.0566356],[120.7164241,23.0570169],[120.7162616,23.0572851],[120.7161193,23.0575345],[120.7160379,23.0577406],[120.715928,23.0579027],[120.7157962,23.0579587],[120.7156443,23.0579927],[120.7154857,23.058005],[120.7152898,23.0580826],[120.7150502,23.0581353],[120.7148815,23.0581569],[120.7147161,23.0581721],[120.7145575,23.0581781],[120.7143383,23.0581403],[120.7141628,23.0581462],[120.7139739,23.0581583],[120.7137915,23.0582017],[120.7135756,23.0582169],[120.7133192,23.0581759],[120.7131338,23.0581381],[120.7129482,23.058147],[120.712783,23.0581218],[120.712476,23.0580994],[120.7122295,23.0581114],[120.7120642,23.0581424],[120.7118582,23.0582013],[120.7116118,23.0582695],[120.7113419,23.0582753]]]}},{"type":"Feature","properties":{"ID":"1242","Debrisno":"高市DF112","County01":"高雄市","Town01":"六龜區","Vill01":"新發里","Name":"-","Mark":"玄徽草堂","Roadname":"高133線","Potential":"","Length":"0.422","R_area":"","Basin":"高屏溪","Sub_basin":"荖濃","Full":"高雄市六龜區新發里","Date":"20210924","Type":"溪流型"},"geometry":{"type":"LineString","coordinates":[[120.6890398,23.0698591],[120.6890897,23.0698101],[120.6891915,23.0697405],[120.689328,23.0696736],[120.6894441,23.0696228],[120.6895545,23.0696016],[120.6896649,23.0695777],[120.6897896,23.069535],[120.6898739,23.0694869],[120.6900452,23.0694415],[120.6901699,23.0694176],[120.6903006,23.0693856],[120.6903963,23.0693643],[120.6904936,23.0693386],[120.6906809,23.0692978],[120.6908086,23.069239],[120.6908929,23.0691936],[120.6910033,23.0691213],[120.6910933,23.0690973],[120.6912442,23.0690734],[120.6913777,23.0690629],[120.6914939,23.0690256],[120.6915694,23.0689989],[120.6916623,23.0689696],[120.6917812,23.0689644],[120.6919379,23.0689513],[120.6920425,23.0689112],[120.6921528,23.0688603],[120.6922369,23.0688793],[120.6923472,23.0689064],[120.6924283,23.0689254],[120.6925356,23.068939],[120.6926372,23.0689419],[120.6927533,23.0689234],[120.692913,23.0688699]]}},{"type":"Feature","properties":{"ID":"1243","Debrisno":"高市DF113","County01":"高雄市","Town01":"六龜區","Vill01":"新發里","Name":"-","Mark":"檳園渡假山莊","Roadname":"高133線","Potential":"","Length":"0.310","R_area":"","Basin":"高屏溪","Sub_basin":"荖濃","Full":"高雄市六龜區新發里","Date":"20210924","Type":"溪流型"},"geometry":{"type":"LineString","coordinates":[[120.6884713,23.0673749],[120.6885847,23.0673554],[120.688756,23.067345],[120.6888982,23.0673345],[120.6890085,23.0672838],[120.6890579,23.0672617],[120.6891247,23.0672303],[120.6892118,23.0672332],[120.689319,23.0672226],[120.6893915,23.0672469],[120.6894641,23.0672497],[120.6895831,23.0672258],[120.6897051,23.0672073],[120.6898037,23.0671753],[120.689882,23.0671512],[120.6899953,23.0671246],[120.6900795,23.0671113],[120.6901869,23.067082],[120.6902565,23.0670688],[120.6903668,23.0670582],[120.6904423,23.0670584],[120.6905759,23.0670183],[120.690695,23.0669622],[120.6907995,23.0668818],[120.6909419,23.0668015],[120.6910348,23.0667347],[120.6911046,23.0666838],[120.6911743,23.0666491],[120.6912469,23.066617],[120.6912906,23.066593]]}},{"type":"Feature","properties":{"ID":"1247","Debrisno":"高市DF046","County01":"高雄市","Town01":"六龜區","Vill01":"寶來里","Name":"-","Mark":"五龍宮","Roadname":"台20線","Potential":"","Length":"0.438","R_area":"","Basin":"高屏溪","Sub_basin":"荖濃","Full":"高雄市六龜區寶來里","Date":"20210810","Type":"溪流型"},"geometry":{"type":"MultiLineString","coordinates":[[[120.6800231,23.1006678],[120.6799896,23.100685],[120.6799018,23.1007384],[120.6798604,23.1007629],[120.6798285,23.1008],[120.6797827,23.1008707],[120.6796965,23.1009766],[120.6796091,23.1010824],[120.6795453,23.1011569],[120.6794648,23.1012691],[120.6794282,23.1013138],[120.6793584,23.1014339],[120.6793024,23.1014981],[120.6791843,23.1016441],[120.6791046,23.1016961],[120.6790036,23.101738],[120.6788772,23.1017742],[120.6787965,23.1017936],[120.6786755,23.1017934],[120.6785556,23.1017823],[120.6784387,23.1018547],[120.6783142,23.1019242],[120.6781957,23.1019608],[120.6780869,23.1019807],[120.6779608,23.1019881],[120.6778225,23.1020078],[120.677671,23.1020199],[120.6775693,23.1020304],[120.6774128,23.1020655],[120.677301,23.1020945],[120.6771844,23.1021436],[120.6770419,23.1022025],[120.6769843,23.1022464],[120.6769122,23.1023082],[120.6768491,23.1023432],[120.6767642,23.1023677],[120.6766974,23.1024153],[120.6766207,23.1024536],[120.6764958,23.1024919]],[[120.6784601,23.1004035],[120.6786883,23.1004418],[120.678906,23.1004926],[120.6791605,23.100504],[120.6794238,23.1005125],[120.6794938,23.1005008],[120.6795596,23.1004793],[120.6796244,23.1004677],[120.6796998,23.1004659],[120.6797613,23.1004817],[120.6798907,23.1005467],[120.6799797,23.1006216],[120.6800231,23.1006678]],[[120.6785556,23.1017823],[120.678457,23.1017183],[120.6783806,23.1016809],[120.6782614,23.1016359],[120.6781482,23.1016172],[120.6780217,23.1016262],[120.6779225,23.1016144],[120.677806,23.1016048],[120.6775657,23.1015574],[120.6773766,23.1015116],[120.67726,23.101499]]]}},{"type":"Feature","properties":{"ID":"1248","Debrisno":"高市DF047","County01":"高雄市","Town01":"六龜區","Vill01":"寶來里","Name":"-","Mark":"寶來一橋","Roadname":"台20線","Potential":"","Length":"2.965","R_area":"","Basin":"高屏溪","Sub_basin":"荖濃","Full":"高雄市六龜區寶來里","Date":"20210810","Type":"溪流型"},"geometry":{"type":"MultiLineString","coordinates":[[[120.6943154,23.1084619],[120.6939625,23.1085177],[120.6937016,23.108508],[120.69346,23.1086045],[120.6932964,23.1087825],[120.6931113,23.108933],[120.6930557,23.1090828],[120.6929565,23.1092327],[120.6927742,23.1093933],[120.6924336,23.109612],[120.6917922,23.1100167],[120.6915737,23.1104406],[120.6914267,23.1106138],[120.6912565,23.1106797],[120.6904609,23.1108065],[120.6899078,23.1109494],[120.6894959,23.1112486],[120.6893461,23.1117999],[120.6895726,23.1122912],[120.6899073,23.1128734],[120.6901474,23.113364],[120.6903126,23.113752],[120.6903475,23.1140155],[120.6902285,23.1141799],[120.6900657,23.1144831],[120.6900215,23.1147976],[120.6898078,23.1150829],[120.6896448,23.115276],[120.6893477,23.1154803],[120.6890187,23.1158198],[120.6886141,23.1163201],[120.6879225,23.1165475],[120.687624,23.1169765],[120.6874566,23.1175615],[120.6875186,23.1181029],[120.6873436,23.1185781],[120.6869942,23.1193602],[120.6870015,23.1200316],[120.6867015,23.1203056],[120.6859508,23.1205296],[120.685375,23.1206768],[120.6851598,23.1208748],[120.6852342,23.121459],[120.6846518,23.1221117],[120.6842591,23.1226599],[120.683879,23.1232197],[120.683684,23.1242023],[120.6833961,23.1248783],[120.6833319,23.1251136],[120.6830453,23.1252895],[120.6827902,23.1255243],[120.6825663,23.1260534],[120.6823746,23.1264059],[120.6819926,23.1266111],[120.6814513,23.1268159],[120.6802079,23.1280784]],[[120.6870015,23.1200316],[120.6869533,23.1206331],[120.6870281,23.121077],[120.6871413,23.1212641],[120.6867615,23.1217306],[120.6866341,23.1221857],[120.6867717,23.1227233],[120.6868966,23.1233192],[120.6868455,23.1236111],[120.6871601,23.1240671],[120.6871465,23.1244641],[120.6867018,23.1257129],[120.6862957,23.1265296],[120.6857382,23.1273343]]]}},{"type":"Feature","properties":{"ID":"1249","Debrisno":"高市DF073","County01":"高雄市","Town01":"六龜區","Vill01":"寶來里","Name":"打鐵坑溪","Mark":"建山一橋","Roadname":"台20線","Potential":"","Length":"2.929","R_area":"","Basin":"高屏溪","Sub_basin":"荖濃","Full":"高雄市六龜區寶來里","Date":"20240815","Type":"溪流型"},"geometry":{"type":"MultiLineString","coordinates":[[[120.6663405,23.1017932],[120.6663583,23.1018728],[120.6663758,23.1020122],[120.666397,23.1021416],[120.6663788,23.1022643],[120.6662169,23.1024497],[120.6660874,23.1026618],[120.6659866,23.1027877],[120.6659218,23.102897],[120.6658963,23.103023],[120.6658385,23.1031788],[120.6657698,23.1034108],[120.6656785,23.1036212],[120.6655858,23.1037405],[120.6655598,23.1038372],[120.6655311,23.1039521],[120.6655125,23.1040579],[120.6654639,23.1041657],[120.6653965,23.1042594],[120.6653371,23.104382],[120.6652937,23.1044948],[120.6652576,23.1045875],[120.6652144,23.1046969],[120.665196,23.1048495],[120.6651813,23.1050037],[120.665199,23.1051099],[120.6652256,23.1051863],[120.6653044,23.1052909],[120.6653591,23.1053983],[120.6653256,23.1054676],[120.6652727,23.1055142],[120.6652036,23.1055573],[120.6650978,23.1055821],[120.6650128,23.1055853],[120.6649313,23.1055543],[120.6648419,23.1055633],[120.6647865,23.1056121],[120.6647283,23.1057064],[120.6647078,23.1057613],[120.6646776,23.1058418],[120.6646774,23.1059373],[120.6647041,23.1060694],[120.6647364,23.1061365],[120.6647297,23.1061708],[120.6646999,23.1061962],[120.6646323,23.1062536],[120.664605,23.1062946],[120.6645976,23.1063492],[120.6645778,23.1063811],[120.6645225,23.1064093],[120.6644757,23.1064445],[120.6644219,23.1064676],[120.6643448,23.1064807],[120.6642909,23.1065006],[120.6642334,23.1065469],[120.6641598,23.1066131],[120.6640861,23.1066909],[120.6639836,23.1067652],[120.6638578,23.106833],[120.6637195,23.1069007],[120.6635777,23.1070099],[120.6634573,23.1070909],[120.6633178,23.1072],[120.6631434,23.1073158],[120.6629858,23.107462],[120.6629338,23.1075225],[120.6628966,23.1075957],[120.662891,23.107677],[120.6628997,23.1077632],[120.6629209,23.1078827],[120.6628864,23.1079269],[120.6628328,23.1079953],[120.662752,23.1080266],[120.6626764,23.1081377],[120.6626277,23.1082819],[120.6626185,23.1083483],[120.6626559,23.1084578],[120.6626593,23.1085308],[120.6626412,23.108602],[120.6625766,23.1086384],[120.6625154,23.1087162],[120.6624022,23.1088138],[120.6622962,23.1088882],[120.6622008,23.1090307],[120.6621827,23.1091087],[120.662161,23.1091866],[120.6621894,23.1093126],[120.6621422,23.1095099],[120.662079,23.1096103],[120.6620037,23.109712],[120.6619784,23.10977],[120.6619746,23.1098413],[120.6620066,23.1100007],[120.6620099,23.1100803],[120.6619917,23.1101516],[120.6619485,23.1102476],[120.6618766,23.1103172],[120.6618226,23.1103901],[120.6617472,23.1104281],[120.6616898,23.1104661],[120.6616072,23.1104958],[120.6615264,23.1105453],[120.6614922,23.1105685],[120.6614812,23.1106149],[120.6614452,23.1106995],[120.6614361,23.110774],[120.6614249,23.1109101],[120.6614176,23.1109964],[120.6613635,23.1111123],[120.6613238,23.1112417],[120.661318,23.1113677],[120.6612998,23.1114406],[120.6612711,23.1114903],[120.661249,23.1115942],[120.6612203,23.1117291],[120.6611589,23.1118899],[120.6611174,23.1119694],[120.6610868,23.1120523],[120.6609934,23.1120903],[120.6608838,23.1121381],[120.6606916,23.112282]],[[120.6579052,23.1041519],[120.6578338,23.1041427],[120.6577157,23.1041515],[120.657536,23.1041716],[120.657418,23.1041509],[120.6573049,23.1041392],[120.6570857,23.1041638],[120.6568766,23.1041725]],[[120.661103,23.1002269],[120.6610239,23.1002192],[120.6609097,23.1002119],[120.6608337,23.100173],[120.6606701,23.1001322],[120.6605218,23.1001265],[120.6604648,23.100123],[120.6603772,23.1001087],[120.6602328,23.1000714],[120.6600844,23.1000588],[120.6599379,23.1000356],[120.659839,23.1000442],[120.6596184,23.1000225],[120.6594157,23.1000089],[120.6591608,23.1000013],[120.6590886,23.099966],[120.6590203,23.0998708],[120.6589481,23.0998144],[120.6588911,23.0997931],[120.6588187,23.0998141],[120.6586854,23.0998525],[120.6584798,23.0999013],[120.6583923,23.0999258],[120.6581867,23.0999606],[120.657983,23.0999604],[120.6579055,23.0999556],[120.6578529,23.0999561],[120.657797,23.0999483],[120.6577723,23.0999485],[120.6576513,23.0999356],[120.6576327,23.0999358],[120.6573846,23.0999071],[120.6572148,23.0998616],[120.6570817,23.0997945],[120.6568992,23.0997588],[120.6567879,23.099796],[120.6565609,23.0997535],[120.6562029,23.0997327],[120.6559366,23.0997074],[120.6558229,23.0996773],[120.6557085,23.0996471],[120.6554919,23.0995199],[120.6553931,23.0994598],[120.6551117,23.0993712],[120.6548684,23.0992686],[120.6546896,23.099247],[120.6544823,23.0992191],[120.6543855,23.0991655],[120.6543285,23.099109],[120.6542524,23.0990877],[120.6541611,23.0991016],[120.6540182,23.0991385]],[[120.6607725,23.0988036],[120.6608026,23.0989127],[120.6608594,23.0990254],[120.66092,23.0991171],[120.6609732,23.0991841],[120.6610338,23.0992864],[120.6610696,23.099353],[120.6611095,23.0994273],[120.6611322,23.0994871],[120.6611435,23.0995646],[120.6611468,23.0997372],[120.6611428,23.0998252],[120.6611375,23.0999284],[120.6611258,23.0999973],[120.661126,23.100026],[120.6611141,23.1000834],[120.6611144,23.1001178],[120.6611092,23.1002211],[120.661103,23.1002269]],[[120.6626583,23.1020146],[120.6625446,23.1017356],[120.6624655,23.1015098],[120.6623455,23.101264],[120.6622775,23.1011661],[120.6621836,23.1009411],[120.6620306,23.1006852],[120.6619552,23.1005908],[120.6618734,23.1005208],[120.6616916,23.1004249],[120.6614764,23.1004132],[120.6613335,23.1003799],[120.661178,23.1003066],[120.661103,23.1002269]],[[120.6626583,23.1020146],[120.6624404,23.1020654],[120.6621794,23.1021377],[120.6618937,23.1022691],[120.6616578,23.1024262],[120.6614074,23.1026499],[120.6610581,23.1029853],[120.6607057,23.103086],[120.6602278,23.1032396],[120.6600726,23.103303],[120.6599521,23.1033437],[120.6598929,23.1033937],[120.6598484,23.1034711],[120.6597012,23.1036198],[120.6595623,23.103698],[120.6593581,23.1037454],[120.6591439,23.1037518],[120.6590184,23.1037128],[120.6588758,23.1037329],[120.6587182,23.1037667],[120.6586679,23.103795],[120.6585852,23.1038416],[120.6584201,23.103905],[120.6583092,23.1039411],[120.6581665,23.1039636],[120.6581048,23.1040022],[120.6580112,23.104077],[120.6579052,23.1041519]],[[120.6663405,23.1017932],[120.6661958,23.1018685],[120.6660493,23.1019171],[120.6658204,23.1019576],[120.6656652,23.1020028],[120.6653921,23.1020249],[120.6652149,23.1020337],[120.6650205,23.1020196],[120.6648804,23.1019858],[120.6646639,23.1019415],[120.6644708,23.101915],[120.6642956,23.101888],[120.6641405,23.1018662],[120.6640411,23.1018384],[120.6640225,23.1018328],[120.6638486,23.1017882],[120.6637742,23.1017716],[120.6637059,23.1017607],[120.6636997,23.1017665],[120.6636936,23.1017608],[120.6635849,23.1017931],[120.6634635,23.1018116],[120.6633622,23.1018363],[120.6632135,23.1018922],[120.663038,23.1019355],[120.6628422,23.1019913],[120.6626583,23.1020146]],[[120.6579052,23.1041519],[120.6577571,23.1043155],[120.6576906,23.10437],[120.6576436,23.1044428],[120.6575967,23.1045064],[120.6575818,23.104586],[120.6575544,23.1046634],[120.6574238,23.1047678],[120.6573253,23.104829],[120.657202,23.1049061],[120.6570614,23.1050447],[120.6569924,23.1050945],[120.6569185,23.1051309],[120.6567566,23.1052449]],[[120.6705739,23.1000465],[120.6702884,23.1001302],[120.6699317,23.1001835],[120.6697837,23.1002178],[120.6695122,23.1003419],[120.6691428,23.1004679],[120.6685448,23.1006215],[120.6678558,23.100796],[120.6675577,23.100912],[120.6671684,23.1010977],[120.6668726,23.1012369],[120.6665277,23.1014783],[120.6664055,23.1015976],[120.6663405,23.1017932]],[[120.6705739,23.1000465],[120.6705885,23.1001717],[120.6705364,23.1003014],[120.6704205,23.1004104],[120.6703637,23.100499],[120.6703315,23.1006014],[120.6702721,23.1007561],[120.6702078,23.1008834],[120.6700919,23.1009878],[120.6699121,23.1010854],[120.6698455,23.1011193],[120.6697863,23.1011693],[120.6697283,23.1012636],[120.6696578,23.1013829],[120.6696259,23.1014416],[120.6695861,23.1015148],[120.6695392,23.10164],[120.6695241,23.1017378],[120.6694448,23.1019516],[120.6693976,23.1021404],[120.6693974,23.1022314],[120.6694117,23.1024045],[120.6694141,23.1024818],[120.6694506,23.1025867],[120.6695634,23.1027872],[120.6695583,23.1028669],[120.669536,23.1029282],[120.669543,23.1030398],[120.6695759,23.1031157],[120.6695983,23.1032859],[120.6696135,23.1034019],[120.669638,23.1034954],[120.6696672,23.1036114],[120.6696572,23.103666],[120.6695856,23.1037614],[120.6694952,23.1038599],[120.6694523,23.1039409],[120.6693841,23.1040932],[120.6693761,23.1041426],[120.6693655,23.1042093],[120.6692841,23.104307],[120.6691625,23.1043846],[120.66902,23.1046033]],[[120.6719881,23.0980781],[120.6719432,23.0981123],[120.6718698,23.0981683],[120.6717175,23.0982985],[120.6716459,23.098403],[120.6716024,23.0985391],[120.6716329,23.0987012],[120.6715931,23.098815],[120.6715217,23.0988808],[120.6714356,23.0988943],[120.6713351,23.098882],[120.6712189,23.0989189],[120.6711451,23.0989733],[120.6710906,23.0990552],[120.6709946,23.0991301],[120.6709203,23.0993348],[120.6708905,23.0994143],[120.6708257,23.0994815],[120.6707429,23.0995673],[120.6707075,23.0996022],[120.6706562,23.0996529],[120.6706278,23.0997543],[120.6705917,23.099828],[120.6706063,23.0999191],[120.6706135,23.099992],[120.6705739,23.1000465]],[[120.6719881,23.0980781],[120.6720156,23.0981648],[120.6720177,23.0982718],[120.672015,23.0984015],[120.6719976,23.0984903],[120.6719407,23.0985812],[120.6719184,23.098638],[120.6719257,23.0986972],[120.6719624,23.0987474],[120.6719697,23.0987907],[120.6719892,23.0988772],[120.6720063,23.0989205],[120.6720283,23.0989866],[120.6719741,23.0990365],[120.6719519,23.0990707],[120.6719197,23.0991138],[120.6718975,23.0991638],[120.6718646,23.0992062],[120.6717839,23.0993525],[120.6717025,23.0994206],[120.6716752,23.0994683],[120.671685,23.0995252],[120.6717463,23.0995936],[120.6717649,23.0996755],[120.6717852,23.099801],[120.6718854,23.1000811],[120.6719515,23.1002224],[120.6719815,23.1002872],[120.6720127,23.1003546],[120.6720248,23.1004136],[120.6720148,23.1004797],[120.6719801,23.1005958],[120.6719775,23.1006891],[120.6719477,23.1007641],[120.6718984,23.1008209],[120.6718735,23.1008938],[120.6718831,23.1010053],[120.6718929,23.1010804],[120.6718729,23.1011555],[120.671794,23.1012258],[120.6717102,23.1013099],[120.6716434,23.1014281],[120.6716297,23.1014928],[120.6716119,23.1015758],[120.671606,23.1016944],[120.671623,23.1017536],[120.6716376,23.1018037],[120.6716652,23.101857],[120.6716865,23.1019245],[120.6717504,23.1020042],[120.6717797,23.1020703],[120.6718164,23.1021432],[120.6718184,23.102201],[120.671794,23.1022637],[120.6716929,23.1023591],[120.6715794,23.1024727],[120.6714955,23.1025409],[120.6714043,23.1025862],[120.6712909,23.1027066],[120.6712514,23.102777],[120.6712545,23.1028548],[120.6712608,23.1029683],[120.6712802,23.1030935],[120.6713461,23.1032826]],[[120.6753947,23.0949749],[120.6751671,23.0949199],[120.6749935,23.0948587],[120.6748265,23.0948127],[120.6747238,23.0947754],[120.6745147,23.0947266],[120.6743923,23.094694],[120.6743243,23.0946943],[120.6742623,23.0947003],[120.6741132,23.0947555],[120.6740166,23.0948093],[120.6739205,23.0948865],[120.6737676,23.0950615],[120.6736669,23.095115],[120.6736001,23.0951431],[120.6734968,23.0951224],[120.6733983,23.0951358],[120.6733343,23.095138],[120.6732891,23.095119],[120.6732459,23.0950855],[120.6732239,23.0950193],[120.6732044,23.0949669],[120.6732069,23.0949055],[120.6731677,23.0948212],[120.6730965,23.0947572],[120.6730721,23.0947027],[120.6729739,23.0946182],[120.6728382,23.0945692],[120.6727207,23.0945266],[120.672637,23.0945332],[120.6725768,23.0945571],[120.6724891,23.0946217],[120.6724005,23.0946557],[120.6722602,23.0946645],[120.6721651,23.0946796],[120.6720781,23.0946687],[120.6720315,23.0946321],[120.6719922,23.0946139],[120.6719554,23.0945637],[120.6718618,23.0945704],[120.6717832,23.094577],[120.6717388,23.094586],[120.6717176,23.094613],[120.6717264,23.0946452],[120.6717517,23.0946715],[120.6717705,23.0946908],[120.6717828,23.0947273],[120.6717727,23.0947682],[120.6717422,23.0947916],[120.6716964,23.0948136],[120.6716546,23.0948271],[120.6716176,23.0948252],[120.6715414,23.0948019],[120.6714726,23.0947653],[120.6714111,23.0947675],[120.6713495,23.0947832],[120.6712938,23.0948079],[120.6711329,23.0948511],[120.6709728,23.0948986],[120.6708701,23.0949508],[120.6708053,23.0949869],[120.6707586,23.0949846],[120.6706947,23.0949321],[120.6706283,23.0949024],[120.670562,23.0949097],[120.6703821,23.0949496],[120.6702689,23.0949699],[120.6702482,23.0949639],[120.6701978,23.0949494],[120.670114,23.0949354],[120.6699789,23.0948714],[120.6698117,23.0948074],[120.669738,23.0947754],[120.6696345,23.0947649],[120.6695583,23.0947886],[120.6694695,23.0948681],[120.6694031,23.0948838],[120.6693366,23.0948747],[120.6693022,23.0948586],[120.6692211,23.0948448],[120.6691496,23.0948833],[120.6690635,23.0949287],[120.6686894,23.094937],[120.6685276,23.0949529],[120.6683818,23.0949341],[120.668227,23.0948905],[120.6680279,23.0948059],[120.6679198,23.0947419],[120.6678066,23.0947394],[120.6677624,23.0946756],[120.6676962,23.0946163],[120.6676593,23.0945866],[120.6676008,23.0945765],[120.6675339,23.0945567],[120.6674331,23.0945451],[120.6673125,23.0945562],[120.667199,23.0946539],[120.6670512,23.094756],[120.6669033,23.0948558],[120.666672,23.0949708],[120.6665067,23.0950144],[120.6663959,23.0950346],[120.6662828,23.0950573],[120.6661448,23.0951093],[120.6659209,23.0951043],[120.665771,23.0950627]],[[120.6719881,23.0980781],[120.6720062,23.0979531],[120.6720899,23.0978473],[120.6722285,23.0977477],[120.6723366,23.0976637],[120.6724314,23.0975578],[120.6724923,23.0974799],[120.6725463,23.0974332],[120.6726308,23.0974115],[120.6727861,23.0973557],[120.6729009,23.0972966],[120.673046,23.0972782],[120.6731068,23.0972939],[120.6732214,23.0972754],[120.6733329,23.09726],[120.6733903,23.0972133],[120.6734762,23.097163],[120.6735559,23.0971138],[120.6736707,23.0970735],[120.6737584,23.0970612],[120.6738258,23.0971081],[120.6738763,23.0971457],[120.6740078,23.0971709],[120.6742692,23.0972056],[120.6742939,23.0972056],[120.674325,23.0972168],[120.6743435,23.0972168],[120.6743931,23.0972223],[120.6744179,23.0972222],[120.6745168,23.0971874],[120.6746217,23.0971296],[120.674774,23.0970258],[120.6748856,23.096948],[120.674943,23.0969013],[120.6749732,23.09683],[120.6750103,23.0968184],[120.6751018,23.0967861],[120.6752705,23.096774],[120.6753372,23.0967421],[120.6753822,23.0966557],[120.6753718,23.0964208],[120.6753788,23.0962928],[120.675471,23.0961815],[120.6754849,23.0960317],[120.6754785,23.0958537],[120.6754486,23.0956789],[120.6753479,23.0955196],[120.6753262,23.0953525],[120.6753435,23.0951888],[120.6753947,23.0949749]],[[120.6763391,23.0950988],[120.6761746,23.0950585],[120.675883,23.0949752],[120.6756486,23.0949357],[120.675528,23.0949487],[120.6753947,23.0949749]]]}},{"type":"Feature","properties":{"ID":"1306","Debrisno":"高市DF045","County01":"高雄市","Town01":"桃源區","Vill01":"建山里","Name":"-","Mark":"建山國小","Roadname":"台20線","Potential":"","Length":"0.947","R_area":"","Basin":"高屏溪","Sub_basin":"荖濃","Full":"高雄市桃源區建山里","Date":"20210824","Type":"溪流型"},"geometry":{"type":"LineString","coordinates":[[120.6811444,23.1064334],[120.6811322,23.1065411],[120.6811131,23.1066606],[120.6811058,23.106755],[120.6810696,23.1068425],[120.6809399,23.1069494],[120.6808157,23.1070738],[120.6806905,23.1071795],[120.6805173,23.1073029],[120.6803354,23.1073695],[120.6802087,23.1074116],[120.6800669,23.107474],[120.6799131,23.1075941],[120.6797892,23.1077026],[120.6796883,23.1077996],[120.6795702,23.1079134],[120.6794299,23.1080093],[120.6793463,23.108059],[120.6791846,23.1080861],[120.6789597,23.1081716],[120.6788906,23.1082202],[120.6787612,23.1082473],[120.6786466,23.1082557],[120.6785386,23.1082974],[120.6784497,23.1083475],[120.6783606,23.1084172],[120.678223,23.1084717],[120.678142,23.1085289],[120.6781015,23.1085986],[120.6779449,23.1087528],[120.6778017,23.108887],[120.6777072,23.1089666],[120.6775886,23.1090312],[120.6775076,23.1090734],[120.6774348,23.1091157],[120.6773187,23.1092052],[120.6771647,23.109342],[120.6770971,23.109419],[120.6770512,23.1094962],[120.677016,23.1095485],[120.6770025,23.1095958],[120.6769996,23.1096656],[120.6769644,23.1097303],[120.6768982,23.1098061],[120.676832,23.109897],[120.6767375,23.1099915],[120.6766403,23.1100587],[120.6765413,23.1100869],[120.6764057,23.1101255],[120.6763141,23.1101353],[120.6762225,23.1101127],[120.6761687,23.11011],[120.6761053,23.1101236],[120.6759962,23.1101296],[120.6757991,23.1102613],[120.6754037,23.1105558],[120.6749569,23.1109175],[120.6745142,23.1112606],[120.6742588,23.1115305]]}},{"type":"Feature","properties":{"ID":"1307","Debrisno":"高市DF064","County01":"高雄市","Town01":"桃源區","Vill01":"建山里","Name":"-","Mark":"建山二橋","Roadname":"台20線","Potential":"","Length":"2.656","R_area":"","Basin":"高屏溪","Sub_basin":"荖濃","Full":"高雄市桃源區建山里","Date":"20240815","Type":"溪流型"},"geometry":{"type":"LineString","coordinates":[[120.6891274,23.1041427],[120.6890781,23.1041759],[120.6889312,23.1042743],[120.6888835,23.1043145],[120.6888498,23.1043511],[120.6888368,23.1043941],[120.6888545,23.1044473],[120.6888742,23.1045006],[120.6889117,23.1045555],[120.6889294,23.1046289],[120.6889331,23.1046875],[120.6889339,23.1047618],[120.6888794,23.1048212],[120.6888733,23.1048742],[120.6888861,23.1049467],[120.6888759,23.1050327],[120.6888455,23.1050721],[120.6888025,23.1051279],[120.6887745,23.1052047],[120.6887614,23.1053046],[120.6887177,23.1053338],[120.6886028,23.1053629],[120.6885128,23.1053673],[120.6884364,23.1053846],[120.688368,23.1054202],[120.6882935,23.1055052],[120.6881405,23.1057028],[120.6878963,23.1059222],[120.6876504,23.1060573],[120.687575,23.1061011],[120.6875194,23.1061779],[120.6874507,23.1063346],[120.6874199,23.1063977],[120.6873564,23.1064781],[120.6872769,23.1065513],[120.687245,23.1066465],[120.6872606,23.1067491],[120.6872644,23.1068004],[120.6872237,23.1068655],[120.6870344,23.1069502],[120.6869869,23.1070048],[120.6869231,23.1070783],[120.6868793,23.1071844],[120.6867749,23.1073263],[120.686657,23.107371],[120.6866013,23.1074441],[120.6864821,23.1076308],[120.6864146,23.1076856],[120.6861515,23.1078631],[120.6859939,23.1080145],[120.6858538,23.1081893],[120.6856245,23.1083949],[120.6854804,23.1086062],[120.6853185,23.1088304],[120.6852549,23.1089329],[120.6851912,23.1090469],[120.6850166,23.1091853],[120.6848766,23.1093124],[120.6848209,23.1094259],[120.6847662,23.1095109],[120.6847145,23.1096318],[120.6846626,23.1098295],[120.6845943,23.1101739],[120.6845107,23.1103716],[120.6844204,23.110561],[120.6842324,23.1107778],[120.6839982,23.1109862],[120.6837946,23.1111974],[120.6837056,23.1113464],[120.6836127,23.111502],[120.683417,23.1117829],[120.6833403,23.1119264],[120.683207,23.1121755],[120.6830757,23.1124318],[120.6830467,23.1125701],[120.6830036,23.1127284],[120.6829162,23.1128896],[120.6827523,23.113046],[120.6826818,23.1131016],[120.6825709,23.1131381],[120.6823279,23.1132283],[120.6822616,23.1132584],[120.6820515,23.1132983],[120.681885,23.1133603],[120.6815438,23.1135794],[120.6811995,23.1137031],[120.6809688,23.1137945],[120.680599,23.1139614],[120.6804651,23.114039],[120.6800606,23.1142067],[120.6797728,23.1143567],[120.6796797,23.1144111],[120.6794656,23.1144913],[120.6793665,23.1145717],[120.6792874,23.1146758],[120.6791718,23.114761],[120.6790252,23.1148002],[120.6789259,23.1148604],[120.678779,23.1150057],[120.6787194,23.1150505],[120.6785999,23.1150853],[120.6784619,23.11505],[120.6783075,23.1150607],[120.6781925,23.1150952],[120.6780931,23.1152141],[120.6779996,23.1153898],[120.6778943,23.1155142],[120.6778247,23.1156239],[120.6777788,23.1157669],[120.6777209,23.1159536],[120.6776819,23.1160155],[120.6775934,23.1161559],[120.677524,23.116272],[120.6775079,23.1164076],[120.677452,23.1165724],[120.6774315,23.1168508],[120.6773833,23.1171182],[120.6773354,23.1172684],[120.6773329,23.1174274],[120.6773216,23.1177393],[120.6773597,23.1179375],[120.6774613,23.1180644],[120.6775594,23.1181718],[120.6776295,23.1182401],[120.6776365,23.1182792],[120.6775906,23.1183342],[120.6775447,23.1184187],[120.6775208,23.118469],[120.6774707,23.1185745],[120.6774492,23.1186751],[120.6776756,23.1190042],[120.6777075,23.1190977],[120.6776913,23.1191966],[120.6776395,23.1193247],[120.6776036,23.1194494],[120.6775954,23.1195886],[120.6776662,23.1197829],[120.6777013,23.1200139],[120.6777088,23.1201861],[120.6777363,23.120285],[120.6778074,23.1203842],[120.6779615,23.1205861],[120.678143,23.1208723],[120.678222,23.120986],[120.6783129,23.1210778],[120.6783681,23.1211622],[120.6784155,23.1212796],[120.6784389,23.1213932],[120.6784505,23.1214922],[120.6785056,23.1216243],[120.6785292,23.1217526],[120.6785289,23.1218515],[120.6785444,23.1219944],[120.6785125,23.1221153],[120.6785201,23.1222547],[120.6785356,23.1223646]]}}]}